station,local time,ghi mean,ghi count,ghi fill count,ghi max,ghi min,dni mean,dni count,dni fill count,dni max,dni min,dhi mean,dhi count,dhi fill count,dhi max,dhi min,diffuse mean,diffuse count,diffuse fill count,diffuse max,diffuse min,terrestrial mean,terrestrial count,terrestrial fill count,terrestrial max,terrestrial min,seconds dni exceeding 120 W/sq m,seconds dni exceeding 144 W/sq m,seconds dni exceeding 96 W/sq m,zenith mean,zenith count,zenith fill count,air temp mean,air temp count,air temp fill count,air temp max,air temp min,wet bulb mean,wet bulb count,wet bulb fill count,wet bulb max,wet bulb min,dew point mean,dew point count,dew point fill count,dew point max,dew point min,relative humidity mean,relative humidity count,relative humidity fill count,relative humidity max,relative humidity min,wind speed mean,wind speed count,wind speed fill count,wind speed max,wind speed min,wind direction,precipitation,msl pressure mean,msl pressure count,msl pressure fill count,qnh pressure mean,qnh pressure fill count,station level pressure mean,station level pressure count,station level pressure fill count,visibility mean,visibility count,visibility fill count
86282,2012-01-16 00:00:00,0.0,60,0,0.0,0.0,0.0,60,0,0.0,0.0,0.0,60,0,0.0,0.0,0.0,60,0,0.0,0.0,337.4,60,0,342.9,323.3,0,0,0,28.1,60,0,10.2,60,0,10.4,10.1,7.4,60,0,7.6,7.1,3.9,60,0,4.6,3.0,64.6,60,0,69.0,60.0,28.1,60,0,39.0,18.0,239,0.0,1021.4,60,0,1021.4,0,1007.1,60,0,46.2,60,0
86282,2012-01-31 00:00:00,0.0,60,0,0.0,0.0,0.0,60,0,0.0,0.0,0.0,60,0,0.0,0.0,0.0,60,0,0.0,0.0,337.4,60,0,342.9,323.3,0,0,0,28.1,60,0,10.2,60,0,10.4,10.1,7.4,60,0,7.6,7.1,3.9,60,0,4.6,3.0,64.6,60,0,69.0,60.0,28.1,60,0,39.0,18.0,239,0.0,1021.4,60,0,1021.4,0,1007.1,60,0,46.2,60,0
86282,2012-03-01 00:00:00,0.0,60,0,0.0,0.0,0.0,60,0,0.0,0.0,0.0,60,0,0.0,0.0,0.0,60,0,0.0,0.0,337.4,60,0,342.9,323.3,0,0,0,28.1,60,0,10.2,60,0,10.4,10.1,7.4,60,0,7.6,7.1,3.9,60,0,4.6,3.0,64.6,60,0,69.0,60.0,28.1,60,0,39.0,18.0,239,0.0,1021.4,60,0,1021.4,0,1007.1,60,0,46.2,60,0
86282,2012-03-16 00:00:00,0.0,60,0,0.0,0.0,0.0,60,0,0.0,0.0,0.0,60,0,0.0,0.0,0.0,60,0,0.0,0.0,337.4,60,0,342.9,323.3,0,0,0,28.1,60,0,10.2,60,0,10.4,10.1,7.4,60,0,7.6,7.1,3.9,60,0,4.6,3.0,64.6,60,0,69.0,60.0,28.1,60,0,39.0,18.0,239,0.0,1021.4,60,0,1021.4,0,1007.1,60,0,46.2,60,0
86282,2012-03-31 00:00:00,0.0,60,0,0.0,0.0,0.0,60,0,0.0,0.0,0.0,60,0,0.0,0.0,0.0,60,0,0.0,0.0,337.4,60,0,342.9,323.3,0,0,0,28.1,60,0,10.2,60,0,10.4,10.1,7.4,60,0,7.6,7.1,3.9,60,0,4.6,3.0,64.6,60,0,69.0,60.0,28.1,60,0,39.0,18.0,239,0.0,1021.4,60,0,1021.4,0,1007.1,60,0,46.2,60,0
86282,2012-04-15 00:00:00,0.0,60,0,0.0,0.0,0.0,60,0,0.0,0.0,0.0,60,0,0.0,0.0,0.0,60,0,0.0,0.0,337.4,60,0,342.9,323.3,0,0,0,28.1,60,0,10.2,60,0,10.4,10.1,7.4,60,0,7.6,7.1,3.9,60,0,4.6,3.0,64.6,60,0,69.0,60.0,28.1,60,0,39.0,18.0,239,0.0,1021.4,60,0,1021.4,0,1007.1,60,0,46.2,60,0
86282,2012-04-30 00:00:00,0.0,60,0,0.0,0.0,0.0,60,0,0.0,0.0,0.0,60,0,0.0,0.0,0.0,60,0,0.0,0.0,337.4,60,0,342.9,323.3,0,0,0,28.1,60,0,10.2,60,0,10.4,10.1,7.4,60,0,7.6,7.1,3.9,60,0,4.6,3.0,64.6,60,0,69.0,60.0,28.1,60,0,39.0,18.0,239,0.0,1021.4,60,0,1021.4,0,1007.1,60,0,46.2,60,0
86282,2012-05-15 00:00:00,0.0,60,0,0.0,0.0,0.0,60,0,0.0,0.0,0.0,60,0,0.0,0.0,0.0,60,0,0.0,0.0,337.4,60,0,342.9,323.3,0,0,0,28.1,60,0,10.2,60,0,10.4,10.1,7.4,60,0,7.6,7.1,3.9,60,0,4.6,3.0,64.6,60,0,69.0,60.0,28.1,60,0,39.0,18.0,239,0.0,1021.4,60,0,1021.4,0,1007.1,60,0,46.2,60,0
86282,2012-05-30 00:00:00,0.0,60,0,0.0,0.0,0.0,60,0,0.0,0.0,0.0,60,0,0.0,0.0,0.0,60,0,0.0,0.0,337.4,60,0,342.9,323.3,0,0,0,28.1,60,0,10.2,60,0,10.4,10.1,7.4,60,0,7.6,7.1,3.9,60,0,4.6,3.0,64.6,60,0,69.0,60.0,28.1,60,0,39.0,18.0,239,0.0,1021.4,60,0,1021.4,0,1007.1,60,0,46.2,60,0
86282,2012-06-14 00:00:00,0.0,60,0,0.0,0.0,0.0,60,0,0.0,0.0,0.0,60,0,0.0,0.0,0.0,60,0,0.0,0.0,337.4,60,0,342.9,323.3,0,0,0,28.1,60,0,10.2,60,0,10.4,10.1,7.4,60,0,7.6,7.1,3.9,60,0,4.6,3.0,64.6,60,0,69.0,60.0,28.1,60,0,39.0,18.0,239,0.0,1021.4,60,0,1021.4,0,1007.1,60,0,46.2,60,0
86282,2012-06-29 00:00:00,0.0,60,0,0.0,0.0,0.0,60,0,0.0,0.0,0.0,60,0,0.0,0.0,0.0,60,0,0.0,0.0,337.4,60,0,342.9,323.3,0,0,0,28.1,60,0,10.2,60,0,10.4,10.1,7.4,60,0,7.6,7.1,3.9,60,0,4.6,3.0,64.6,60,0,69.0,60.0,28.1,60,0,39.0,18.0,239,0.0,1021.4,60,0,1021.4,0,1007.1,60,0,46.2,60,0
86282,2012-07-14 00:00:00,0.0,60,0,0.0,0.0,0.0,60,0,0.0,0.0,0.0,60,0,0.0,0.0,0.0,60,0,0.0,0.0,337.4,60,0,342.9,323.3,0,0,0,28.1,60,0,10.2,60,0,10.4,10.1,7.4,60,0,7.6,7.1,3.9,60,0,4.6,3.0,64.6,60,0,69.0,60.0,28.1,60,0,39.0,18.0,239,0.0,1021.4,60,0,1021.4,0,1007.1,60,0,46.2,60,0
86282,2012-07-29 00:00:00,0.0,60,0,0.0,0.0,0.0,60,0,0.0,0.0,0.0,60,0,0.0,0.0,0.0,60,0,0.0,0.0,337.4,60,0,342.9,323.3,0,0,0,28.1,60,0,10.2,60,0,10.4,10.1,7.4,60,0,7.6,7.1,3.9,60,0,4.6,3.0,64.6,60,0,69.0,60.0,28.1,60,0,39.0,18.0,239,0.0,1021.4,60,0,1021.4,0,1007.1,60,0,46.2,60,0
86282,2012-08-13 00:00:00,0.0,60,0,0.0,0.0,0.0,60,0,0.0,0.0,0.0,60,0,0.0,0.0,0.0,60,0,0.0,0.0,337.4,60,0,342.9,323.3,0,0,0,28.1,60,0,10.2,60,0,10.4,10.1,7.4,60,0,7.6,7.1,3.9,60,0,4.6,3.0,64.6,60,0,69.0,60.0,28.1,60,0,39.0,18.0,239,0.0,1021.4,60,0,1021.4,0,1007.1,60,0,46.2,60,0
86282,2012-08-28 00:00:00,0.0,60,0,0.0,0.0,0.0,60,0,0.0,0.0,0.0,60,0,0.0,0.0,0.0,60,0,0.0,0.0,337.4,60,0,342.9,323.3,0,0,0,28.1,60,0,10.2,60,0,10.4,10.1,7.4,60,0,7.6,7.1,3.9,60,0,4.6,3.0,64.6,60,0,69.0,60.0,28.1,60,0,39.0,18.0,239,0.0,1021.4,60,0,1021.4,0,1007.1,60,0,46.2,60,0
86282,2012-09-12 00:00:00,0.0,60,0,0.0,0.0,0.0,60,0,0.0,0.0,0.0,60,0,0.0,0.0,0.0,60,0,0.0,0.0,337.4,60,0,342.9,323.3,0,0,0,28.1,60,0,10.2,60,0,10.4,10.1,7.4,60,0,7.6,7.1,3.9,60,0,4.6,3.0,64.6,60,0,69.0,60.0,28.1,60,0,39.0,18.0,239,0.0,1021.4,60,0,1021.4,0,1007.1,60,0,46.2,60,0
86282,2012-09-27 00:00:00,0.0,60,0,0.0,0.0,0.0,60,0,0.0,0.0,0.0,60,0,0.0,0.0,0.0,60,0,0.0,0.0,337.4,60,0,342.9,323.3,0,0,0,28.1,60,0,10.2,60,0,10.4,10.1,7.4,60,0,7.6,7.1,3.9,60,0,4.6,3.0,64.6,60,0,69.0,60.0,28.1,60,0,39.0,18.0,239,0.0,1021.4,60,0,1021.4,0,1007.1,60,0,46.2,60,0
86282,2012-10-12 00:00:00,0.0,60,0,0.0,0.0,0.0,60,0,0.0,0.0,0.0,60,0,0.0,0.0,0.0,60,0,0.0,0.0,337.4,60,0,342.9,323.3,0,0,0,28.1,60,0,10.2,60,0,10.4,10.1,7.4,60,0,7.6,7.1,3.9,60,0,4.6,3.0,64.6,60,0,69.0,60.0,28.1,60,0,39.0,18.0,239,0.0,1021.4,60,0,1021.4,0,1007.1,60,0,46.2,60,0
86282,2012-10-27 00:00:00,0.0,60,0,0.0,0.0,0.0,60,0,0.0,0.0,0.0,60,0,0.0,0.0,0.0,60,0,0.0,0.0,337.4,60,0,342.9,323.3,0,0,0,28.1,60,0,10.2,60,0,10.4,10.1,7.4,60,0,7.6,7.1,3.9,60,0,4.6,3.0,64.6,60,0,69.0,60.0,28.1,60,0,39.0,18.0,239,0.0,1021.4,60,0,1021.4,0,1007.1,60,0,46.2,60,0
86282,2012-11-11 00:00:00,0.0,60,0,0.0,0.0,0.0,60,0,0.0,0.0,0.0,60,0,0.0,0.0,0.0,60,0,0.0,0.0,337.4,60,0,342.9,323.3,0,0,0,28.1,60,0,10.2,60,0,10.4,10.1,7.4,60,0,7.6,7.1,3.9,60,0,4.6,3.0,64.6,60,0,69.0,60.0,28.1,60,0,39.0,18.0,239,0.0,1021.4,60,0,1021.4,0,1007.1,60,0,46.2,60,0
86282,2012-11-26 00:00:00,0.0,60,0,0.0,0.0,0.0,60,0,0.0,0.0,0.0,60,0,0.0,0.0,0.0,60,0,0.0,0.0,337.4,60,0,342.9,323.3,0,0,0,28.1,60,0,10.2,60,0,10.4,10.1,7.4,60,0,7.6,7.1,3.9,60,0,4.6,3.0,64.6,60,0,69.0,60.0,28.1,60,0,39.0,18.0,239,0.0,1021.4,60,0,1021.4,0,1007.1,60,0,46.2,60,0
86282,2012-12-11 00:00:00,0.0,60,0,0.0,0.0,0.0,60,0,0.0,0.0,0.0,60,0,0.0,0.0,0.0,60,0,0.0,0.0,337.4,60,0,342.9,323.3,0,0,0,28.1,60,0,10.2,60,0,10.4,10.1,7.4,60,0,7.6,7.1,3.9,60,0,4.6,3.0,64.6,60,0,69.0,60.0,28.1,60,0,39.0,18.0,239,0.0,1021.4,60,0,1021.4,0,1007.1,60,0,46.2,60,0
86282,2012-12-26 00:00:00,0.0,60,0,0.0,0.0,0.0,60,0,0.0,0.0,0.0,60,0,0.0,0.0,0.0,60,0,0.0,0.0,337.4,60,0,342.9,323.3,0,0,0,28.1,60,0,10.2,60,0,10.4,10.1,7.4,60,0,7.6,7.1,3.9,60,0,4.6,3.0,64.6,60,0,69.0,60.0,28.1,60,0,39.0,18.0,239,0.0,1021.4,60,0,1021.4,0,1007.1,60,0,46.2,60,0
86282,2013-01-10 00:00:00,0.0,60,0,0.0,0.0,0.0,60,0,0.0,0.0,0.0,60,0,0.0,0.0,0.0,60,0,0.0,0.0,337.4,60,0,342.9,323.3,0,0,0,28.1,60,0,10.2,60,0,10.4,10.1,7.4,60,0,7.6,7.1,3.9,60,0,4.6,3.0,64.6,60,0,69.0,60.0,28.1,60,0,39.0,18.0,239,0.0,1021.4,60,0,1021.4,0,1007.1,60,0,46.2,60,0
86282,2013-01-25 00:00:00,0.0,60,0,0.0,0.0,0.0,60,0,0.0,0.0,0.0,60,0,0.0,0.0,0.0,60,0,0.0,0.0,337.4,60,0,342.9,323.3,0,0,0,28.1,60,0,10.2,60,0,10.4,10.1,7.4,60,0,7.6,7.1,3.9,60,0,4.6,3.0,64.6,60,0,69.0,60.0,28.1,60,0,39.0,18.0,239,0.0,1021.4,60,0,1021.4,0,1007.1,60,0,46.2,60,0
86282,2013-03-11 00:00:00,0.0,60,0,0.0,0.0,0.0,60,0,0.0,0.0,0.0,60,0,0.0,0.0,0.0,60,0,0.0,0.0,337.4,60,0,342.9,323.3,0,0,0,28.1,60,0,10.2,60,0,10.4,10.1,7.4,60,0,7.6,7.1,3.9,60,0,4.6,3.0,64.6,60,0,69.0,60.0,28.1,60,0,39.0,18.0,239,0.0,1021.4,60,0,1021.4,0,1007.1,60,0,46.2,60,0
86282,2013-03-26 00:00:00,0.0,60,0,0.0,0.0,0.0,60,0,0.0,0.0,0.0,60,0,0.0,0.0,0.0,60,0,0.0,0.0,337.4,60,0,342.9,323.3,0,0,0,28.1,60,0,10.2,60,0,10.4,10.1,7.4,60,0,7.6,7.1,3.9,60,0,4.6,3.0,64.6,60,0,69.0,60.0,28.1,60,0,39.0,18.0,239,0.0,1021.4,60,0,1021.4,0,1007.1,60,0,46.2,60,0
86282,2013-04-10 00:00:00,0.0,60,0,0.0,0.0,0.0,60,0,0.0,0.0,0.0,60,0,0.0,0.0,0.0,60,0,0.0,0.0,337.4,60,0,342.9,323.3,0,0,0,28.1,60,0,10.2,60,0,10.4,10.1,7.4,60,0,7.6,7.1,3.9,60,0,4.6,3.0,64.6,60,0,69.0,60.0,28.1,60,0,39.0,18.0,239,0.0,1021.4,60,0,1021.4,0,1007.1,60,0,46.2,60,0
86282,2013-04-25 00:00:00,0.0,60,0,0.0,0.0,0.0,60,0,0.0,0.0,0.0,60,0,0.0,0.0,0.0,60,0,0.0,0.0,337.4,60,0,342.9,323.3,0,0,0,28.1,60,0,10.2,60,0,10.4,10.1,7.4,60,0,7.6,7.1,3.9,60,0,4.6,3.0,64.6,60,0,69.0,60.0,28.1,60,0,39.0,18.0,239,0.0,1021.4,60,0,1021.4,0,1007.1,60,0,46.2,60,0
86282,2013-05-10 00:00:00,0.0,60,0,0.0,0.0,0.0,60,0,0.0,0.0,0.0,60,0,0.0,0.0,0.0,60,0,0.0,0.0,337.4,60,0,342.9,323.3,0,0,0,28.1,60,0,10.2,60,0,10.4,10.1,7.4,60,0,7.6,7.1,3.9,60,0,4.6,3.0,64.6,60,0,69.0,60.0,28.1,60,0,39.0,18.0,239,0.0,1021.4,60,0,1021.4,0,1007.1,60,0,46.2,60,0
86282,2013-05-25 00:00:00,0.0,60,0,0.0,0.0,0.0,60,0,0.0,0.0,0.0,60,0,0.0,0.0,0.0,60,0,0.0,0.0,337.4,60,0,342.9,323.3,0,0,0,28.1,60,0,10.2,60,0,10.4,10.1,7.4,60,0,7.6,7.1,3.9,60,0,4.6,3.0,64.6,60,0,69.0,60.0,28.1,60,0,39.0,18.0,239,0.0,1021.4,60,0,1021.4,0,1007.1,60,0,46.2,60,0
86282,2013-06-09 00:00:00,0.0,60,0,0.0,0.0,0.0,60,0,0.0,0.0,0.0,60,0,0.0,0.0,0.0,60,0,0.0,0.0,337.4,60,0,342.9,323.3,0,0,0,28.1,60,0,10.2,60,0,10.4,10.1,7.4,60,0,7.6,7.1,3.9,60,0,4.6,3.0,64.6,60,0,69.0,60.0,28.1,60,0,39.0,18.0,239,0.0,1021.4,60,0,1021.4,0,1007.1,60,0,46.2,60,0
86282,2013-06-24 00:00:00,0.0,60,0,0.0,0.0,0.0,60,0,0.0,0.0,0.0,60,0,0.0,0.0,0.0,60,0,0.0,0.0,337.4,60,0,342.9,323.3,0,0,0,28.1,60,0,10.2,60,0,10.4,10.1,7.4,60,0,7.6,7.1,3.9,60,0,4.6,3.0,64.6,60,0,69.0,60.0,28.1,60,0,39.0,18.0,239,0.0,1021.4,60,0,1021.4,0,1007.1,60,0,46.2,60,0
86282,2013-07-09 00:00:00,0.0,60,0,0.0,0.0,0.0,60,0,0.0,0.0,0.0,60,0,0.0,0.0,0.0,60,0,0.0,0.0,337.4,60,0,342.9,323.3,0,0,0,28.1,60,0,10.2,60,0,10.4,10.1,7.4,60,0,7.6,7.1,3.9,60,0,4.6,3.0,64.6,60,0,69.0,60.0,28.1,60,0,39.0,18.0,239,0.0,1021.4,60,0,1021.4,0,1007.1,60,0,46.2,60,0
86282,2013-07-24 00:00:00,0.0,60,0,0.0,0.0,0.0,60,0,0.0,0.0,0.0,60,0,0.0,0.0,0.0,60,0,0.0,0.0,337.4,60,0,342.9,323.3,0,0,0,28.1,60,0,10.2,60,0,10.4,10.1,7.4,60,0,7.6,7.1,3.9,60,0,4.6,3.0,64.6,60,0,69.0,60.0,28.1,60,0,39.0,18.0,239,0.0,1021.4,60,0,1021.4,0,1007.1,60,0,46.2,60,0
86282,2013-08-08 00:00:00,0.0,60,0,0.0,0.0,0.0,60,0,0.0,0.0,0.0,60,0,0.0,0.0,0.0,60,0,0.0,0.0,337.4,60,0,342.9,323.3,0,0,0,28.1,60,0,10.2,60,0,10.4,10.1,7.4,60,0,7.6,7.1,3.9,60,0,4.6,3.0,64.6,60,0,69.0,60.0,28.1,60,0,39.0,18.0,239,0.0,1021.4,60,0,1021.4,0,1007.1,60,0,46.2,60,0
86282,2013-08-23 00:00:00,0.0,60,0,0.0,0.0,0.0,60,0,0.0,0.0,0.0,60,0,0.0,0.0,0.0,60,0,0.0,0.0,337.4,60,0,342.9,323.3,0,0,0,28.1,60,0,10.2,60,0,10.4,10.1,7.4,60,0,7.6,7.1,3.9,60,0,4.6,3.0,64.6,60,0,69.0,60.0,28.1,60,0,39.0,18.0,239,0.0,1021.4,60,0,1021.4,0,1007.1,60,0,46.2,60,0
86282,2013-09-07 00:00:00,0.0,60,0,0.0,0.0,0.0,60,0,0.0,0.0,0.0,60,0,0.0,0.0,0.0,60,0,0.0,0.0,337.4,60,0,342.9,323.3,0,0,0,28.1,60,0,10.2,60,0,10.4,10.1,7.4,60,0,7.6,7.1,3.9,60,0,4.6,3.0,64.6,60,0,69.0,60.0,28.1,60,0,39.0,18.0,239,0.0,1021.4,60,0,1021.4,0,1007.1,60,0,46.2,60,0
86282,2013-09-22 00:00:00,0.0,60,0,0.0,0.0,0.0,60,0,0.0,0.0,0.0,60,0,0.0,0.0,0.0,60,0,0.0,0.0,337.4,60,0,342.9,323.3,0,0,0,28.1,60,0,10.2,60,0,10.4,10.1,7.4,60,0,7.6,7.1,3.9,60,0,4.6,3.0,64.6,60,0,69.0,60.0,28.1,60,0,39.0,18.0,239,0.0,1021.4,60,0,1021.4,0,1007.1,60,0,46.2,60,0
86282,2013-10-07 00:00:00,0.0,60,0,0.0,0.0,0.0,60,0,0.0,0.0,0.0,60,0,0.0,0.0,0.0,60,0,0.0,0.0,337.4,60,0,342.9,323.3,0,0,0,28.1,60,0,10.2,60,0,10.4,10.1,7.4,60,0,7.6,7.1,3.9,60,0,4.6,3.0,64.6,60,0,69.0,60.0,28.1,60,0,39.0,18.0,239,0.0,1021.4,60,0,1021.4,0,1007.1,60,0,46.2,60,0
86282,2013-10-22 00:00:00,0.0,60,0,0.0,0.0,0.0,60,0,0.0,0.0,0.0,60,0,0.0,0.0,0.0,60,0,0.0,0.0,337.4,60,0,342.9,323.3,0,0,0,28.1,60,0,10.2,60,0,10.4,10.1,7.4,60,0,7.6,7.1,3.9,60,0,4.6,3.0,64.6,60,0,69.0,60.0,28.1,60,0,39.0,18.0,239,0.0,1021.4,60,0,1021.4,0,1007.1,60,0,46.2,60,0
86282,2013-11-06 00:00:00,0.0,60,0,0.0,0.0,0.0,60,0,0.0,0.0,0.0,60,0,0.0,0.0,0.0,60,0,0.0,0.0,337.4,60,0,342.9,323.3,0,0,0,28.1,60,0,10.2,60,0,10.4,10.1,7.4,60,0,7.6,7.1,3.9,60,0,4.6,3.0,64.6,60,0,69.0,60.0,28.1,60,0,39.0,18.0,239,0.0,1021.4,60,0,1021.4,0,1007.1,60,0,46.2,60,0
86282,2013-11-21 00:00:00,0.0,60,0,0.0,0.0,0.0,60,0,0.0,0.0,0.0,60,0,0.0,0.0,0.0,60,0,0.0,0.0,337.4,60,0,342.9,323.3,0,0,0,28.1,60,0,10.2,60,0,10.4,10.1,7.4,60,0,7.6,7.1,3.9,60,0,4.6,3.0,64.6,60,0,69.0,60.0,28.1,60,0,39.0,18.0,239,0.0,1021.4,60,0,1021.4,0,1007.1,60,0,46.2,60,0
86282,2013-12-06 00:00:00,0.0,60,0,0.0,0.0,0.0,60,0,0.0,0.0,0.0,60,0,0.0,0.0,0.0,60,0,0.0,0.0,337.4,60,0,342.9,323.3,0,0,0,28.1,60,0,10.2,60,0,10.4,10.1,7.4,60,0,7.6,7.1,3.9,60,0,4.6,3.0,64.6,60,0,69.0,60.0,28.1,60,0,39.0,18.0,239,0.0,1021.4,60,0,1021.4,0,1007.1,60,0,46.2,60,0
86282,2013-12-21 00:00:00,0.0,60,0,0.0,0.0,0.0,60,0,0.0,0.0,0.0,60,0,0.0,0.0,0.0,60,0,0.0,0.0,337.4,60,0,342.9,323.3,0,0,0,28.1,60,0,10.2,60,0,10.4,10.1,7.4,60,0,7.6,7.1,3.9,60,0,4.6,3.0,64.6,60,0,69.0,60.0,28.1,60,0,39.0,18.0,239,0.0,1021.4,60,0,1021.4,0,1007.1,60,0,46.2,60,0
86282,2014-01-05 00:00:00,0.0,60,0,0.0,0.0,0.0,60,0,0.0,0.0,0.0,60,0,0.0,0.0,0.0,60,0,0.0,0.0,337.4,60,0,342.9,323.3,0,0,0,28.1,60,0,10.2,60,0,10.4,10.1,7.4,60,0,7.6,7.1,3.9,60,0,4.6,3.0,64.6,60,0,69.0,60.0,28.1,60,0,39.0,18.0,239,0.0,1021.4,60,0,1021.4,0,1007.1,60,0,46.2,60,0
86282,2014-01-20 00:00:00,0.0,60,0,0.0,0.0,0.0,60,0,0.0,0.0,0.0,60,0,0.0,0.0,0.0,60,0,0.0,0.0,337.4,60,0,342.9,323.3,0,0,0,28.1,60,0,10.2,60,0,10.4,10.1,7.4,60,0,7.6,7.1,3.9,60,0,4.6,3.0,64.6,60,0,69.0,60.0,28.1,60,0,39.0,18.0,239,0.0,1021.4,60,0,1021.4,0,1007.1,60,0,46.2,60,0
86282,2014-03-06 00:00:00,0.0,60,0,0.0,0.0,0.0,60,0,0.0,0.0,0.0,60,0,0.0,0.0,0.0,60,0,0.0,0.0,337.4,60,0,342.9,323.3,0,0,0,28.1,60,0,10.2,60,0,10.4,10.1,7.4,60,0,7.6,7.1,3.9,60,0,4.6,3.0,64.6,60,0,69.0,60.0,28.1,60,0,39.0,18.0,239,0.0,1021.4,60,0,1021.4,0,1007.1,60,0,46.2,60,0
86282,2014-03-21 00:00:00,0.0,60,0,0.0,0.0,0.0,60,0,0.0,0.0,0.0,60,0,0.0,0.0,0.0,60,0,0.0,0.0,337.4,60,0,342.9,323.3,0,0,0,28.1,60,0,10.2,60,0,10.4,10.1,7.4,60,0,7.6,7.1,3.9,60,0,4.6,3.0,64.6,60,0,69.0,60.0,28.1,60,0,39.0,18.0,239,0.0,1021.4,60,0,1021.4,0,1007.1,60,0,46.2,60,0
86282,2014-04-05 00:00:00,0.0,60,0,0.0,0.0,0.0,60,0,0.0,0.0,0.0,60,0,0.0,0.0,0.0,60,0,0.0,0.0,337.4,60,0,342.9,323.3,0,0,0,28.1,60,0,10.2,60,0,10.4,10.1,7.4,60,0,7.6,7.1,3.9,60,0,4.6,3.0,64.6,60,0,69.0,60.0,28.1,60,0,39.0,18.0,239,0.0,1021.4,60,0,1021.4,0,1007.1,60,0,46.2,60,0
86282,2014-04-20 00:00:00,0.0,60,0,0.0,0.0,0.0,60,0,0.0,0.0,0.0,60,0,0.0,0.0,0.0,60,0,0.0,0.0,337.4,60,0,342.9,323.3,0,0,0,28.1,60,0,10.2,60,0,10.4,10.1,7.4,60,0,7.6,7.1,3.9,60,0,4.6,3.0,64.6,60,0,69.0,60.0,28.1,60,0,39.0,18.0,239,0.0,1021.4,60,0,1021.4,0,1007.1,60,0,46.2,60,0
86282,2014-05-05 00:00:00,0.0,60,0,0.0,0.0,0.0,60,0,0.0,0.0,0.0,60,0,0.0,0.0,0.0,60,0,0.0,0.0,337.4,60,0,342.9,323.3,0,0,0,28.1,60,0,10.2,60,0,10.4,10.1,7.4,60,0,7.6,7.1,3.9,60,0,4.6,3.0,64.6,60,0,69.0,60.0,28.1,60,0,39.0,18.0,239,0.0,1021.4,60,0,1021.4,0,1007.1,60,0,46.2,60,0
86282,2014-05-20 00:00:00,0.0,60,0,0.0,0.0,0.0,60,0,0.0,0.0,0.0,60,0,0.0,0.0,0.0,60,0,0.0,0.0,337.4,60,0,342.9,323.3,0,0,0,28.1,60,0,10.2,60,0,10.4,10.1,7.4,60,0,7.6,7.1,3.9,60,0,4.6,3.0,64.6,60,0,69.0,60.0,28.1,60,0,39.0,18.0,239,0.0,1021.4,60,0,1021.4,0,1007.1,60,0,46.2,60,0
86282,2014-06-04 00:00:00,0.0,60,0,0.0,0.0,0.0,60,0,0.0,0.0,0.0,60,0,0.0,0.0,0.0,60,0,0.0,0.0,337.4,60,0,342.9,323.3,0,0,0,28.1,60,0,10.2,60,0,10.4,10.1,7.4,60,0,7.6,7.1,3.9,60,0,4.6,3.0,64.6,60,0,69.0,60.0,28.1,60,0,39.0,18.0,239,0.0,1021.4,60,0,1021.4,0,1007.1,60,0,46.2,60,0
86282,2014-06-19 00:00:00,0.0,60,0,0.0,0.0,0.0,60,0,0.0,0.0,0.0,60,0,0.0,0.0,0.0,60,0,0.0,0.0,337.4,60,0,342.9,323.3,0,0,0,28.1,60,0,10.2,60,0,10.4,10.1,7.4,60,0,7.6,7.1,3.9,60,0,4.6,3.0,64.6,60,0,69.0,60.0,28.1,60,0,39.0,18.0,239,0.0,1021.4,60,0,1021.4,0,1007.1,60,0,46.2,60,0
86282,2014-07-04 00:00:00,0.0,60,0,0.0,0.0,0.0,60,0,0.0,0.0,0.0,60,0,0.0,0.0,0.0,60,0,0.0,0.0,337.4,60,0,342.9,323.3,0,0,0,28.1,60,0,10.2,60,0,10.4,10.1,7.4,60,0,7.6,7.1,3.9,60,0,4.6,3.0,64.6,60,0,69.0,60.0,28.1,60,0,39.0,18.0,239,0.0,1021.4,60,0,1021.4,0,1007.1,60,0,46.2,60,0
86282,2014-07-19 00:00:00,0.0,60,0,0.0,0.0,0.0,60,0,0.0,0.0,0.0,60,0,0.0,0.0,0.0,60,0,0.0,0.0,337.4,60,0,342.9,323.3,0,0,0,28.1,60,0,10.2,60,0,10.4,10.1,7.4,60,0,7.6,7.1,3.9,60,0,4.6,3.0,64.6,60,0,69.0,60.0,28.1,60,0,39.0,18.0,239,0.0,1021.4,60,0,1021.4,0,1007.1,60,0,46.2,60,0
86282,2014-08-03 00:00:00,0.0,60,0,0.0,0.0,0.0,60,0,0.0,0.0,0.0,60,0,0.0,0.0,0.0,60,0,0.0,0.0,337.4,60,0,342.9,323.3,0,0,0,28.1,60,0,10.2,60,0,10.4,10.1,7.4,60,0,7.6,7.1,3.9,60,0,4.6,3.0,64.6,60,0,69.0,60.0,28.1,60,0,39.0,18.0,239,0.0,1021.4,60,0,1021.4,0,1007.1,60,0,46.2,60,0
86282,2014-08-18 00:00:00,0.0,60,0,0.0,0.0,0.0,60,0,0.0,0.0,0.0,60,0,0.0,0.0,0.0,60,0,0.0,0.0,337.4,60,0,342.9,323.3,0,0,0,28.1,60,0,10.2,60,0,10.4,10.1,7.4,60,0,7.6,7.1,3.9,60,0,4.6,3.0,64.6,60,0,69.0,60.0,28.1,60,0,39.0,18.0,239,0.0,1021.4,60,0,1021.4,0,1007.1,60,0,46.2,60,0
86282,2014-09-02 00:00:00,0.0,60,0,0.0,0.0,0.0,60,0,0.0,0.0,0.0,60,0,0.0,0.0,0.0,60,0,0.0,0.0,337.4,60,0,342.9,323.3,0,0,0,28.1,60,0,10.2,60,0,10.4,10.1,7.4,60,0,7.6,7.1,3.9,60,0,4.6,3.0,64.6,60,0,69.0,60.0,28.1,60,0,39.0,18.0,239,0.0,1021.4,60,0,1021.4,0,1007.1,60,0,46.2,60,0
86282,2014-09-17 00:00:00,0.0,60,0,0.0,0.0,0.0,60,0,0.0,0.0,0.0,60,0,0.0,0.0,0.0,60,0,0.0,0.0,337.4,60,0,342.9,323.3,0,0,0,28.1,60,0,10.2,60,0,10.4,10.1,7.4,60,0,7.6,7.1,3.9,60,0,4.6,3.0,64.6,60,0,69.0,60.0,28.1,60,0,39.0,18.0,239,0.0,1021.4,60,0,1021.4,0,1007.1,60,0,46.2,60,0
86282,2014-10-02 00:00:00,0.0,60,0,0.0,0.0,0.0,60,0,0.0,0.0,0.0,60,0,0.0,0.0,0.0,60,0,0.0,0.0,337.4,60,0,342.9,323.3,0,0,0,28.1,60,0,10.2,60,0,10.4,10.1,7.4,60,0,7.6,7.1,3.9,60,0,4.6,3.0,64.6,60,0,69.0,60.0,28.1,60,0,39.0,18.0,239,0.0,1021.4,60,0,1021.4,0,1007.1,60,0,46.2,60,0
86282,2014-10-17 00:00:00,0.0,60,0,0.0,0.0,0.0,60,0,0.0,0.0,0.0,60,0,0.0,0.0,0.0,60,0,0.0,0.0,337.4,60,0,342.9,323.3,0,0,0,28.1,60,0,10.2,60,0,10.4,10.1,7.4,60,0,7.6,7.1,3.9,60,0,4.6,3.0,64.6,60,0,69.0,60.0,28.1,60,0,39.0,18.0,239,0.0,1021.4,60,0,1021.4,0,1007.1,60,0,46.2,60,0
86282,2014-11-01 00:00:00,0.0,60,0,0.0,0.0,0.0,60,0,0.0,0.0,0.0,60,0,0.0,0.0,0.0,60,0,0.0,0.0,337.4,60,0,342.9,323.3,0,0,0,28.1,60,0,10.2,60,0,10.4,10.1,7.4,60,0,7.6,7.1,3.9,60,0,4.6,3.0,64.6,60,0,69.0,60.0,28.1,60,0,39.0,18.0,239,0.0,1021.4,60,0,1021.4,0,1007.1,60,0,46.2,60,0
86282,2014-11-16 00:00:00,0.0,60,0,0.0,0.0,0.0,60,0,0.0,0.0,0.0,60,0,0.0,0.0,0.0,60,0,0.0,0.0,337.4,60,0,342.9,323.3,0,0,0,28.1,60,0,10.2,60,0,10.4,10.1,7.4,60,0,7.6,7.1,3.9,60,0,4.6,3.0,64.6,60,0,69.0,60.0,28.1,60,0,39.0,18.0,239,0.0,1021.4,60,0,1021.4,0,1007.1,60,0,46.2,60,0
86282,2014-12-01 00:00:00,0.0,60,0,0.0,0.0,0.0,60,0,0.0,0.0,0.0,60,0,0.0,0.0,0.0,60,0,0.0,0.0,337.4,60,0,342.9,323.3,0,0,0,28.1,60,0,10.2,60,0,10.4,10.1,7.4,60,0,7.6,7.1,3.9,60,0,4.6,3.0,64.6,60,0,69.0,60.0,28.1,60,0,39.0,18.0,239,0.0,1021.4,60,0,1021.4,0,1007.1,60,0,46.2,60,0
86282,2014-12-16 00:00:00,0.0,60,0,0.0,0.0,0.0,60,0,0.0,0.0,0.0,60,0,0.0,0.0,0.0,60,0,0.0,0.0,337.4,60,0,342.9,323.3,0,0,0,28.1,60,0,10.2,60,0,10.4,10.1,7.4,60,0,7.6,7.1,3.9,60,0,4.6,3.0,64.6,60,0,69.0,60.0,28.1,60,0,39.0,18.0,239,0.0,1021.4,60,0,1021.4,0,1007.1,60,0,46.2,60,0
86282,2014-12-31 00:00:00,0.0,60,0,0.0,0.0,0.0,60,0,0.0,0.0,0.0,60,0,0.0,0.0,0.0,60,0,0.0,0.0,337.4,60,0,342.9,323.3,0,0,0,28.1,60,0,10.2,60,0,10.4,10.1,7.4,60,0,7.6,7.1,3.9,60,0,4.6,3.0,64.6,60,0,69.0,60.0,28.1,60,0,39.0,18.0,239,0.0,1021.4,60,0,1021.4,0,1007.1,60,0,46.2,60,0
86282,2015-01-15 00:00:00,0.0,60,0,0.0,0.0,0.0,60,0,0.0,0.0,0.0,60,0,0.0,0.0,0.0,60,0,0.0,0.0,337.4,60,0,342.9,323.3,0,0,0,28.1,60,0,10.2,60,0,10.4,10.1,7.4,60,0,7.6,7.1,3.9,60,0,4.6,3.0,64.6,60,0,69.0,60.0,28.1,60,0,39.0,18.0,239,0.0,1021.4,60,0,1021.4,0,1007.1,60,0,46.2,60,0
86282,2015-01-30 00:00:00,0.0,60,0,0.0,0.0,0.0,60,0,0.0,0.0,0.0,60,0,0.0,0.0,0.0,60,0,0.0,0.0,337.4,60,0,342.9,323.3,0,0,0,28.1,60,0,10.2,60,0,10.4,10.1,7.4,60,0,7.6,7.1,3.9,60,0,4.6,3.0,64.6,60,0,69.0,60.0,28.1,60,0,39.0,18.0,239,0.0,1021.4,60,0,1021.4,0,1007.1,60,0,46.2,60,0
86282,2015-03-01 00:00:00,0.0,60,0,0.0,0.0,0.0,60,0,0.0,0.0,0.0,60,0,0.0,0.0,0.0,60,0,0.0,0.0,337.4,60,0,342.9,323.3,0,0,0,28.1,60,0,10.2,60,0,10.4,10.1,7.4,60,0,7.6,7.1,3.9,60,0,4.6,3.0,64.6,60,0,69.0,60.0,28.1,60,0,39.0,18.0,239,0.0,1021.4,60,0,1021.4,0,1007.1,60,0,46.2,60,0
86282,2015-03-16 00:00:00,0.0,60,0,0.0,0.0,0.0,60,0,0.0,0.0,0.0,60,0,0.0,0.0,0.0,60,0,0.0,0.0,337.4,60,0,342.9,323.3,0,0,0,28.1,60,0,10.2,60,0,10.4,10.1,7.4,60,0,7.6,7.1,3.9,60,0,4.6,3.0,64.6,60,0,69.0,60.0,28.1,60,0,39.0,18.0,239,0.0,1021.4,60,0,1021.4,0,1007.1,60,0,46.2,60,0
86282,2015-03-31 00:00:00,0.0,60,0,0.0,0.0,0.0,60,0,0.0,0.0,0.0,60,0,0.0,0.0,0.0,60,0,0.0,0.0,337.4,60,0,342.9,323.3,0,0,0,28.1,60,0,10.2,60,0,10.4,10.1,7.4,60,0,7.6,7.1,3.9,60,0,4.6,3.0,64.6,60,0,69.0,60.0,28.1,60,0,39.0,18.0,239,0.0,1021.4,60,0,1021.4,0,1007.1,60,0,46.2,60,0
86282,2015-04-15 00:00:00,0.0,60,0,0.0,0.0,0.0,60,0,0.0,0.0,0.0,60,0,0.0,0.0,0.0,60,0,0.0,0.0,337.4,60,0,342.9,323.3,0,0,0,28.1,60,0,10.2,60,0,10.4,10.1,7.4,60,0,7.6,7.1,3.9,60,0,4.6,3.0,64.6,60,0,69.0,60.0,28.1,60,0,39.0,18.0,239,0.0,1021.4,60,0,1021.4,0,1007.1,60,0,46.2,60,0
86282,2015-04-30 00:00:00,0.0,60,0,0.0,0.0,0.0,60,0,0.0,0.0,0.0,60,0,0.0,0.0,0.0,60,0,0.0,0.0,337.4,60,0,342.9,323.3,0,0,0,28.1,60,0,10.2,60,0,10.4,10.1,7.4,60,0,7.6,7.1,3.9,60,0,4.6,3.0,64.6,60,0,69.0,60.0,28.1,60,0,39.0,18.0,239,0.0,1021.4,60,0,1021.4,0,1007.1,60,0,46.2,60,0
86282,2015-05-15 00:00:00,0.0,60,0,0.0,0.0,0.0,60,0,0.0,0.0,0.0,60,0,0.0,0.0,0.0,60,0,0.0,0.0,337.4,60,0,342.9,323.3,0,0,0,28.1,60,0,10.2,60,0,10.4,10.1,7.4,60,0,7.6,7.1,3.9,60,0,4.6,3.0,64.6,60,0,69.0,60.0,28.1,60,0,39.0,18.0,239,0.0,1021.4,60,0,1021.4,0,1007.1,60,0,46.2,60,0
86282,2015-05-30 00:00:00,0.0,60,0,0.0,0.0,0.0,60,0,0.0,0.0,0.0,60,0,0.0,0.0,0.0,60,0,0.0,0.0,337.4,60,0,342.9,323.3,0,0,0,28.1,60,0,10.2,60,0,10.4,10.1,7.4,60,0,7.6,7.1,3.9,60,0,4.6,3.0,64.6,60,0,69.0,60.0,28.1,60,0,39.0,18.0,239,0.0,1021.4,60,0,1021.4,0,1007.1,60,0,46.2,60,0
86282,2015-06-14 00:00:00,0.0,60,0,0.0,0.0,0.0,60,0,0.0,0.0,0.0,60,0,0.0,0.0,0.0,60,0,0.0,0.0,337.4,60,0,342.9,323.3,0,0,0,28.1,60,0,10.2,60,0,10.4,10.1,7.4,60,0,7.6,7.1,3.9,60,0,4.6,3.0,64.6,60,0,69.0,60.0,28.1,60,0,39.0,18.0,239,0.0,1021.4,60,0,1021.4,0,1007.1,60,0,46.2,60,0
86282,2015-06-29 00:00:00,0.0,60,0,0.0,0.0,0.0,60,0,0.0,0.0,0.0,60,0,0.0,0.0,0.0,60,0,0.0,0.0,337.4,60,0,342.9,323.3,0,0,0,28.1,60,0,10.2,60,0,10.4,10.1,7.4,60,0,7.6,7.1,3.9,60,0,4.6,3.0,64.6,60,0,69.0,60.0,28.1,60,0,39.0,18.0,239,0.0,1021.4,60,0,1021.4,0,1007.1,60,0,46.2,60,0
86282,2015-07-14 00:00:00,0.0,60,0,0.0,0.0,0.0,60,0,0.0,0.0,0.0,60,0,0.0,0.0,0.0,60,0,0.0,0.0,337.4,60,0,342.9,323.3,0,0,0,28.1,60,0,10.2,60,0,10.4,10.1,7.4,60,0,7.6,7.1,3.9,60,0,4.6,3.0,64.6,60,0,69.0,60.0,28.1,60,0,39.0,18.0,239,0.0,1021.4,60,0,1021.4,0,1007.1,60,0,46.2,60,0
86282,2015-07-29 00:00:00,0.0,60,0,0.0,0.0,0.0,60,0,0.0,0.0,0.0,60,0,0.0,0.0,0.0,60,0,0.0,0.0,337.4,60,0,342.9,323.3,0,0,0,28.1,60,0,10.2,60,0,10.4,10.1,7.4,60,0,7.6,7.1,3.9,60,0,4.6,3.0,64.6,60,0,69.0,60.0,28.1,60,0,39.0,18.0,239,0.0,1021.4,60,0,1021.4,0,1007.1,60,0,46.2,60,0
86282,2015-08-13 00:00:00,0.0,60,0,0.0,0.0,0.0,60,0,0.0,0.0,0.0,60,0,0.0,0.0,0.0,60,0,0.0,0.0,337.4,60,0,342.9,323.3,0,0,0,28.1,60,0,10.2,60,0,10.4,10.1,7.4,60,0,7.6,7.1,3.9,60,0,4.6,3.0,64.6,60,0,69.0,60.0,28.1,60,0,39.0,18.0,239,0.0,1021.4,60,0,1021.4,0,1007.1,60,0,46.2,60,0
86282,2015-08-28 00:00:00,0.0,60,0,0.0,0.0,0.0,60,0,0.0,0.0,0.0,60,0,0.0,0.0,0.0,60,0,0.0,0.0,337.4,60,0,342.9,323.3,0,0,0,28.1,60,0,10.2,60,0,10.4,10.1,7.4,60,0,7.6,7.1,3.9,60,0,4.6,3.0,64.6,60,0,69.0,60.0,28.1,60,0,39.0,18.0,239,0.0,1021.4,60,0,1021.4,0,1007.1,60,0,46.2,60,0
86282,2015-09-12 00:00:00,0.0,60,0,0.0,0.0,0.0,60,0,0.0,0.0,0.0,60,0,0.0,0.0,0.0,60,0,0.0,0.0,337.4,60,0,342.9,323.3,0,0,0,28.1,60,0,10.2,60,0,10.4,10.1,7.4,60,0,7.6,7.1,3.9,60,0,4.6,3.0,64.6,60,0,69.0,60.0,28.1,60,0,39.0,18.0,239,0.0,1021.4,60,0,1021.4,0,1007.1,60,0,46.2,60,0
86282,2015-09-27 00:00:00,0.0,60,0,0.0,0.0,0.0,60,0,0.0,0.0,0.0,60,0,0.0,0.0,0.0,60,0,0.0,0.0,337.4,60,0,342.9,323.3,0,0,0,28.1,60,0,10.2,60,0,10.4,10.1,7.4,60,0,7.6,7.1,3.9,60,0,4.6,3.0,64.6,60,0,69.0,60.0,28.1,60,0,39.0,18.0,239,0.0,1021.4,60,0,1021.4,0,1007.1,60,0,46.2,60,0
86282,2015-10-12 00:00:00,0.0,60,0,0.0,0.0,0.0,60,0,0.0,0.0,0.0,60,0,0.0,0.0,0.0,60,0,0.0,0.0,337.4,60,0,342.9,323.3,0,0,0,28.1,60,0,10.2,60,0,10.4,10.1,7.4,60,0,7.6,7.1,3.9,60,0,4.6,3.0,64.6,60,0,69.0,60.0,28.1,60,0,39.0,18.0,239,0.0,1021.4,60,0,1021.4,0,1007.1,60,0,46.2,60,0
86282,2015-10-27 00:00:00,0.0,60,0,0.0,0.0,0.0,60,0,0.0,0.0,0.0,60,0,0.0,0.0,0.0,60,0,0.0,0.0,337.4,60,0,342.9,323.3,0,0,0,28.1,60,0,10.2,60,0,10.4,10.1,7.4,60,0,7.6,7.1,3.9,60,0,4.6,3.0,64.6,60,0,69.0,60.0,28.1,60,0,39.0,18.0,239,0.0,1021.4,60,0,1021.4,0,1007.1,60,0,46.2,60,0
86282,2015-11-11 00:00:00,0.0,60,0,0.0,0.0,0.0,60,0,0.0,0.0,0.0,60,0,0.0,0.0,0.0,60,0,0.0,0.0,337.4,60,0,342.9,323.3,0,0,0,28.1,60,0,10.2,60,0,10.4,10.1,7.4,60,0,7.6,7.1,3.9,60,0,4.6,3.0,64.6,60,0,69.0,60.0,28.1,60,0,39.0,18.0,239,0.0,1021.4,60,0,1021.4,0,1007.1,60,0,46.2,60,0
86282,2015-11-26 00:00:00,0.0,60,0,0.0,0.0,0.0,60,0,0.0,0.0,0.0,60,0,0.0,0.0,0.0,60,0,0.0,0.0,337.4,60,0,342.9,323.3,0,0,0,28.1,60,0,10.2,60,0,10.4,10.1,7.4,60,0,7.6,7.1,3.9,60,0,4.6,3.0,64.6,60,0,69.0,60.0,28.1,60,0,39.0,18.0,239,0.0,1021.4,60,0,1021.4,0,1007.1,60,0,46.2,60,0
86282,2015-12-11 00:00:00,0.0,60,0,0.0,0.0,0.0,60,0,0.0,0.0,0.0,60,0,0.0,0.0,0.0,60,0,0.0,0.0,337.4,60,0,342.9,323.3,0,0,0,28.1,60,0,10.2,60,0,10.4,10.1,7.4,60,0,7.6,7.1,3.9,60,0,4.6,3.0,64.6,60,0,69.0,60.0,28.1,60,0,39.0,18.0,239,0.0,1021.4,60,0,1021.4,0,1007.1,60,0,46.2,60,0
86282,2015-12-26 00:00:00,0.0,60,0,0.0,0.0,0.0,60,0,0.0,0.0,0.0,60,0,0.0,0.0,0.0,60,0,0.0,0.0,337.4,60,0,342.9,323.3,0,0,0,28.1,60,0,10.2,60,0,10.4,10.1,7.4,60,0,7.6,7.1,3.9,60,0,4.6,3.0,64.6,60,0,69.0,60.0,28.1,60,0,39.0,18.0,239,0.0,1021.4,60,0,1021.4,0,1007.1,60,0,46.2,60,0
86282,2016-01-10 00:00:00,0.0,60,0,0.0,0.0,0.0,60,0,0.0,0.0,0.0,60,0,0.0,0.0,0.0,60,0,0.0,0.0,337.4,60,0,342.9,323.3,0,0,0,28.1,60,0,10.2,60,0,10.4,10.1,7.4,60,0,7.6,7.1,3.9,60,0,4.6,3.0,64.6,60,0,69.0,60.0,28.1,60,0,39.0,18.0,239,0.0,1021.4,60,0,1021.4,0,1007.1,60,0,46.2,60,0
86282,2016-01-25 00:00:00,0.0,60,0,0.0,0.0,0.0,60,0,0.0,0.0,0.0,60,0,0.0,0.0,0.0,60,0,0.0,0.0,337.4,60,0,342.9,323.3,0,0,0,28.1,60,0,10.2,60,0,10.4,10.1,7.4,60,0,7.6,7.1,3.9,60,0,4.6,3.0,64.6,60,0,69.0,60.0,28.1,60,0,39.0,18.0,239,0.0,1021.4,60,0,1021.4,0,1007.1,60,0,46.2,60,0
86282,2016-03-10 00:00:00,0.0,60,0,0.0,0.0,0.0,60,0,0.0,0.0,0.0,60,0,0.0,0.0,0.0,60,0,0.0,0.0,337.4,60,0,342.9,323.3,0,0,0,28.1,60,0,10.2,60,0,10.4,10.1,7.4,60,0,7.6,7.1,3.9,60,0,4.6,3.0,64.6,60,0,69.0,60.0,28.1,60,0,39.0,18.0,239,0.0,1021.4,60,0,1021.4,0,1007.1,60,0,46.2,60,0
86282,2016-03-25 00:00:00,0.0,60,0,0.0,0.0,0.0,60,0,0.0,0.0,0.0,60,0,0.0,0.0,0.0,60,0,0.0,0.0,337.4,60,0,342.9,323.3,0,0,0,28.1,60,0,10.2,60,0,10.4,10.1,7.4,60,0,7.6,7.1,3.9,60,0,4.6,3.0,64.6,60,0,69.0,60.0,28.1,60,0,39.0,18.0,239,0.0,1021.4,60,0,1021.4,0,1007.1,60,0,46.2,60,0
86282,2016-04-09 00:00:00,0.0,60,0,0.0,0.0,0.0,60,0,0.0,0.0,0.0,60,0,0.0,0.0,0.0,60,0,0.0,0.0,337.4,60,0,342.9,323.3,0,0,0,28.1,60,0,10.2,60,0,10.4,10.1,7.4,60,0,7.6,7.1,3.9,60,0,4.6,3.0,64.6,60,0,69.0,60.0,28.1,60,0,39.0,18.0,239,0.0,1021.4,60,0,1021.4,0,1007.1,60,0,46.2,60,0
86282,2016-04-24 00:00:00,0.0,60,0,0.0,0.0,0.0,60,0,0.0,0.0,0.0,60,0,0.0,0.0,0.0,60,0,0.0,0.0,337.4,60,0,342.9,323.3,0,0,0,28.1,60,0,10.2,60,0,10.4,10.1,7.4,60,0,7.6,7.1,3.9,60,0,4.6,3.0,64.6,60,0,69.0,60.0,28.1,60,0,39.0,18.0,239,0.0,1021.4,60,0,1021.4,0,1007.1,60,0,46.2,60,0
86282,2016-05-09 00:00:00,0.0,60,0,0.0,0.0,0.0,60,0,0.0,0.0,0.0,60,0,0.0,0.0,0.0,60,0,0.0,0.0,337.4,60,0,342.9,323.3,0,0,0,28.1,60,0,10.2,60,0,10.4,10.1,7.4,60,0,7.6,7.1,3.9,60,0,4.6,3.0,64.6,60,0,69.0,60.0,28.1,60,0,39.0,18.0,239,0.0,1021.4,60,0,1021.4,0,1007.1,60,0,46.2,60,0
86282,2016-05-24 00:00:00,0.0,60,0,0.0,0.0,0.0,60,0,0.0,0.0,0.0,60,0,0.0,0.0,0.0,60,0,0.0,0.0,337.4,60,0,342.9,323.3,0,0,0,28.1,60,0,10.2,60,0,10.4,10.1,7.4,60,0,7.6,7.1,3.9,60,0,4.6,3.0,64.6,60,0,69.0,60.0,28.1,60,0,39.0,18.0,239,0.0,1021.4,60,0,1021.4,0,1007.1,60,0,46.2,60,0
86282,2016-06-08 00:00:00,0.0,60,0,0.0,0.0,0.0,60,0,0.0,0.0,0.0,60,0,0.0,0.0,0.0,60,0,0.0,0.0,337.4,60,0,342.9,323.3,0,0,0,28.1,60,0,10.2,60,0,10.4,10.1,7.4,60,0,7.6,7.1,3.9,60,0,4.6,3.0,64.6,60,0,69.0,60.0,28.1,60,0,39.0,18.0,239,0.0,1021.4,60,0,1021.4,0,1007.1,60,0,46.2,60,0
86282,2016-06-23 00:00:00,0.0,60,0,0.0,0.0,0.0,60,0,0.0,0.0,0.0,60,0,0.0,0.0,0.0,60,0,0.0,0.0,337.4,60,0,342.9,323.3,0,0,0,28.1,60,0,10.2,60,0,10.4,10.1,7.4,60,0,7.6,7.1,3.9,60,0,4.6,3.0,64.6,60,0,69.0,60.0,28.1,60,0,39.0,18.0,239,0.0,1021.4,60,0,1021.4,0,1007.1,60,0,46.2,60,0
86282,2016-07-08 00:00:00,0.0,60,0,0.0,0.0,0.0,60,0,0.0,0.0,0.0,60,0,0.0,0.0,0.0,60,0,0.0,0.0,337.4,60,0,342.9,323.3,0,0,0,28.1,60,0,10.2,60,0,10.4,10.1,7.4,60,0,7.6,7.1,3.9,60,0,4.6,3.0,64.6,60,0,69.0,60.0,28.1,60,0,39.0,18.0,239,0.0,1021.4,60,0,1021.4,0,1007.1,60,0,46.2,60,0
86282,2016-07-23 00:00:00,0.0,60,0,0.0,0.0,0.0,60,0,0.0,0.0,0.0,60,0,0.0,0.0,0.0,60,0,0.0,0.0,337.4,60,0,342.9,323.3,0,0,0,28.1,60,0,10.2,60,0,10.4,10.1,7.4,60,0,7.6,7.1,3.9,60,0,4.6,3.0,64.6,60,0,69.0,60.0,28.1,60,0,39.0,18.0,239,0.0,1021.4,60,0,1021.4,0,1007.1,60,0,46.2,60,0
86282,2016-08-07 00:00:00,0.0,60,0,0.0,0.0,0.0,60,0,0.0,0.0,0.0,60,0,0.0,0.0,0.0,60,0,0.0,0.0,337.4,60,0,342.9,323.3,0,0,0,28.1,60,0,10.2,60,0,10.4,10.1,7.4,60,0,7.6,7.1,3.9,60,0,4.6,3.0,64.6,60,0,69.0,60.0,28.1,60,0,39.0,18.0,239,0.0,1021.4,60,0,1021.4,0,1007.1,60,0,46.2,60,0
86282,2016-08-22 00:00:00,0.0,60,0,0.0,0.0,0.0,60,0,0.0,0.0,0.0,60,0,0.0,0.0,0.0,60,0,0.0,0.0,337.4,60,0,342.9,323.3,0,0,0,28.1,60,0,10.2,60,0,10.4,10.1,7.4,60,0,7.6,7.1,3.9,60,0,4.6,3.0,64.6,60,0,69.0,60.0,28.1,60,0,39.0,18.0,239,0.0,1021.4,60,0,1021.4,0,1007.1,60,0,46.2,60,0
86282,2016-09-06 00:00:00,0.0,60,0,0.0,0.0,0.0,60,0,0.0,0.0,0.0,60,0,0.0,0.0,0.0,60,0,0.0,0.0,337.4,60,0,342.9,323.3,0,0,0,28.1,60,0,10.2,60,0,10.4,10.1,7.4,60,0,7.6,7.1,3.9,60,0,4.6,3.0,64.6,60,0,69.0,60.0,28.1,60,0,39.0,18.0,239,0.0,1021.4,60,0,1021.4,0,1007.1,60,0,46.2,60,0
86282,2016-09-21 00:00:00,0.0,60,0,0.0,0.0,0.0,60,0,0.0,0.0,0.0,60,0,0.0,0.0,0.0,60,0,0.0,0.0,337.4,60,0,342.9,323.3,0,0,0,28.1,60,0,10.2,60,0,10.4,10.1,7.4,60,0,7.6,7.1,3.9,60,0,4.6,3.0,64.6,60,0,69.0,60.0,28.1,60,0,39.0,18.0,239,0.0,1021.4,60,0,1021.4,0,1007.1,60,0,46.2,60,0
86282,2016-10-06 00:00:00,0.0,60,0,0.0,0.0,0.0,60,0,0.0,0.0,0.0,60,0,0.0,0.0,0.0,60,0,0.0,0.0,337.4,60,0,342.9,323.3,0,0,0,28.1,60,0,10.2,60,0,10.4,10.1,7.4,60,0,7.6,7.1,3.9,60,0,4.6,3.0,64.6,60,0,69.0,60.0,28.1,60,0,39.0,18.0,239,0.0,1021.4,60,0,1021.4,0,1007.1,60,0,46.2,60,0
86282,2016-10-21 00:00:00,0.0,60,0,0.0,0.0,0.0,60,0,0.0,0.0,0.0,60,0,0.0,0.0,0.0,60,0,0.0,0.0,337.4,60,0,342.9,323.3,0,0,0,28.1,60,0,10.2,60,0,10.4,10.1,7.4,60,0,7.6,7.1,3.9,60,0,4.6,3.0,64.6,60,0,69.0,60.0,28.1,60,0,39.0,18.0,239,0.0,1021.4,60,0,1021.4,0,1007.1,60,0,46.2,60,0
86282,2016-11-05 00:00:00,0.0,60,0,0.0,0.0,0.0,60,0,0.0,0.0,0.0,60,0,0.0,0.0,0.0,60,0,0.0,0.0,337.4,60,0,342.9,323.3,0,0,0,28.1,60,0,10.2,60,0,10.4,10.1,7.4,60,0,7.6,7.1,3.9,60,0,4.6,3.0,64.6,60,0,69.0,60.0,28.1,60,0,39.0,18.0,239,0.0,1021.4,60,0,1021.4,0,1007.1,60,0,46.2,60,0
86282,2016-11-20 00:00:00,0.0,60,0,0.0,0.0,0.0,60,0,0.0,0.0,0.0,60,0,0.0,0.0,0.0,60,0,0.0,0.0,337.4,60,0,342.9,323.3,0,0,0,28.1,60,0,10.2,60,0,10.4,10.1,7.4,60,0,7.6,7.1,3.9,60,0,4.6,3.0,64.6,60,0,69.0,60.0,28.1,60,0,39.0,18.0,239,0.0,1021.4,60,0,1021.4,0,1007.1,60,0,46.2,60,0
86282,2016-12-05 00:00:00,0.0,60,0,0.0,0.0,0.0,60,0,0.0,0.0,0.0,60,0,0.0,0.0,0.0,60,0,0.0,0.0,337.4,60,0,342.9,323.3,0,0,0,28.1,60,0,10.2,60,0,10.4,10.1,7.4,60,0,7.6,7.1,3.9,60,0,4.6,3.0,64.6,60,0,69.0,60.0,28.1,60,0,39.0,18.0,239,0.0,1021.4,60,0,1021.4,0,1007.1,60,0,46.2,60,0
86282,2016-12-20 00:00:00,0.0,60,0,0.0,0.0,0.0,60,0,0.0,0.0,0.0,60,0,0.0,0.0,0.0,60,0,0.0,0.0,337.4,60,0,342.9,323.3,0,0,0,28.1,60,0,10.2,60,0,10.4,10.1,7.4,60,0,7.6,7.1,3.9,60,0,4.6,3.0,64.6,60,0,69.0,60.0,28.1,60,0,39.0,18.0,239,0.0,1021.4,60,0,1021.4,0,1007.1,60,0,46.2,60,0
86282,2017-01-04 00:00:00,0.0,60,0,0.0,0.0,0.0,60,0,0.0,0.0,0.0,60,0,0.0,0.0,0.0,60,0,0.0,0.0,337.4,60,0,342.9,323.3,0,0,0,28.1,60,0,10.2,60,0,10.4,10.1,7.4,60,0,7.6,7.1,3.9,60,0,4.6,3.0,64.6,60,0,69.0,60.0,28.1,60,0,39.0,18.0,239,0.0,1021.4,60,0,1021.4,0,1007.1,60,0,46.2,60,0
86282,2017-01-19 00:00:00,0.0,60,0,0.0,0.0,0.0,60,0,0.0,0.0,0.0,60,0,0.0,0.0,0.0,60,0,0.0,0.0,337.4,60,0,342.9,323.3,0,0,0,28.1,60,0,10.2,60,0,10.4,10.1,7.4,60,0,7.6,7.1,3.9,60,0,4.6,3.0,64.6,60,0,69.0,60.0,28.1,60,0,39.0,18.0,239,0.0,1021.4,60,0,1021.4,0,1007.1,60,0,46.2,60,0
86282,2017-03-05 00:00:00,0.0,60,0,0.0,0.0,0.0,60,0,0.0,0.0,0.0,60,0,0.0,0.0,0.0,60,0,0.0,0.0,337.4,60,0,342.9,323.3,0,0,0,28.1,60,0,10.2,60,0,10.4,10.1,7.4,60,0,7.6,7.1,3.9,60,0,4.6,3.0,64.6,60,0,69.0,60.0,28.1,60,0,39.0,18.0,239,0.0,1021.4,60,0,1021.4,0,1007.1,60,0,46.2,60,0
86282,2017-03-20 00:00:00,0.0,60,0,0.0,0.0,0.0,60,0,0.0,0.0,0.0,60,0,0.0,0.0,0.0,60,0,0.0,0.0,337.4,60,0,342.9,323.3,0,0,0,28.1,60,0,10.2,60,0,10.4,10.1,7.4,60,0,7.6,7.1,3.9,60,0,4.6,3.0,64.6,60,0,69.0,60.0,28.1,60,0,39.0,18.0,239,0.0,1021.4,60,0,1021.4,0,1007.1,60,0,46.2,60,0
86282,2017-04-04 00:00:00,0.0,60,0,0.0,0.0,0.0,60,0,0.0,0.0,0.0,60,0,0.0,0.0,0.0,60,0,0.0,0.0,337.4,60,0,342.9,323.3,0,0,0,28.1,60,0,10.2,60,0,10.4,10.1,7.4,60,0,7.6,7.1,3.9,60,0,4.6,3.0,64.6,60,0,69.0,60.0,28.1,60,0,39.0,18.0,239,0.0,1021.4,60,0,1021.4,0,1007.1,60,0,46.2,60,0
86282,2017-04-19 00:00:00,0.0,60,0,0.0,0.0,0.0,60,0,0.0,0.0,0.0,60,0,0.0,0.0,0.0,60,0,0.0,0.0,337.4,60,0,342.9,323.3,0,0,0,28.1,60,0,10.2,60,0,10.4,10.1,7.4,60,0,7.6,7.1,3.9,60,0,4.6,3.0,64.6,60,0,69.0,60.0,28.1,60,0,39.0,18.0,239,0.0,1021.4,60,0,1021.4,0,1007.1,60,0,46.2,60,0
86282,2017-05-04 00:00:00,0.0,60,0,0.0,0.0,0.0,60,0,0.0,0.0,0.0,60,0,0.0,0.0,0.0,60,0,0.0,0.0,337.4,60,0,342.9,323.3,0,0,0,28.1,60,0,10.2,60,0,10.4,10.1,7.4,60,0,7.6,7.1,3.9,60,0,4.6,3.0,64.6,60,0,69.0,60.0,28.1,60,0,39.0,18.0,239,0.0,1021.4,60,0,1021.4,0,1007.1,60,0,46.2,60,0
86282,2017-05-19 00:00:00,0.0,60,0,0.0,0.0,0.0,60,0,0.0,0.0,0.0,60,0,0.0,0.0,0.0,60,0,0.0,0.0,337.4,60,0,342.9,323.3,0,0,0,28.1,60,0,10.2,60,0,10.4,10.1,7.4,60,0,7.6,7.1,3.9,60,0,4.6,3.0,64.6,60,0,69.0,60.0,28.1,60,0,39.0,18.0,239,0.0,1021.4,60,0,1021.4,0,1007.1,60,0,46.2,60,0
86282,2017-06-03 00:00:00,0.0,60,0,0.0,0.0,0.0,60,0,0.0,0.0,0.0,60,0,0.0,0.0,0.0,60,0,0.0,0.0,337.4,60,0,342.9,323.3,0,0,0,28.1,60,0,10.2,60,0,10.4,10.1,7.4,60,0,7.6,7.1,3.9,60,0,4.6,3.0,64.6,60,0,69.0,60.0,28.1,60,0,39.0,18.0,239,0.0,1021.4,60,0,1021.4,0,1007.1,60,0,46.2,60,0
86282,2017-06-18 00:00:00,0.0,60,0,0.0,0.0,0.0,60,0,0.0,0.0,0.0,60,0,0.0,0.0,0.0,60,0,0.0,0.0,337.4,60,0,342.9,323.3,0,0,0,28.1,60,0,10.2,60,0,10.4,10.1,7.4,60,0,7.6,7.1,3.9,60,0,4.6,3.0,64.6,60,0,69.0,60.0,28.1,60,0,39.0,18.0,239,0.0,1021.4,60,0,1021.4,0,1007.1,60,0,46.2,60,0
86282,2017-07-03 00:00:00,0.0,60,0,0.0,0.0,0.0,60,0,0.0,0.0,0.0,60,0,0.0,0.0,0.0,60,0,0.0,0.0,337.4,60,0,342.9,323.3,0,0,0,28.1,60,0,10.2,60,0,10.4,10.1,7.4,60,0,7.6,7.1,3.9,60,0,4.6,3.0,64.6,60,0,69.0,60.0,28.1,60,0,39.0,18.0,239,0.0,1021.4,60,0,1021.4,0,1007.1,60,0,46.2,60,0
86282,2017-07-18 00:00:00,0.0,60,0,0.0,0.0,0.0,60,0,0.0,0.0,0.0,60,0,0.0,0.0,0.0,60,0,0.0,0.0,337.4,60,0,342.9,323.3,0,0,0,28.1,60,0,10.2,60,0,10.4,10.1,7.4,60,0,7.6,7.1,3.9,60,0,4.6,3.0,64.6,60,0,69.0,60.0,28.1,60,0,39.0,18.0,239,0.0,1021.4,60,0,1021.4,0,1007.1,60,0,46.2,60,0
86282,2017-08-02 00:00:00,0.0,60,0,0.0,0.0,0.0,60,0,0.0,0.0,0.0,60,0,0.0,0.0,0.0,60,0,0.0,0.0,337.4,60,0,342.9,323.3,0,0,0,28.1,60,0,10.2,60,0,10.4,10.1,7.4,60,0,7.6,7.1,3.9,60,0,4.6,3.0,64.6,60,0,69.0,60.0,28.1,60,0,39.0,18.0,239,0.0,1021.4,60,0,1021.4,0,1007.1,60,0,46.2,60,0
86282,2017-08-17 00:00:00,0.0,60,0,0.0,0.0,0.0,60,0,0.0,0.0,0.0,60,0,0.0,0.0,0.0,60,0,0.0,0.0,337.4,60,0,342.9,323.3,0,0,0,28.1,60,0,10.2,60,0,10.4,10.1,7.4,60,0,7.6,7.1,3.9,60,0,4.6,3.0,64.6,60,0,69.0,60.0,28.1,60,0,39.0,18.0,239,0.0,1021.4,60,0,1021.4,0,1007.1,60,0,46.2,60,0
86282,2017-09-01 00:00:00,0.0,60,0,0.0,0.0,0.0,60,0,0.0,0.0,0.0,60,0,0.0,0.0,0.0,60,0,0.0,0.0,337.4,60,0,342.9,323.3,0,0,0,28.1,60,0,10.2,60,0,10.4,10.1,7.4,60,0,7.6,7.1,3.9,60,0,4.6,3.0,64.6,60,0,69.0,60.0,28.1,60,0,39.0,18.0,239,0.0,1021.4,60,0,1021.4,0,1007.1,60,0,46.2,60,0
86282,2017-09-16 00:00:00,0.0,60,0,0.0,0.0,0.0,60,0,0.0,0.0,0.0,60,0,0.0,0.0,0.0,60,0,0.0,0.0,337.4,60,0,342.9,323.3,0,0,0,28.1,60,0,10.2,60,0,10.4,10.1,7.4,60,0,7.6,7.1,3.9,60,0,4.6,3.0,64.6,60,0,69.0,60.0,28.1,60,0,39.0,18.0,239,0.0,1021.4,60,0,1021.4,0,1007.1,60,0,46.2,60,0
86282,2017-10-01 00:00:00,0.0,60,0,0.0,0.0,0.0,60,0,0.0,0.0,0.0,60,0,0.0,0.0,0.0,60,0,0.0,0.0,337.4,60,0,342.9,323.3,0,0,0,28.1,60,0,10.2,60,0,10.4,10.1,7.4,60,0,7.6,7.1,3.9,60,0,4.6,3.0,64.6,60,0,69.0,60.0,28.1,60,0,39.0,18.0,239,0.0,1021.4,60,0,1021.4,0,1007.1,60,0,46.2,60,0
86282,2017-10-16 00:00:00,0.0,60,0,0.0,0.0,0.0,60,0,0.0,0.0,0.0,60,0,0.0,0.0,0.0,60,0,0.0,0.0,337.4,60,0,342.9,323.3,0,0,0,28.1,60,0,10.2,60,0,10.4,10.1,7.4,60,0,7.6,7.1,3.9,60,0,4.6,3.0,64.6,60,0,69.0,60.0,28.1,60,0,39.0,18.0,239,0.0,1021.4,60,0,1021.4,0,1007.1,60,0,46.2,60,0
86282,2017-10-31 00:00:00,0.0,60,0,0.0,0.0,0.0,60,0,0.0,0.0,0.0,60,0,0.0,0.0,0.0,60,0,0.0,0.0,337.4,60,0,342.9,323.3,0,0,0,28.1,60,0,10.2,60,0,10.4,10.1,7.4,60,0,7.6,7.1,3.9,60,0,4.6,3.0,64.6,60,0,69.0,60.0,28.1,60,0,39.0,18.0,239,0.0,1021.4,60,0,1021.4,0,1007.1,60,0,46.2,60,0
86282,2017-11-15 00:00:00,0.0,60,0,0.0,0.0,0.0,60,0,0.0,0.0,0.0,60,0,0.0,0.0,0.0,60,0,0.0,0.0,337.4,60,0,342.9,323.3,0,0,0,28.1,60,0,10.2,60,0,10.4,10.1,7.4,60,0,7.6,7.1,3.9,60,0,4.6,3.0,64.6,60,0,69.0,60.0,28.1,60,0,39.0,18.0,239,0.0,1021.4,60,0,1021.4,0,1007.1,60,0,46.2,60,0
86282,2017-11-30 00:00:00,0.0,60,0,0.0,0.0,0.0,60,0,0.0,0.0,0.0,60,0,0.0,0.0,0.0,60,0,0.0,0.0,337.4,60,0,342.9,323.3,0,0,0,28.1,60,0,10.2,60,0,10.4,10.1,7.4,60,0,7.6,7.1,3.9,60,0,4.6,3.0,64.6,60,0,69.0,60.0,28.1,60,0,39.0,18.0,239,0.0,1021.4,60,0,1021.4,0,1007.1,60,0,46.2,60,0
86282,2017-12-15 00:00:00,0.0,60,0,0.0,0.0,0.0,60,0,0.0,0.0,0.0,60,0,0.0,0.0,0.0,60,0,0.0,0.0,337.4,60,0,342.9,323.3,0,0,0,28.1,60,0,10.2,60,0,10.4,10.1,7.4,60,0,7.6,7.1,3.9,60,0,4.6,3.0,64.6,60,0,69.0,60.0,28.1,60,0,39.0,18.0,239,0.0,1021.4,60,0,1021.4,0,1007.1,60,0,46.2,60,0
86282,2017-12-30 00:00:00,0.0,60,0,0.0,0.0,0.0,60,0,0.0,0.0,0.0,60,0,0.0,0.0,0.0,60,0,0.0,0.0,337.4,60,0,342.9,323.3,0,0,0,28.1,60,0,10.2,60,0,10.4,10.1,7.4,60,0,7.6,7.1,3.9,60,0,4.6,3.0,64.6,60,0,69.0,60.0,28.1,60,0,39.0,18.0,239,0.0,1021.4,60,0,1021.4,0,1007.1,60,0,46.2,60,0
86282,2018-01-14 00:00:00,0.0,60,0,0.0,0.0,0.0,60,0,0.0,0.0,0.0,60,0,0.0,0.0,0.0,60,0,0.0,0.0,337.4,60,0,342.9,323.3,0,0,0,28.1,60,0,10.2,60,0,10.4,10.1,7.4,60,0,7.6,7.1,3.9,60,0,4.6,3.0,64.6,60,0,69.0,60.0,28.1,60,0,39.0,18.0,239,0.0,1021.4,60,0,1021.4,0,1007.1,60,0,46.2,60,0
86282,2018-01-29 00:00:00,0.0,60,0,0.0,0.0,0.0,60,0,0.0,0.0,0.0,60,0,0.0,0.0,0.0,60,0,0.0,0.0,337.4,60,0,342.9,323.3,0,0,0,28.1,60,0,10.2,60,0,10.4,10.1,7.4,60,0,7.6,7.1,3.9,60,0,4.6,3.0,64.6,60,0,69.0,60.0,28.1,60,0,39.0,18.0,239,0.0,1021.4,60,0,1021.4,0,1007.1,60,0,46.2,60,0
86282,2018-03-15 00:00:00,0.0,60,0,0.0,0.0,0.0,60,0,0.0,0.0,0.0,60,0,0.0,0.0,0.0,60,0,0.0,0.0,337.4,60,0,342.9,323.3,0,0,0,28.1,60,0,10.2,60,0,10.4,10.1,7.4,60,0,7.6,7.1,3.9,60,0,4.6,3.0,64.6,60,0,69.0,60.0,28.1,60,0,39.0,18.0,239,0.0,1021.4,60,0,1021.4,0,1007.1,60,0,46.2,60,0
86282,2018-03-30 00:00:00,0.0,60,0,0.0,0.0,0.0,60,0,0.0,0.0,0.0,60,0,0.0,0.0,0.0,60,0,0.0,0.0,337.4,60,0,342.9,323.3,0,0,0,28.1,60,0,10.2,60,0,10.4,10.1,7.4,60,0,7.6,7.1,3.9,60,0,4.6,3.0,64.6,60,0,69.0,60.0,28.1,60,0,39.0,18.0,239,0.0,1021.4,60,0,1021.4,0,1007.1,60,0,46.2,60,0
86282,2018-04-14 00:00:00,0.0,60,0,0.0,0.0,0.0,60,0,0.0,0.0,0.0,60,0,0.0,0.0,0.0,60,0,0.0,0.0,337.4,60,0,342.9,323.3,0,0,0,28.1,60,0,10.2,60,0,10.4,10.1,7.4,60,0,7.6,7.1,3.9,60,0,4.6,3.0,64.6,60,0,69.0,60.0,28.1,60,0,39.0,18.0,239,0.0,1021.4,60,0,1021.4,0,1007.1,60,0,46.2,60,0
86282,2018-04-29 00:00:00,0.0,60,0,0.0,0.0,0.0,60,0,0.0,0.0,0.0,60,0,0.0,0.0,0.0,60,0,0.0,0.0,337.4,60,0,342.9,323.3,0,0,0,28.1,60,0,10.2,60,0,10.4,10.1,7.4,60,0,7.6,7.1,3.9,60,0,4.6,3.0,64.6,60,0,69.0,60.0,28.1,60,0,39.0,18.0,239,0.0,1021.4,60,0,1021.4,0,1007.1,60,0,46.2,60,0
86282,2018-05-14 00:00:00,0.0,60,0,0.0,0.0,0.0,60,0,0.0,0.0,0.0,60,0,0.0,0.0,0.0,60,0,0.0,0.0,337.4,60,0,342.9,323.3,0,0,0,28.1,60,0,10.2,60,0,10.4,10.1,7.4,60,0,7.6,7.1,3.9,60,0,4.6,3.0,64.6,60,0,69.0,60.0,28.1,60,0,39.0,18.0,239,0.0,1021.4,60,0,1021.4,0,1007.1,60,0,46.2,60,0
86282,2018-05-29 00:00:00,0.0,60,0,0.0,0.0,0.0,60,0,0.0,0.0,0.0,60,0,0.0,0.0,0.0,60,0,0.0,0.0,337.4,60,0,342.9,323.3,0,0,0,28.1,60,0,10.2,60,0,10.4,10.1,7.4,60,0,7.6,7.1,3.9,60,0,4.6,3.0,64.6,60,0,69.0,60.0,28.1,60,0,39.0,18.0,239,0.0,1021.4,60,0,1021.4,0,1007.1,60,0,46.2,60,0
86282,2018-06-13 00:00:00,0.0,60,0,0.0,0.0,0.0,60,0,0.0,0.0,0.0,60,0,0.0,0.0,0.0,60,0,0.0,0.0,337.4,60,0,342.9,323.3,0,0,0,28.1,60,0,10.2,60,0,10.4,10.1,7.4,60,0,7.6,7.1,3.9,60,0,4.6,3.0,64.6,60,0,69.0,60.0,28.1,60,0,39.0,18.0,239,0.0,1021.4,60,0,1021.4,0,1007.1,60,0,46.2,60,0
86282,2018-06-28 00:00:00,0.0,60,0,0.0,0.0,0.0,60,0,0.0,0.0,0.0,60,0,0.0,0.0,0.0,60,0,0.0,0.0,337.4,60,0,342.9,323.3,0,0,0,28.1,60,0,10.2,60,0,10.4,10.1,7.4,60,0,7.6,7.1,3.9,60,0,4.6,3.0,64.6,60,0,69.0,60.0,28.1,60,0,39.0,18.0,239,0.0,1021.4,60,0,1021.4,0,1007.1,60,0,46.2,60,0
86282,2018-07-13 00:00:00,0.0,60,0,0.0,0.0,0.0,60,0,0.0,0.0,0.0,60,0,0.0,0.0,0.0,60,0,0.0,0.0,337.4,60,0,342.9,323.3,0,0,0,28.1,60,0,10.2,60,0,10.4,10.1,7.4,60,0,7.6,7.1,3.9,60,0,4.6,3.0,64.6,60,0,69.0,60.0,28.1,60,0,39.0,18.0,239,0.0,1021.4,60,0,1021.4,0,1007.1,60,0,46.2,60,0
86282,2018-07-28 00:00:00,0.0,60,0,0.0,0.0,0.0,60,0,0.0,0.0,0.0,60,0,0.0,0.0,0.0,60,0,0.0,0.0,337.4,60,0,342.9,323.3,0,0,0,28.1,60,0,10.2,60,0,10.4,10.1,7.4,60,0,7.6,7.1,3.9,60,0,4.6,3.0,64.6,60,0,69.0,60.0,28.1,60,0,39.0,18.0,239,0.0,1021.4,60,0,1021.4,0,1007.1,60,0,46.2,60,0
86282,2018-08-12 00:00:00,0.0,60,0,0.0,0.0,0.0,60,0,0.0,0.0,0.0,60,0,0.0,0.0,0.0,60,0,0.0,0.0,337.4,60,0,342.9,323.3,0,0,0,28.1,60,0,10.2,60,0,10.4,10.1,7.4,60,0,7.6,7.1,3.9,60,0,4.6,3.0,64.6,60,0,69.0,60.0,28.1,60,0,39.0,18.0,239,0.0,1021.4,60,0,1021.4,0,1007.1,60,0,46.2,60,0
86282,2018-08-27 00:00:00,0.0,60,0,0.0,0.0,0.0,60,0,0.0,0.0,0.0,60,0,0.0,0.0,0.0,60,0,0.0,0.0,337.4,60,0,342.9,323.3,0,0,0,28.1,60,0,10.2,60,0,10.4,10.1,7.4,60,0,7.6,7.1,3.9,60,0,4.6,3.0,64.6,60,0,69.0,60.0,28.1,60,0,39.0,18.0,239,0.0,1021.4,60,0,1021.4,0,1007.1,60,0,46.2,60,0
86282,2018-09-11 00:00:00,0.0,60,0,0.0,0.0,0.0,60,0,0.0,0.0,0.0,60,0,0.0,0.0,0.0,60,0,0.0,0.0,337.4,60,0,342.9,323.3,0,0,0,28.1,60,0,10.2,60,0,10.4,10.1,7.4,60,0,7.6,7.1,3.9,60,0,4.6,3.0,64.6,60,0,69.0,60.0,28.1,60,0,39.0,18.0,239,0.0,1021.4,60,0,1021.4,0,1007.1,60,0,46.2,60,0
86282,2018-09-26 00:00:00,0.0,60,0,0.0,0.0,0.0,60,0,0.0,0.0,0.0,60,0,0.0,0.0,0.0,60,0,0.0,0.0,337.4,60,0,342.9,323.3,0,0,0,28.1,60,0,10.2,60,0,10.4,10.1,7.4,60,0,7.6,7.1,3.9,60,0,4.6,3.0,64.6,60,0,69.0,60.0,28.1,60,0,39.0,18.0,239,0.0,1021.4,60,0,1021.4,0,1007.1,60,0,46.2,60,0
86282,2018-10-11 00:00:00,0.0,60,0,0.0,0.0,0.0,60,0,0.0,0.0,0.0,60,0,0.0,0.0,0.0,60,0,0.0,0.0,337.4,60,0,342.9,323.3,0,0,0,28.1,60,0,10.2,60,0,10.4,10.1,7.4,60,0,7.6,7.1,3.9,60,0,4.6,3.0,64.6,60,0,69.0,60.0,28.1,60,0,39.0,18.0,239,0.0,1021.4,60,0,1021.4,0,1007.1,60,0,46.2,60,0
86282,2018-10-26 00:00:00,0.0,60,0,0.0,0.0,0.0,60,0,0.0,0.0,0.0,60,0,0.0,0.0,0.0,60,0,0.0,0.0,337.4,60,0,342.9,323.3,0,0,0,28.1,60,0,10.2,60,0,10.4,10.1,7.4,60,0,7.6,7.1,3.9,60,0,4.6,3.0,64.6,60,0,69.0,60.0,28.1,60,0,39.0,18.0,239,0.0,1021.4,60,0,1021.4,0,1007.1,60,0,46.2,60,0
86282,2018-11-10 00:00:00,0.0,60,0,0.0,0.0,0.0,60,0,0.0,0.0,0.0,60,0,0.0,0.0,0.0,60,0,0.0,0.0,337.4,60,0,342.9,323.3,0,0,0,28.1,60,0,10.2,60,0,10.4,10.1,7.4,60,0,7.6,7.1,3.9,60,0,4.6,3.0,64.6,60,0,69.0,60.0,28.1,60,0,39.0,18.0,239,0.0,1021.4,60,0,1021.4,0,1007.1,60,0,46.2,60,0
86282,2018-11-25 00:00:00,0.0,60,0,0.0,0.0,0.0,60,0,0.0,0.0,0.0,60,0,0.0,0.0,0.0,60,0,0.0,0.0,337.4,60,0,342.9,323.3,0,0,0,28.1,60,0,10.2,60,0,10.4,10.1,7.4,60,0,7.6,7.1,3.9,60,0,4.6,3.0,64.6,60,0,69.0,60.0,28.1,60,0,39.0,18.0,239,0.0,1021.4,60,0,1021.4,0,1007.1,60,0,46.2,60,0
86282,2018-12-10 00:00:00,0.0,60,0,0.0,0.0,0.0,60,0,0.0,0.0,0.0,60,0,0.0,0.0,0.0,60,0,0.0,0.0,337.4,60,0,342.9,323.3,0,0,0,28.1,60,0,10.2,60,0,10.4,10.1,7.4,60,0,7.6,7.1,3.9,60,0,4.6,3.0,64.6,60,0,69.0,60.0,28.1,60,0,39.0,18.0,239,0.0,1021.4,60,0,1021.4,0,1007.1,60,0,46.2,60,0
86282,2018-12-25 00:00:00,0.0,60,0,0.0,0.0,0.0,60,0,0.0,0.0,0.0,60,0,0.0,0.0,0.0,60,0,0.0,0.0,337.4,60,0,342.9,323.3,0,0,0,28.1,60,0,10.2,60,0,10.4,10.1,7.4,60,0,7.6,7.1,3.9,60,0,4.6,3.0,64.6,60,0,69.0,60.0,28.1,60,0,39.0,18.0,239,0.0,1021.4,60,0,1021.4,0,1007.1,60,0,46.2,60,0
86282,2019-01-09 00:00:00,0.0,60,0,0.0,0.0,0.0,60,0,0.0,0.0,0.0,60,0,0.0,0.0,0.0,60,0,0.0,0.0,337.4,60,0,342.9,323.3,0,0,0,28.1,60,0,10.2,60,0,10.4,10.1,7.4,60,0,7.6,7.1,3.9,60,0,4.6,3.0,64.6,60,0,69.0,60.0,28.1,60,0,39.0,18.0,239,0.0,1021.4,60,0,1021.4,0,1007.1,60,0,46.2,60,0
86282,2019-01-24 00:00:00,0.0,60,0,0.0,0.0,0.0,60,0,0.0,0.0,0.0,60,0,0.0,0.0,0.0,60,0,0.0,0.0,337.4,60,0,342.9,323.3,0,0,0,28.1,60,0,10.2,60,0,10.4,10.1,7.4,60,0,7.6,7.1,3.9,60,0,4.6,3.0,64.6,60,0,69.0,60.0,28.1,60,0,39.0,18.0,239,0.0,1021.4,60,0,1021.4,0,1007.1,60,0,46.2,60,0
86282,2019-03-10 00:00:00,0.0,60,0,0.0,0.0,0.0,60,0,0.0,0.0,0.0,60,0,0.0,0.0,0.0,60,0,0.0,0.0,337.4,60,0,342.9,323.3,0,0,0,28.1,60,0,10.2,60,0,10.4,10.1,7.4,60,0,7.6,7.1,3.9,60,0,4.6,3.0,64.6,60,0,69.0,60.0,28.1,60,0,39.0,18.0,239,0.0,1021.4,60,0,1021.4,0,1007.1,60,0,46.2,60,0
86282,2019-03-25 00:00:00,0.0,60,0,0.0,0.0,0.0,60,0,0.0,0.0,0.0,60,0,0.0,0.0,0.0,60,0,0.0,0.0,337.4,60,0,342.9,323.3,0,0,0,28.1,60,0,10.2,60,0,10.4,10.1,7.4,60,0,7.6,7.1,3.9,60,0,4.6,3.0,64.6,60,0,69.0,60.0,28.1,60,0,39.0,18.0,239,0.0,1021.4,60,0,1021.4,0,1007.1,60,0,46.2,60,0
86282,2019-04-09 00:00:00,0.0,60,0,0.0,0.0,0.0,60,0,0.0,0.0,0.0,60,0,0.0,0.0,0.0,60,0,0.0,0.0,337.4,60,0,342.9,323.3,0,0,0,28.1,60,0,10.2,60,0,10.4,10.1,7.4,60,0,7.6,7.1,3.9,60,0,4.6,3.0,64.6,60,0,69.0,60.0,28.1,60,0,39.0,18.0,239,0.0,1021.4,60,0,1021.4,0,1007.1,60,0,46.2,60,0
86282,2019-04-24 00:00:00,0.0,60,0,0.0,0.0,0.0,60,0,0.0,0.0,0.0,60,0,0.0,0.0,0.0,60,0,0.0,0.0,337.4,60,0,342.9,323.3,0,0,0,28.1,60,0,10.2,60,0,10.4,10.1,7.4,60,0,7.6,7.1,3.9,60,0,4.6,3.0,64.6,60,0,69.0,60.0,28.1,60,0,39.0,18.0,239,0.0,1021.4,60,0,1021.4,0,1007.1,60,0,46.2,60,0
86282,2019-05-09 00:00:00,0.0,60,0,0.0,0.0,0.0,60,0,0.0,0.0,0.0,60,0,0.0,0.0,0.0,60,0,0.0,0.0,337.4,60,0,342.9,323.3,0,0,0,28.1,60,0,10.2,60,0,10.4,10.1,7.4,60,0,7.6,7.1,3.9,60,0,4.6,3.0,64.6,60,0,69.0,60.0,28.1,60,0,39.0,18.0,239,0.0,1021.4,60,0,1021.4,0,1007.1,60,0,46.2,60,0
86282,2019-05-24 00:00:00,0.0,60,0,0.0,0.0,0.0,60,0,0.0,0.0,0.0,60,0,0.0,0.0,0.0,60,0,0.0,0.0,337.4,60,0,342.9,323.3,0,0,0,28.1,60,0,10.2,60,0,10.4,10.1,7.4,60,0,7.6,7.1,3.9,60,0,4.6,3.0,64.6,60,0,69.0,60.0,28.1,60,0,39.0,18.0,239,0.0,1021.4,60,0,1021.4,0,1007.1,60,0,46.2,60,0
86282,2019-06-08 00:00:00,0.0,60,0,0.0,0.0,0.0,60,0,0.0,0.0,0.0,60,0,0.0,0.0,0.0,60,0,0.0,0.0,337.4,60,0,342.9,323.3,0,0,0,28.1,60,0,10.2,60,0,10.4,10.1,7.4,60,0,7.6,7.1,3.9,60,0,4.6,3.0,64.6,60,0,69.0,60.0,28.1,60,0,39.0,18.0,239,0.0,1021.4,60,0,1021.4,0,1007.1,60,0,46.2,60,0
86282,2019-06-23 00:00:00,0.0,60,0,0.0,0.0,0.0,60,0,0.0,0.0,0.0,60,0,0.0,0.0,0.0,60,0,0.0,0.0,337.4,60,0,342.9,323.3,0,0,0,28.1,60,0,10.2,60,0,10.4,10.1,7.4,60,0,7.6,7.1,3.9,60,0,4.6,3.0,64.6,60,0,69.0,60.0,28.1,60,0,39.0,18.0,239,0.0,1021.4,60,0,1021.4,0,1007.1,60,0,46.2,60,0
86282,2019-07-08 00:00:00,0.0,60,0,0.0,0.0,0.0,60,0,0.0,0.0,0.0,60,0,0.0,0.0,0.0,60,0,0.0,0.0,337.4,60,0,342.9,323.3,0,0,0,28.1,60,0,10.2,60,0,10.4,10.1,7.4,60,0,7.6,7.1,3.9,60,0,4.6,3.0,64.6,60,0,69.0,60.0,28.1,60,0,39.0,18.0,239,0.0,1021.4,60,0,1021.4,0,1007.1,60,0,46.2,60,0
86282,2019-07-23 00:00:00,0.0,60,0,0.0,0.0,0.0,60,0,0.0,0.0,0.0,60,0,0.0,0.0,0.0,60,0,0.0,0.0,337.4,60,0,342.9,323.3,0,0,0,28.1,60,0,10.2,60,0,10.4,10.1,7.4,60,0,7.6,7.1,3.9,60,0,4.6,3.0,64.6,60,0,69.0,60.0,28.1,60,0,39.0,18.0,239,0.0,1021.4,60,0,1021.4,0,1007.1,60,0,46.2,60,0
86282,2019-08-07 00:00:00,0.0,60,0,0.0,0.0,0.0,60,0,0.0,0.0,0.0,60,0,0.0,0.0,0.0,60,0,0.0,0.0,337.4,60,0,342.9,323.3,0,0,0,28.1,60,0,10.2,60,0,10.4,10.1,7.4,60,0,7.6,7.1,3.9,60,0,4.6,3.0,64.6,60,0,69.0,60.0,28.1,60,0,39.0,18.0,239,0.0,1021.4,60,0,1021.4,0,1007.1,60,0,46.2,60,0
86282,2019-08-22 00:00:00,0.0,60,0,0.0,0.0,0.0,60,0,0.0,0.0,0.0,60,0,0.0,0.0,0.0,60,0,0.0,0.0,337.4,60,0,342.9,323.3,0,0,0,28.1,60,0,10.2,60,0,10.4,10.1,7.4,60,0,7.6,7.1,3.9,60,0,4.6,3.0,64.6,60,0,69.0,60.0,28.1,60,0,39.0,18.0,239,0.0,1021.4,60,0,1021.4,0,1007.1,60,0,46.2,60,0
86282,2019-09-06 00:00:00,0.0,60,0,0.0,0.0,0.0,60,0,0.0,0.0,0.0,60,0,0.0,0.0,0.0,60,0,0.0,0.0,337.4,60,0,342.9,323.3,0,0,0,28.1,60,0,10.2,60,0,10.4,10.1,7.4,60,0,7.6,7.1,3.9,60,0,4.6,3.0,64.6,60,0,69.0,60.0,28.1,60,0,39.0,18.0,239,0.0,1021.4,60,0,1021.4,0,1007.1,60,0,46.2,60,0
86282,2019-09-21 00:00:00,0.0,60,0,0.0,0.0,0.0,60,0,0.0,0.0,0.0,60,0,0.0,0.0,0.0,60,0,0.0,0.0,337.4,60,0,342.9,323.3,0,0,0,28.1,60,0,10.2,60,0,10.4,10.1,7.4,60,0,7.6,7.1,3.9,60,0,4.6,3.0,64.6,60,0,69.0,60.0,28.1,60,0,39.0,18.0,239,0.0,1021.4,60,0,1021.4,0,1007.1,60,0,46.2,60,0
86282,2019-10-06 00:00:00,0.0,60,0,0.0,0.0,0.0,60,0,0.0,0.0,0.0,60,0,0.0,0.0,0.0,60,0,0.0,0.0,337.4,60,0,342.9,323.3,0,0,0,28.1,60,0,10.2,60,0,10.4,10.1,7.4,60,0,7.6,7.1,3.9,60,0,4.6,3.0,64.6,60,0,69.0,60.0,28.1,60,0,39.0,18.0,239,0.0,1021.4,60,0,1021.4,0,1007.1,60,0,46.2,60,0
86282,2019-10-21 00:00:00,0.0,60,0,0.0,0.0,0.0,60,0,0.0,0.0,0.0,60,0,0.0,0.0,0.0,60,0,0.0,0.0,337.4,60,0,342.9,323.3,0,0,0,28.1,60,0,10.2,60,0,10.4,10.1,7.4,60,0,7.6,7.1,3.9,60,0,4.6,3.0,64.6,60,0,69.0,60.0,28.1,60,0,39.0,18.0,239,0.0,1021.4,60,0,1021.4,0,1007.1,60,0,46.2,60,0
86282,2019-11-05 00:00:00,0.0,60,0,0.0,0.0,0.0,60,0,0.0,0.0,0.0,60,0,0.0,0.0,0.0,60,0,0.0,0.0,337.4,60,0,342.9,323.3,0,0,0,28.1,60,0,10.2,60,0,10.4,10.1,7.4,60,0,7.6,7.1,3.9,60,0,4.6,3.0,64.6,60,0,69.0,60.0,28.1,60,0,39.0,18.0,239,0.0,1021.4,60,0,1021.4,0,1007.1,60,0,46.2,60,0
86282,2019-11-20 00:00:00,0.0,60,0,0.0,0.0,0.0,60,0,0.0,0.0,0.0,60,0,0.0,0.0,0.0,60,0,0.0,0.0,337.4,60,0,342.9,323.3,0,0,0,28.1,60,0,10.2,60,0,10.4,10.1,7.4,60,0,7.6,7.1,3.9,60,0,4.6,3.0,64.6,60,0,69.0,60.0,28.1,60,0,39.0,18.0,239,0.0,1021.4,60,0,1021.4,0,1007.1,60,0,46.2,60,0
86282,2019-12-05 00:00:00,0.0,60,0,0.0,0.0,0.0,60,0,0.0,0.0,0.0,60,0,0.0,0.0,0.0,60,0,0.0,0.0,337.4,60,0,342.9,323.3,0,0,0,28.1,60,0,10.2,60,0,10.4,10.1,7.4,60,0,7.6,7.1,3.9,60,0,4.6,3.0,64.6,60,0,69.0,60.0,28.1,60,0,39.0,18.0,239,0.0,1021.4,60,0,1021.4,0,1007.1,60,0,46.2,60,0
86282,2019-12-20 00:00:00,0.0,60,0,0.0,0.0,0.0,60,0,0.0,0.0,0.0,60,0,0.0,0.0,0.0,60,0,0.0,0.0,337.4,60,0,342.9,323.3,0,0,0,28.1,60,0,10.2,60,0,10.4,10.1,7.4,60,0,7.6,7.1,3.9,60,0,4.6,3.0,64.6,60,0,69.0,60.0,28.1,60,0,39.0,18.0,239,0.0,1021.4,60,0,1021.4,0,1007.1,60,0,46.2,60,0
86282,2020-01-04 00:00:00,0.0,60,0,0.0,0.0,0.0,60,0,0.0,0.0,0.0,60,0,0.0,0.0,0.0,60,0,0.0,0.0,337.4,60,0,342.9,323.3,0,0,0,28.1,60,0,10.2,60,0,10.4,10.1,7.4,60,0,7.6,7.1,3.9,60,0,4.6,3.0,64.6,60,0,69.0,60.0,28.1,60,0,39.0,18.0,239,0.0,1021.4,60,0,1021.4,0,1007.1,60,0,46.2,60,0
86282,2020-01-19 00:00:00,0.0,60,0,0.0,0.0,0.0,60,0,0.0,0.0,0.0,60,0,0.0,0.0,0.0,60,0,0.0,0.0,337.4,60,0,342.9,323.3,0,0,0,28.1,60,0,10.2,60,0,10.4,10.1,7.4,60,0,7.6,7.1,3.9,60,0,4.6,3.0,64.6,60,0,69.0,60.0,28.1,60,0,39.0,18.0,239,0.0,1021.4,60,0,1021.4,0,1007.1,60,0,46.2,60,0
86282,2020-03-04 00:00:00,0.0,60,0,0.0,0.0,0.0,60,0,0.0,0.0,0.0,60,0,0.0,0.0,0.0,60,0,0.0,0.0,337.4,60,0,342.9,323.3,0,0,0,28.1,60,0,10.2,60,0,10.4,10.1,7.4,60,0,7.6,7.1,3.9,60,0,4.6,3.0,64.6,60,0,69.0,60.0,28.1,60,0,39.0,18.0,239,0.0,1021.4,60,0,1021.4,0,1007.1,60,0,46.2,60,0
86282,2020-03-19 00:00:00,0.0,60,0,0.0,0.0,0.0,60,0,0.0,0.0,0.0,60,0,0.0,0.0,0.0,60,0,0.0,0.0,337.4,60,0,342.9,323.3,0,0,0,28.1,60,0,10.2,60,0,10.4,10.1,7.4,60,0,7.6,7.1,3.9,60,0,4.6,3.0,64.6,60,0,69.0,60.0,28.1,60,0,39.0,18.0,239,0.0,1021.4,60,0,1021.4,0,1007.1,60,0,46.2,60,0
86282,2020-04-03 00:00:00,0.0,60,0,0.0,0.0,0.0,60,0,0.0,0.0,0.0,60,0,0.0,0.0,0.0,60,0,0.0,0.0,337.4,60,0,342.9,323.3,0,0,0,28.1,60,0,10.2,60,0,10.4,10.1,7.4,60,0,7.6,7.1,3.9,60,0,4.6,3.0,64.6,60,0,69.0,60.0,28.1,60,0,39.0,18.0,239,0.0,1021.4,60,0,1021.4,0,1007.1,60,0,46.2,60,0
86282,2020-04-18 00:00:00,0.0,60,0,0.0,0.0,0.0,60,0,0.0,0.0,0.0,60,0,0.0,0.0,0.0,60,0,0.0,0.0,337.4,60,0,342.9,323.3,0,0,0,28.1,60,0,10.2,60,0,10.4,10.1,7.4,60,0,7.6,7.1,3.9,60,0,4.6,3.0,64.6,60,0,69.0,60.0,28.1,60,0,39.0,18.0,239,0.0,1021.4,60,0,1021.4,0,1007.1,60,0,46.2,60,0
86282,2020-05-03 00:00:00,0.0,60,0,0.0,0.0,0.0,60,0,0.0,0.0,0.0,60,0,0.0,0.0,0.0,60,0,0.0,0.0,337.4,60,0,342.9,323.3,0,0,0,28.1,60,0,10.2,60,0,10.4,10.1,7.4,60,0,7.6,7.1,3.9,60,0,4.6,3.0,64.6,60,0,69.0,60.0,28.1,60,0,39.0,18.0,239,0.0,1021.4,60,0,1021.4,0,1007.1,60,0,46.2,60,0
86282,2020-05-18 00:00:00,0.0,60,0,0.0,0.0,0.0,60,0,0.0,0.0,0.0,60,0,0.0,0.0,0.0,60,0,0.0,0.0,337.4,60,0,342.9,323.3,0,0,0,28.1,60,0,10.2,60,0,10.4,10.1,7.4,60,0,7.6,7.1,3.9,60,0,4.6,3.0,64.6,60,0,69.0,60.0,28.1,60,0,39.0,18.0,239,0.0,1021.4,60,0,1021.4,0,1007.1,60,0,46.2,60,0
86282,2020-06-02 00:00:00,0.0,60,0,0.0,0.0,0.0,60,0,0.0,0.0,0.0,60,0,0.0,0.0,0.0,60,0,0.0,0.0,337.4,60,0,342.9,323.3,0,0,0,28.1,60,0,10.2,60,0,10.4,10.1,7.4,60,0,7.6,7.1,3.9,60,0,4.6,3.0,64.6,60,0,69.0,60.0,28.1,60,0,39.0,18.0,239,0.0,1021.4,60,0,1021.4,0,1007.1,60,0,46.2,60,0
86282,2020-06-17 00:00:00,0.0,60,0,0.0,0.0,0.0,60,0,0.0,0.0,0.0,60,0,0.0,0.0,0.0,60,0,0.0,0.0,337.4,60,0,342.9,323.3,0,0,0,28.1,60,0,10.2,60,0,10.4,10.1,7.4,60,0,7.6,7.1,3.9,60,0,4.6,3.0,64.6,60,0,69.0,60.0,28.1,60,0,39.0,18.0,239,0.0,1021.4,60,0,1021.4,0,1007.1,60,0,46.2,60,0
86282,2020-07-02 00:00:00,0.0,60,0,0.0,0.0,0.0,60,0,0.0,0.0,0.0,60,0,0.0,0.0,0.0,60,0,0.0,0.0,337.4,60,0,342.9,323.3,0,0,0,28.1,60,0,10.2,60,0,10.4,10.1,7.4,60,0,7.6,7.1,3.9,60,0,4.6,3.0,64.6,60,0,69.0,60.0,28.1,60,0,39.0,18.0,239,0.0,1021.4,60,0,1021.4,0,1007.1,60,0,46.2,60,0
86282,2020-07-17 00:00:00,0.0,60,0,0.0,0.0,0.0,60,0,0.0,0.0,0.0,60,0,0.0,0.0,0.0,60,0,0.0,0.0,337.4,60,0,342.9,323.3,0,0,0,28.1,60,0,10.2,60,0,10.4,10.1,7.4,60,0,7.6,7.1,3.9,60,0,4.6,3.0,64.6,60,0,69.0,60.0,28.1,60,0,39.0,18.0,239,0.0,1021.4,60,0,1021.4,0,1007.1,60,0,46.2,60,0
86282,2020-08-01 00:00:00,0.0,60,0,0.0,0.0,0.0,60,0,0.0,0.0,0.0,60,0,0.0,0.0,0.0,60,0,0.0,0.0,337.4,60,0,342.9,323.3,0,0,0,28.1,60,0,10.2,60,0,10.4,10.1,7.4,60,0,7.6,7.1,3.9,60,0,4.6,3.0,64.6,60,0,69.0,60.0,28.1,60,0,39.0,18.0,239,0.0,1021.4,60,0,1021.4,0,1007.1,60,0,46.2,60,0
86282,2020-08-16 00:00:00,0.0,60,0,0.0,0.0,0.0,60,0,0.0,0.0,0.0,60,0,0.0,0.0,0.0,60,0,0.0,0.0,337.4,60,0,342.9,323.3,0,0,0,28.1,60,0,10.2,60,0,10.4,10.1,7.4,60,0,7.6,7.1,3.9,60,0,4.6,3.0,64.6,60,0,69.0,60.0,28.1,60,0,39.0,18.0,239,0.0,1021.4,60,0,1021.4,0,1007.1,60,0,46.2,60,0
86282,2020-08-31 00:00:00,0.0,60,0,0.0,0.0,0.0,60,0,0.0,0.0,0.0,60,0,0.0,0.0,0.0,60,0,0.0,0.0,337.4,60,0,342.9,323.3,0,0,0,28.1,60,0,10.2,60,0,10.4,10.1,7.4,60,0,7.6,7.1,3.9,60,0,4.6,3.0,64.6,60,0,69.0,60.0,28.1,60,0,39.0,18.0,239,0.0,1021.4,60,0,1021.4,0,1007.1,60,0,46.2,60,0
86282,2020-09-15 00:00:00,0.0,60,0,0.0,0.0,0.0,60,0,0.0,0.0,0.0,60,0,0.0,0.0,0.0,60,0,0.0,0.0,337.4,60,0,342.9,323.3,0,0,0,28.1,60,0,10.2,60,0,10.4,10.1,7.4,60,0,7.6,7.1,3.9,60,0,4.6,3.0,64.6,60,0,69.0,60.0,28.1,60,0,39.0,18.0,239,0.0,1021.4,60,0,1021.4,0,1007.1,60,0,46.2,60,0
86282,2020-09-30 00:00:00,0.0,60,0,0.0,0.0,0.0,60,0,0.0,0.0,0.0,60,0,0.0,0.0,0.0,60,0,0.0,0.0,337.4,60,0,342.9,323.3,0,0,0,28.1,60,0,10.2,60,0,10.4,10.1,7.4,60,0,7.6,7.1,3.9,60,0,4.6,3.0,64.6,60,0,69.0,60.0,28.1,60,0,39.0,18.0,239,0.0,1021.4,60,0,1021.4,0,1007.1,60,0,46.2,60,0
86282,2020-10-15 00:00:00,0.0,60,0,0.0,0.0,0.0,60,0,0.0,0.0,0.0,60,0,0.0,0.0,0.0,60,0,0.0,0.0,337.4,60,0,342.9,323.3,0,0,0,28.1,60,0,10.2,60,0,10.4,10.1,7.4,60,0,7.6,7.1,3.9,60,0,4.6,3.0,64.6,60,0,69.0,60.0,28.1,60,0,39.0,18.0,239,0.0,1021.4,60,0,1021.4,0,1007.1,60,0,46.2,60,0
86282,2020-10-30 00:00:00,0.0,60,0,0.0,0.0,0.0,60,0,0.0,0.0,0.0,60,0,0.0,0.0,0.0,60,0,0.0,0.0,337.4,60,0,342.9,323.3,0,0,0,28.1,60,0,10.2,60,0,10.4,10.1,7.4,60,0,7.6,7.1,3.9,60,0,4.6,3.0,64.6,60,0,69.0,60.0,28.1,60,0,39.0,18.0,239,0.0,1021.4,60,0,1021.4,0,1007.1,60,0,46.2,60,0
86282,2020-11-14 00:00:00,0.0,60,0,0.0,0.0,0.0,60,0,0.0,0.0,0.0,60,0,0.0,0.0,0.0,60,0,0.0,0.0,337.4,60,0,342.9,323.3,0,0,0,28.1,60,0,10.2,60,0,10.4,10.1,7.4,60,0,7.6,7.1,3.9,60,0,4.6,3.0,64.6,60,0,69.0,60.0,28.1,60,0,39.0,18.0,239,0.0,1021.4,60,0,1021.4,0,1007.1,60,0,46.2,60,0
86282,2020-11-29 00:00:00,0.0,60,0,0.0,0.0,0.0,60,0,0.0,0.0,0.0,60,0,0.0,0.0,0.0,60,0,0.0,0.0,337.4,60,0,342.9,323.3,0,0,0,28.1,60,0,10.2,60,0,10.4,10.1,7.4,60,0,7.6,7.1,3.9,60,0,4.6,3.0,64.6,60,0,69.0,60.0,28.1,60,0,39.0,18.0,239,0.0,1021.4,60,0,1021.4,0,1007.1,60,0,46.2,60,0
86282,2020-12-14 00:00:00,0.0,60,0,0.0,0.0,0.0,60,0,0.0,0.0,0.0,60,0,0.0,0.0,0.0,60,0,0.0,0.0,337.4,60,0,342.9,323.3,0,0,0,28.1,60,0,10.2,60,0,10.4,10.1,7.4,60,0,7.6,7.1,3.9,60,0,4.6,3.0,64.6,60,0,69.0,60.0,28.1,60,0,39.0,18.0,239,0.0,1021.4,60,0,1021.4,0,1007.1,60,0,46.2,60,0
86282,2020-12-29 00:00:00,0.0,60,0,0.0,0.0,0.0,60,0,0.0,0.0,0.0,60,0,0.0,0.0,0.0,60,0,0.0,0.0,337.4,60,0,342.9,323.3,0,0,0,28.1,60,0,10.2,60,0,10.4,10.1,7.4,60,0,7.6,7.1,3.9,60,0,4.6,3.0,64.6,60,0,69.0,60.0,28.1,60,0,39.0,18.0,239,0.0,1021.4,60,0,1021.4,0,1007.1,60,0,46.2,60,0
86282,2021-01-13 00:00:00,0.0,60,0,0.0,0.0,0.0,60,0,0.0,0.0,0.0,60,0,0.0,0.0,0.0,60,0,0.0,0.0,337.4,60,0,342.9,323.3,0,0,0,28.1,60,0,10.2,60,0,10.4,10.1,7.4,60,0,7.6,7.1,3.9,60,0,4.6,3.0,64.6,60,0,69.0,60.0,28.1,60,0,39.0,18.0,239,0.0,1021.4,60,0,1021.4,0,1007.1,60,0,46.2,60,0
86282,2021-01-28 00:00:00,0.0,60,0,0.0,0.0,0.0,60,0,0.0,0.0,0.0,60,0,0.0,0.0,0.0,60,0,0.0,0.0,337.4,60,0,342.9,323.3,0,0,0,28.1,60,0,10.2,60,0,10.4,10.1,7.4,60,0,7.6,7.1,3.9,60,0,4.6,3.0,64.6,60,0,69.0,60.0,28.1,60,0,39.0,18.0,239,0.0,1021.4,60,0,1021.4,0,1007.1,60,0,46.2,60,0
86282,2021-03-14 00:00:00,0.0,60,0,0.0,0.0,0.0,60,0,0.0,0.0,0.0,60,0,0.0,0.0,0.0,60,0,0.0,0.0,337.4,60,0,342.9,323.3,0,0,0,28.1,60,0,10.2,60,0,10.4,10.1,7.4,60,0,7.6,7.1,3.9,60,0,4.6,3.0,64.6,60,0,69.0,60.0,28.1,60,0,39.0,18.0,239,0.0,1021.4,60,0,1021.4,0,1007.1,60,0,46.2,60,0
86282,2021-03-29 00:00:00,0.0,60,0,0.0,0.0,0.0,60,0,0.0,0.0,0.0,60,0,0.0,0.0,0.0,60,0,0.0,0.0,337.4,60,0,342.9,323.3,0,0,0,28.1,60,0,10.2,60,0,10.4,10.1,7.4,60,0,7.6,7.1,3.9,60,0,4.6,3.0,64.6,60,0,69.0,60.0,28.1,60,0,39.0,18.0,239,0.0,1021.4,60,0,1021.4,0,1007.1,60,0,46.2,60,0
86282,2021-04-13 00:00:00,0.0,60,0,0.0,0.0,0.0,60,0,0.0,0.0,0.0,60,0,0.0,0.0,0.0,60,0,0.0,0.0,337.4,60,0,342.9,323.3,0,0,0,28.1,60,0,10.2,60,0,10.4,10.1,7.4,60,0,7.6,7.1,3.9,60,0,4.6,3.0,64.6,60,0,69.0,60.0,28.1,60,0,39.0,18.0,239,0.0,1021.4,60,0,1021.4,0,1007.1,60,0,46.2,60,0
86282,2021-04-28 00:00:00,0.0,60,0,0.0,0.0,0.0,60,0,0.0,0.0,0.0,60,0,0.0,0.0,0.0,60,0,0.0,0.0,337.4,60,0,342.9,323.3,0,0,0,28.1,60,0,10.2,60,0,10.4,10.1,7.4,60,0,7.6,7.1,3.9,60,0,4.6,3.0,64.6,60,0,69.0,60.0,28.1,60,0,39.0,18.0,239,0.0,1021.4,60,0,1021.4,0,1007.1,60,0,46.2,60,0
86282,2021-05-13 00:00:00,0.0,60,0,0.0,0.0,0.0,60,0,0.0,0.0,0.0,60,0,0.0,0.0,0.0,60,0,0.0,0.0,337.4,60,0,342.9,323.3,0,0,0,28.1,60,0,10.2,60,0,10.4,10.1,7.4,60,0,7.6,7.1,3.9,60,0,4.6,3.0,64.6,60,0,69.0,60.0,28.1,60,0,39.0,18.0,239,0.0,1021.4,60,0,1021.4,0,1007.1,60,0,46.2,60,0
86282,2021-05-28 00:00:00,0.0,60,0,0.0,0.0,0.0,60,0,0.0,0.0,0.0,60,0,0.0,0.0,0.0,60,0,0.0,0.0,337.4,60,0,342.9,323.3,0,0,0,28.1,60,0,10.2,60,0,10.4,10.1,7.4,60,0,7.6,7.1,3.9,60,0,4.6,3.0,64.6,60,0,69.0,60.0,28.1,60,0,39.0,18.0,239,0.0,1021.4,60,0,1021.4,0,1007.1,60,0,46.2,60,0
86282,2021-06-12 00:00:00,0.0,60,0,0.0,0.0,0.0,60,0,0.0,0.0,0.0,60,0,0.0,0.0,0.0,60,0,0.0,0.0,337.4,60,0,342.9,323.3,0,0,0,28.1,60,0,10.2,60,0,10.4,10.1,7.4,60,0,7.6,7.1,3.9,60,0,4.6,3.0,64.6,60,0,69.0,60.0,28.1,60,0,39.0,18.0,239,0.0,1021.4,60,0,1021.4,0,1007.1,60,0,46.2,60,0
86282,2021-06-27 00:00:00,0.0,60,0,0.0,0.0,0.0,60,0,0.0,0.0,0.0,60,0,0.0,0.0,0.0,60,0,0.0,0.0,337.4,60,0,342.9,323.3,0,0,0,28.1,60,0,10.2,60,0,10.4,10.1,7.4,60,0,7.6,7.1,3.9,60,0,4.6,3.0,64.6,60,0,69.0,60.0,28.1,60,0,39.0,18.0,239,0.0,1021.4,60,0,1021.4,0,1007.1,60,0,46.2,60,0
86282,2021-07-12 00:00:00,0.0,60,0,0.0,0.0,0.0,60,0,0.0,0.0,0.0,60,0,0.0,0.0,0.0,60,0,0.0,0.0,337.4,60,0,342.9,323.3,0,0,0,28.1,60,0,10.2,60,0,10.4,10.1,7.4,60,0,7.6,7.1,3.9,60,0,4.6,3.0,64.6,60,0,69.0,60.0,28.1,60,0,39.0,18.0,239,0.0,1021.4,60,0,1021.4,0,1007.1,60,0,46.2,60,0
86282,2021-07-27 00:00:00,0.0,60,0,0.0,0.0,0.0,60,0,0.0,0.0,0.0,60,0,0.0,0.0,0.0,60,0,0.0,0.0,337.4,60,0,342.9,323.3,0,0,0,28.1,60,0,10.2,60,0,10.4,10.1,7.4,60,0,7.6,7.1,3.9,60,0,4.6,3.0,64.6,60,0,69.0,60.0,28.1,60,0,39.0,18.0,239,0.0,1021.4,60,0,1021.4,0,1007.1,60,0,46.2,60,0
86282,2021-08-11 00:00:00,0.0,60,0,0.0,0.0,0.0,60,0,0.0,0.0,0.0,60,0,0.0,0.0,0.0,60,0,0.0,0.0,337.4,60,0,342.9,323.3,0,0,0,28.1,60,0,10.2,60,0,10.4,10.1,7.4,60,0,7.6,7.1,3.9,60,0,4.6,3.0,64.6,60,0,69.0,60.0,28.1,60,0,39.0,18.0,239,0.0,1021.4,60,0,1021.4,0,1007.1,60,0,46.2,60,0
86282,2021-08-26 00:00:00,0.0,60,0,0.0,0.0,0.0,60,0,0.0,0.0,0.0,60,0,0.0,0.0,0.0,60,0,0.0,0.0,337.4,60,0,342.9,323.3,0,0,0,28.1,60,0,10.2,60,0,10.4,10.1,7.4,60,0,7.6,7.1,3.9,60,0,4.6,3.0,64.6,60,0,69.0,60.0,28.1,60,0,39.0,18.0,239,0.0,1021.4,60,0,1021.4,0,1007.1,60,0,46.2,60,0
86282,2021-09-10 00:00:00,0.0,60,0,0.0,0.0,0.0,60,0,0.0,0.0,0.0,60,0,0.0,0.0,0.0,60,0,0.0,0.0,337.4,60,0,342.9,323.3,0,0,0,28.1,60,0,10.2,60,0,10.4,10.1,7.4,60,0,7.6,7.1,3.9,60,0,4.6,3.0,64.6,60,0,69.0,60.0,28.1,60,0,39.0,18.0,239,0.0,1021.4,60,0,1021.4,0,1007.1,60,0,46.2,60,0
86282,2021-09-25 00:00:00,0.0,60,0,0.0,0.0,0.0,60,0,0.0,0.0,0.0,60,0,0.0,0.0,0.0,60,0,0.0,0.0,337.4,60,0,342.9,323.3,0,0,0,28.1,60,0,10.2,60,0,10.4,10.1,7.4,60,0,7.6,7.1,3.9,60,0,4.6,3.0,64.6,60,0,69.0,60.0,28.1,60,0,39.0,18.0,239,0.0,1021.4,60,0,1021.4,0,1007.1,60,0,46.2,60,0
86282,2021-10-10 00:00:00,0.0,60,0,0.0,0.0,0.0,60,0,0.0,0.0,0.0,60,0,0.0,0.0,0.0,60,0,0.0,0.0,337.4,60,0,342.9,323.3,0,0,0,28.1,60,0,10.2,60,0,10.4,10.1,7.4,60,0,7.6,7.1,3.9,60,0,4.6,3.0,64.6,60,0,69.0,60.0,28.1,60,0,39.0,18.0,239,0.0,1021.4,60,0,1021.4,0,1007.1,60,0,46.2,60,0
86282,2021-10-25 00:00:00,0.0,60,0,0.0,0.0,0.0,60,0,0.0,0.0,0.0,60,0,0.0,0.0,0.0,60,0,0.0,0.0,337.4,60,0,342.9,323.3,0,0,0,28.1,60,0,10.2,60,0,10.4,10.1,7.4,60,0,7.6,7.1,3.9,60,0,4.6,3.0,64.6,60,0,69.0,60.0,28.1,60,0,39.0,18.0,239,0.0,1021.4,60,0,1021.4,0,1007.1,60,0,46.2,60,0
86282,2021-11-09 00:00:00,0.0,60,0,0.0,0.0,0.0,60,0,0.0,0.0,0.0,60,0,0.0,0.0,0.0,60,0,0.0,0.0,337.4,60,0,342.9,323.3,0,0,0,28.1,60,0,10.2,60,0,10.4,10.1,7.4,60,0,7.6,7.1,3.9,60,0,4.6,3.0,64.6,60,0,69.0,60.0,28.1,60,0,39.0,18.0,239,0.0,1021.4,60,0,1021.4,0,1007.1,60,0,46.2,60,0
86282,2021-11-24 00:00:00,0.0,60,0,0.0,0.0,0.0,60,0,0.0,0.0,0.0,60,0,0.0,0.0,0.0,60,0,0.0,0.0,337.4,60,0,342.9,323.3,0,0,0,28.1,60,0,10.2,60,0,10.4,10.1,7.4,60,0,7.6,7.1,3.9,60,0,4.6,3.0,64.6,60,0,69.0,60.0,28.1,60,0,39.0,18.0,239,0.0,1021.4,60,0,1021.4,0,1007.1,60,0,46.2,60,0
86282,2021-12-09 00:00:00,0.0,60,0,0.0,0.0,0.0,60,0,0.0,0.0,0.0,60,0,0.0,0.0,0.0,60,0,0.0,0.0,337.4,60,0,342.9,323.3,0,0,0,28.1,60,0,10.2,60,0,10.4,10.1,7.4,60,0,7.6,7.1,3.9,60,0,4.6,3.0,64.6,60,0,69.0,60.0,28.1,60,0,39.0,18.0,239,0.0,1021.4,60,0,1021.4,0,1007.1,60,0,46.2,60,0
86282,2021-12-24 00:00:00,0.0,60,0,0.0,0.0,0.0,60,0,0.0,0.0,0.0,60,0,0.0,0.0,0.0,60,0,0.0,0.0,337.4,60,0,342.9,323.3,0,0,0,28.1,60,0,10.2,60,0,10.4,10.1,7.4,60,0,7.6,7.1,3.9,60,0,4.6,3.0,64.6,60,0,69.0,60.0,28.1,60,0,39.0,18.0,239,0.0,1021.4,60,0,1021.4,0,1007.1,60,0,46.2,60,0
86282,2022-01-08 00:00:00,0.0,60,0,0.0,0.0,0.0,60,0,0.0,0.0,0.0,60,0,0.0,0.0,0.0,60,0,0.0,0.0,337.4,60,0,342.9,323.3,0,0,0,28.1,60,0,10.2,60,0,10.4,10.1,7.4,60,0,7.6,7.1,3.9,60,0,4.6,3.0,64.6,60,0,69.0,60.0,28.1,60,0,39.0,18.0,239,0.0,1021.4,60,0,1021.4,0,1007.1,60,0,46.2,60,0
86282,2022-01-23 00:00:00,0.0,60,0,0.0,0.0,0.0,60,0,0.0,0.0,0.0,60,0,0.0,0.0,0.0,60,0,0.0,0.0,337.4,60,0,342.9,323.3,0,0,0,28.1,60,0,10.2,60,0,10.4,10.1,7.4,60,0,7.6,7.1,3.9,60,0,4.6,3.0,64.6,60,0,69.0,60.0,28.1,60,0,39.0,18.0,239,0.0,1021.4,60,0,1021.4,0,1007.1,60,0,46.2,60,0
86282,2022-03-09 00:00:00,0.0,60,0,0.0,0.0,0.0,60,0,0.0,0.0,0.0,60,0,0.0,0.0,0.0,60,0,0.0,0.0,337.4,60,0,342.9,323.3,0,0,0,28.1,60,0,10.2,60,0,10.4,10.1,7.4,60,0,7.6,7.1,3.9,60,0,4.6,3.0,64.6,60,0,69.0,60.0,28.1,60,0,39.0,18.0,239,0.0,1021.4,60,0,1021.4,0,1007.1,60,0,46.2,60,0
86282,2022-03-24 00:00:00,0.0,60,0,0.0,0.0,0.0,60,0,0.0,0.0,0.0,60,0,0.0,0.0,0.0,60,0,0.0,0.0,337.4,60,0,342.9,323.3,0,0,0,28.1,60,0,10.2,60,0,10.4,10.1,7.4,60,0,7.6,7.1,3.9,60,0,4.6,3.0,64.6,60,0,69.0,60.0,28.1,60,0,39.0,18.0,239,0.0,1021.4,60,0,1021.4,0,1007.1,60,0,46.2,60,0
86282,2022-04-08 00:00:00,0.0,60,0,0.0,0.0,0.0,60,0,0.0,0.0,0.0,60,0,0.0,0.0,0.0,60,0,0.0,0.0,337.4,60,0,342.9,323.3,0,0,0,28.1,60,0,10.2,60,0,10.4,10.1,7.4,60,0,7.6,7.1,3.9,60,0,4.6,3.0,64.6,60,0,69.0,60.0,28.1,60,0,39.0,18.0,239,0.0,1021.4,60,0,1021.4,0,1007.1,60,0,46.2,60,0
86282,2022-04-23 00:00:00,0.0,60,0,0.0,0.0,0.0,60,0,0.0,0.0,0.0,60,0,0.0,0.0,0.0,60,0,0.0,0.0,337.4,60,0,342.9,323.3,0,0,0,28.1,60,0,10.2,60,0,10.4,10.1,7.4,60,0,7.6,7.1,3.9,60,0,4.6,3.0,64.6,60,0,69.0,60.0,28.1,60,0,39.0,18.0,239,0.0,1021.4,60,0,1021.4,0,1007.1,60,0,46.2,60,0
86282,2022-05-08 00:00:00,0.0,60,0,0.0,0.0,0.0,60,0,0.0,0.0,0.0,60,0,0.0,0.0,0.0,60,0,0.0,0.0,337.4,60,0,342.9,323.3,0,0,0,28.1,60,0,10.2,60,0,10.4,10.1,7.4,60,0,7.6,7.1,3.9,60,0,4.6,3.0,64.6,60,0,69.0,60.0,28.1,60,0,39.0,18.0,239,0.0,1021.4,60,0,1021.4,0,1007.1,60,0,46.2,60,0
86282,2022-05-23 00:00:00,0.0,60,0,0.0,0.0,0.0,60,0,0.0,0.0,0.0,60,0,0.0,0.0,0.0,60,0,0.0,0.0,337.4,60,0,342.9,323.3,0,0,0,28.1,60,0,10.2,60,0,10.4,10.1,7.4,60,0,7.6,7.1,3.9,60,0,4.6,3.0,64.6,60,0,69.0,60.0,28.1,60,0,39.0,18.0,239,0.0,1021.4,60,0,1021.4,0,1007.1,60,0,46.2,60,0
86282,2022-06-07 00:00:00,0.0,60,0,0.0,0.0,0.0,60,0,0.0,0.0,0.0,60,0,0.0,0.0,0.0,60,0,0.0,0.0,337.4,60,0,342.9,323.3,0,0,0,28.1,60,0,10.2,60,0,10.4,10.1,7.4,60,0,7.6,7.1,3.9,60,0,4.6,3.0,64.6,60,0,69.0,60.0,28.1,60,0,39.0,18.0,239,0.0,1021.4,60,0,1021.4,0,1007.1,60,0,46.2,60,0
86282,2022-06-22 00:00:00,0.0,60,0,0.0,0.0,0.0,60,0,0.0,0.0,0.0,60,0,0.0,0.0,0.0,60,0,0.0,0.0,337.4,60,0,342.9,323.3,0,0,0,28.1,60,0,10.2,60,0,10.4,10.1,7.4,60,0,7.6,7.1,3.9,60,0,4.6,3.0,64.6,60,0,69.0,60.0,28.1,60,0,39.0,18.0,239,0.0,1021.4,60,0,1021.4,0,1007.1,60,0,46.2,60,0
86282,2022-07-07 00:00:00,0.0,60,0,0.0,0.0,0.0,60,0,0.0,0.0,0.0,60,0,0.0,0.0,0.0,60,0,0.0,0.0,337.4,60,0,342.9,323.3,0,0,0,28.1,60,0,10.2,60,0,10.4,10.1,7.4,60,0,7.6,7.1,3.9,60,0,4.6,3.0,64.6,60,0,69.0,60.0,28.1,60,0,39.0,18.0,239,0.0,1021.4,60,0,1021.4,0,1007.1,60,0,46.2,60,0
86282,2022-07-22 00:00:00,0.0,60,0,0.0,0.0,0.0,60,0,0.0,0.0,0.0,60,0,0.0,0.0,0.0,60,0,0.0,0.0,337.4,60,0,342.9,323.3,0,0,0,28.1,60,0,10.2,60,0,10.4,10.1,7.4,60,0,7.6,7.1,3.9,60,0,4.6,3.0,64.6,60,0,69.0,60.0,28.1,60,0,39.0,18.0,239,0.0,1021.4,60,0,1021.4,0,1007.1,60,0,46.2,60,0
86282,2022-08-06 00:00:00,0.0,60,0,0.0,0.0,0.0,60,0,0.0,0.0,0.0,60,0,0.0,0.0,0.0,60,0,0.0,0.0,337.4,60,0,342.9,323.3,0,0,0,28.1,60,0,10.2,60,0,10.4,10.1,7.4,60,0,7.6,7.1,3.9,60,0,4.6,3.0,64.6,60,0,69.0,60.0,28.1,60,0,39.0,18.0,239,0.0,1021.4,60,0,1021.4,0,1007.1,60,0,46.2,60,0
86282,2022-08-21 00:00:00,0.0,60,0,0.0,0.0,0.0,60,0,0.0,0.0,0.0,60,0,0.0,0.0,0.0,60,0,0.0,0.0,337.4,60,0,342.9,323.3,0,0,0,28.1,60,0,10.2,60,0,10.4,10.1,7.4,60,0,7.6,7.1,3.9,60,0,4.6,3.0,64.6,60,0,69.0,60.0,28.1,60,0,39.0,18.0,239,0.0,1021.4,60,0,1021.4,0,1007.1,60,0,46.2,60,0
86282,2022-09-05 00:00:00,0.0,60,0,0.0,0.0,0.0,60,0,0.0,0.0,0.0,60,0,0.0,0.0,0.0,60,0,0.0,0.0,337.4,60,0,342.9,323.3,0,0,0,28.1,60,0,10.2,60,0,10.4,10.1,7.4,60,0,7.6,7.1,3.9,60,0,4.6,3.0,64.6,60,0,69.0,60.0,28.1,60,0,39.0,18.0,239,0.0,1021.4,60,0,1021.4,0,1007.1,60,0,46.2,60,0
86282,2022-09-20 00:00:00,0.0,60,0,0.0,0.0,0.0,60,0,0.0,0.0,0.0,60,0,0.0,0.0,0.0,60,0,0.0,0.0,337.4,60,0,342.9,323.3,0,0,0,28.1,60,0,10.2,60,0,10.4,10.1,7.4,60,0,7.6,7.1,3.9,60,0,4.6,3.0,64.6,60,0,69.0,60.0,28.1,60,0,39.0,18.0,239,0.0,1021.4,60,0,1021.4,0,1007.1,60,0,46.2,60,0
86282,2022-10-05 00:00:00,0.0,60,0,0.0,0.0,0.0,60,0,0.0,0.0,0.0,60,0,0.0,0.0,0.0,60,0,0.0,0.0,337.4,60,0,342.9,323.3,0,0,0,28.1,60,0,10.2,60,0,10.4,10.1,7.4,60,0,7.6,7.1,3.9,60,0,4.6,3.0,64.6,60,0,69.0,60.0,28.1,60,0,39.0,18.0,239,0.0,1021.4,60,0,1021.4,0,1007.1,60,0,46.2,60,0
86282,2022-10-20 00:00:00,0.0,60,0,0.0,0.0,0.0,60,0,0.0,0.0,0.0,60,0,0.0,0.0,0.0,60,0,0.0,0.0,337.4,60,0,342.9,323.3,0,0,0,28.1,60,0,10.2,60,0,10.4,10.1,7.4,60,0,7.6,7.1,3.9,60,0,4.6,3.0,64.6,60,0,69.0,60.0,28.1,60,0,39.0,18.0,239,0.0,1021.4,60,0,1021.4,0,1007.1,60,0,46.2,60,0
86282,2022-11-04 00:00:00,0.0,60,0,0.0,0.0,0.0,60,0,0.0,0.0,0.0,60,0,0.0,0.0,0.0,60,0,0.0,0.0,337.4,60,0,342.9,323.3,0,0,0,28.1,60,0,10.2,60,0,10.4,10.1,7.4,60,0,7.6,7.1,3.9,60,0,4.6,3.0,64.6,60,0,69.0,60.0,28.1,60,0,39.0,18.0,239,0.0,1021.4,60,0,1021.4,0,1007.1,60,0,46.2,60,0
86282,2022-11-19 00:00:00,0.0,60,0,0.0,0.0,0.0,60,0,0.0,0.0,0.0,60,0,0.0,0.0,0.0,60,0,0.0,0.0,337.4,60,0,342.9,323.3,0,0,0,28.1,60,0,10.2,60,0,10.4,10.1,7.4,60,0,7.6,7.1,3.9,60,0,4.6,3.0,64.6,60,0,69.0,60.0,28.1,60,0,39.0,18.0,239,0.0,1021.4,60,0,1021.4,0,1007.1,60,0,46.2,60,0
86282,2022-12-04 00:00:00,0.0,60,0,0.0,0.0,0.0,60,0,0.0,0.0,0.0,60,0,0.0,0.0,0.0,60,0,0.0,0.0,337.4,60,0,342.9,323.3,0,0,0,28.1,60,0,10.2,60,0,10.4,10.1,7.4,60,0,7.6,7.1,3.9,60,0,4.6,3.0,64.6,60,0,69.0,60.0,28.1,60,0,39.0,18.0,239,0.0,1021.4,60,0,1021.4,0,1007.1,60,0,46.2,60,0
86282,2022-12-19 00:00:00,0.0,60,0,0.0,0.0,0.0,60,0,0.0,0.0,0.0,60,0,0.0,0.0,0.0,60,0,0.0,0.0,337.4,60,0,342.9,323.3,0,0,0,28.1,60,0,10.2,60,0,10.4,10.1,7.4,60,0,7.6,7.1,3.9,60,0,4.6,3.0,64.6,60,0,69.0,60.0,28.1,60,0,39.0,18.0,239,0.0,1021.4,60,0,1021.4,0,1007.1,60,0,46.2,60,0
86282,2023-01-03 00:00:00,0.0,60,0,0.0,0.0,0.0,60,0,0.0,0.0,0.0,60,0,0.0,0.0,0.0,60,0,0.0,0.0,337.4,60,0,342.9,323.3,0,0,0,28.1,60,0,10.2,60,0,10.4,10.1,7.4,60,0,7.6,7.1,3.9,60,0,4.6,3.0,64.6,60,0,69.0,60.0,28.1,60,0,39.0,18.0,239,0.0,1021.4,60,0,1021.4,0,1007.1,60,0,46.2,60,0
86282,2023-01-18 00:00:00,0.0,60,0,0.0,0.0,0.0,60,0,0.0,0.0,0.0,60,0,0.0,0.0,0.0,60,0,0.0,0.0,337.4,60,0,342.9,323.3,0,0,0,28.1,60,0,10.2,60,0,10.4,10.1,7.4,60,0,7.6,7.1,3.9,60,0,4.6,3.0,64.6,60,0,69.0,60.0,28.1,60,0,39.0,18.0,239,0.0,1021.4,60,0,1021.4,0,1007.1,60,0,46.2,60,0
86282,2023-03-04 00:00:00,0.0,60,0,0.0,0.0,0.0,60,0,0.0,0.0,0.0,60,0,0.0,0.0,0.0,60,0,0.0,0.0,337.4,60,0,342.9,323.3,0,0,0,28.1,60,0,10.2,60,0,10.4,10.1,7.4,60,0,7.6,7.1,3.9,60,0,4.6,3.0,64.6,60,0,69.0,60.0,28.1,60,0,39.0,18.0,239,0.0,1021.4,60,0,1021.4,0,1007.1,60,0,46.2,60,0
86282,2023-03-19 00:00:00,0.0,60,0,0.0,0.0,0.0,60,0,0.0,0.0,0.0,60,0,0.0,0.0,0.0,60,0,0.0,0.0,337.4,60,0,342.9,323.3,0,0,0,28.1,60,0,10.2,60,0,10.4,10.1,7.4,60,0,7.6,7.1,3.9,60,0,4.6,3.0,64.6,60,0,69.0,60.0,28.1,60,0,39.0,18.0,239,0.0,1021.4,60,0,1021.4,0,1007.1,60,0,46.2,60,0
86282,2023-04-03 00:00:00,0.0,60,0,0.0,0.0,0.0,60,0,0.0,0.0,0.0,60,0,0.0,0.0,0.0,60,0,0.0,0.0,337.4,60,0,342.9,323.3,0,0,0,28.1,60,0,10.2,60,0,10.4,10.1,7.4,60,0,7.6,7.1,3.9,60,0,4.6,3.0,64.6,60,0,69.0,60.0,28.1,60,0,39.0,18.0,239,0.0,1021.4,60,0,1021.4,0,1007.1,60,0,46.2,60,0
86282,2023-04-18 00:00:00,0.0,60,0,0.0,0.0,0.0,60,0,0.0,0.0,0.0,60,0,0.0,0.0,0.0,60,0,0.0,0.0,337.4,60,0,342.9,323.3,0,0,0,28.1,60,0,10.2,60,0,10.4,10.1,7.4,60,0,7.6,7.1,3.9,60,0,4.6,3.0,64.6,60,0,69.0,60.0,28.1,60,0,39.0,18.0,239,0.0,1021.4,60,0,1021.4,0,1007.1,60,0,46.2,60,0
86282,2023-05-03 00:00:00,0.0,60,0,0.0,0.0,0.0,60,0,0.0,0.0,0.0,60,0,0.0,0.0,0.0,60,0,0.0,0.0,337.4,60,0,342.9,323.3,0,0,0,28.1,60,0,10.2,60,0,10.4,10.1,7.4,60,0,7.6,7.1,3.9,60,0,4.6,3.0,64.6,60,0,69.0,60.0,28.1,60,0,39.0,18.0,239,0.0,1021.4,60,0,1021.4,0,1007.1,60,0,46.2,60,0
86282,2023-05-18 00:00:00,0.0,60,0,0.0,0.0,0.0,60,0,0.0,0.0,0.0,60,0,0.0,0.0,0.0,60,0,0.0,0.0,337.4,60,0,342.9,323.3,0,0,0,28.1,60,0,10.2,60,0,10.4,10.1,7.4,60,0,7.6,7.1,3.9,60,0,4.6,3.0,64.6,60,0,69.0,60.0,28.1,60,0,39.0,18.0,239,0.0,1021.4,60,0,1021.4,0,1007.1,60,0,46.2,60,0
86282,2023-06-02 00:00:00,0.0,60,0,0.0,0.0,0.0,60,0,0.0,0.0,0.0,60,0,0.0,0.0,0.0,60,0,0.0,0.0,337.4,60,0,342.9,323.3,0,0,0,28.1,60,0,10.2,60,0,10.4,10.1,7.4,60,0,7.6,7.1,3.9,60,0,4.6,3.0,64.6,60,0,69.0,60.0,28.1,60,0,39.0,18.0,239,0.0,1021.4,60,0,1021.4,0,1007.1,60,0,46.2,60,0
86282,2023-06-17 00:00:00,0.0,60,0,0.0,0.0,0.0,60,0,0.0,0.0,0.0,60,0,0.0,0.0,0.0,60,0,0.0,0.0,337.4,60,0,342.9,323.3,0,0,0,28.1,60,0,10.2,60,0,10.4,10.1,7.4,60,0,7.6,7.1,3.9,60,0,4.6,3.0,64.6,60,0,69.0,60.0,28.1,60,0,39.0,18.0,239,0.0,1021.4,60,0,1021.4,0,1007.1,60,0,46.2,60,0
86282,2023-07-02 00:00:00,0.0,60,0,0.0,0.0,0.0,60,0,0.0,0.0,0.0,60,0,0.0,0.0,0.0,60,0,0.0,0.0,337.4,60,0,342.9,323.3,0,0,0,28.1,60,0,10.2,60,0,10.4,10.1,7.4,60,0,7.6,7.1,3.9,60,0,4.6,3.0,64.6,60,0,69.0,60.0,28.1,60,0,39.0,18.0,239,0.0,1021.4,60,0,1021.4,0,1007.1,60,0,46.2,60,0
86282,2023-07-17 00:00:00,0.0,60,0,0.0,0.0,0.0,60,0,0.0,0.0,0.0,60,0,0.0,0.0,0.0,60,0,0.0,0.0,337.4,60,0,342.9,323.3,0,0,0,28.1,60,0,10.2,60,0,10.4,10.1,7.4,60,0,7.6,7.1,3.9,60,0,4.6,3.0,64.6,60,0,69.0,60.0,28.1,60,0,39.0,18.0,239,0.0,1021.4,60,0,1021.4,0,1007.1,60,0,46.2,60,0
86282,2023-08-01 00:00:00,0.0,60,0,0.0,0.0,0.0,60,0,0.0,0.0,0.0,60,0,0.0,0.0,0.0,60,0,0.0,0.0,337.4,60,0,342.9,323.3,0,0,0,28.1,60,0,10.2,60,0,10.4,10.1,7.4,60,0,7.6,7.1,3.9,60,0,4.6,3.0,64.6,60,0,69.0,60.0,28.1,60,0,39.0,18.0,239,0.0,1021.4,60,0,1021.4,0,1007.1,60,0,46.2,60,0
86282,2023-08-16 00:00:00,0.0,60,0,0.0,0.0,0.0,60,0,0.0,0.0,0.0,60,0,0.0,0.0,0.0,60,0,0.0,0.0,337.4,60,0,342.9,323.3,0,0,0,28.1,60,0,10.2,60,0,10.4,10.1,7.4,60,0,7.6,7.1,3.9,60,0,4.6,3.0,64.6,60,0,69.0,60.0,28.1,60,0,39.0,18.0,239,0.0,1021.4,60,0,1021.4,0,1007.1,60,0,46.2,60,0
86282,2023-08-31 00:00:00,0.0,60,0,0.0,0.0,0.0,60,0,0.0,0.0,0.0,60,0,0.0,0.0,0.0,60,0,0.0,0.0,337.4,60,0,342.9,323.3,0,0,0,28.1,60,0,10.2,60,0,10.4,10.1,7.4,60,0,7.6,7.1,3.9,60,0,4.6,3.0,64.6,60,0,69.0,60.0,28.1,60,0,39.0,18.0,239,0.0,1021.4,60,0,1021.4,0,1007.1,60,0,46.2,60,0
86282,2023-09-15 00:00:00,0.0,60,0,0.0,0.0,0.0,60,0,0.0,0.0,0.0,60,0,0.0,0.0,0.0,60,0,0.0,0.0,337.4,60,0,342.9,323.3,0,0,0,28.1,60,0,10.2,60,0,10.4,10.1,7.4,60,0,7.6,7.1,3.9,60,0,4.6,3.0,64.6,60,0,69.0,60.0,28.1,60,0,39.0,18.0,239,0.0,1021.4,60,0,1021.4,0,1007.1,60,0,46.2,60,0
86282,2023-09-30 00:00:00,0.0,60,0,0.0,0.0,0.0,60,0,0.0,0.0,0.0,60,0,0.0,0.0,0.0,60,0,0.0,0.0,337.4,60,0,342.9,323.3,0,0,0,28.1,60,0,10.2,60,0,10.4,10.1,7.4,60,0,7.6,7.1,3.9,60,0,4.6,3.0,64.6,60,0,69.0,60.0,28.1,60,0,39.0,18.0,239,0.0,1021.4,60,0,1021.4,0,1007.1,60,0,46.2,60,0
86282,2023-10-15 00:00:00,0.0,60,0,0.0,0.0,0.0,60,0,0.0,0.0,0.0,60,0,0.0,0.0,0.0,60,0,0.0,0.0,337.4,60,0,342.9,323.3,0,0,0,28.1,60,0,10.2,60,0,10.4,10.1,7.4,60,0,7.6,7.1,3.9,60,0,4.6,3.0,64.6,60,0,69.0,60.0,28.1,60,0,39.0,18.0,239,0.0,1021.4,60,0,1021.4,0,1007.1,60,0,46.2,60,0
86282,2023-10-30 00:00:00,0.0,60,0,0.0,0.0,0.0,60,0,0.0,0.0,0.0,60,0,0.0,0.0,0.0,60,0,0.0,0.0,337.4,60,0,342.9,323.3,0,0,0,28.1,60,0,10.2,60,0,10.4,10.1,7.4,60,0,7.6,7.1,3.9,60,0,4.6,3.0,64.6,60,0,69.0,60.0,28.1,60,0,39.0,18.0,239,0.0,1021.4,60,0,1021.4,0,1007.1,60,0,46.2,60,0
86282,2023-11-14 00:00:00,0.0,60,0,0.0,0.0,0.0,60,0,0.0,0.0,0.0,60,0,0.0,0.0,0.0,60,0,0.0,0.0,337.4,60,0,342.9,323.3,0,0,0,28.1,60,0,10.2,60,0,10.4,10.1,7.4,60,0,7.6,7.1,3.9,60,0,4.6,3.0,64.6,60,0,69.0,60.0,28.1,60,0,39.0,18.0,239,0.0,1021.4,60,0,1021.4,0,1007.1,60,0,46.2,60,0
86282,2023-11-29 00:00:00,0.0,60,0,0.0,0.0,0.0,60,0,0.0,0.0,0.0,60,0,0.0,0.0,0.0,60,0,0.0,0.0,337.4,60,0,342.9,323.3,0,0,0,28.1,60,0,10.2,60,0,10.4,10.1,7.4,60,0,7.6,7.1,3.9,60,0,4.6,3.0,64.6,60,0,69.0,60.0,28.1,60,0,39.0,18.0,239,0.0,1021.4,60,0,1021.4,0,1007.1,60,0,46.2,60,0
86282,2023-12-14 00:00:00,0.0,60,0,0.0,0.0,0.0,60,0,0.0,0.0,0.0,60,0,0.0,0.0,0.0,60,0,0.0,0.0,337.4,60,0,342.9,323.3,0,0,0,28.1,60,0,10.2,60,0,10.4,10.1,7.4,60,0,7.6,7.1,3.9,60,0,4.6,3.0,64.6,60,0,69.0,60.0,28.1,60,0,39.0,18.0,239,0.0,1021.4,60,0,1021.4,0,1007.1,60,0,46.2,60,0
86282,2023-12-29 00:00:00,0.0,60,0,0.0,0.0,0.0,60,0,0.0,0.0,0.0,60,0,0.0,0.0,0.0,60,0,0.0,0.0,337.4,60,0,342.9,323.3,0,0,0,28.1,60,0,10.2,60,0,10.4,10.1,7.4,60,0,7.6,7.1,3.9,60,0,4.6,3.0,64.6,60,0,69.0,60.0,28.1,60,0,39.0,18.0,239,0.0,1021.4,60,0,1021.4,0,1007.1,60,0,46.2,60,0
86282,2024-01-13 00:00:00,0.0,60,0,0.0,0.0,0.0,60,0,0.0,0.0,0.0,60,0,0.0,0.0,0.0,60,0,0.0,0.0,337.4,60,0,342.9,323.3,0,0,0,28.1,60,0,10.2,60,0,10.4,10.1,7.4,60,0,7.6,7.1,3.9,60,0,4.6,3.0,64.6,60,0,69.0,60.0,28.1,60,0,39.0,18.0,239,0.0,1021.4,60,0,1021.4,0,1007.1,60,0,46.2,60,0
86282,2024-01-28 00:00:00,0.0,60,0,0.0,0.0,0.0,60,0,0.0,0.0,0.0,60,0,0.0,0.0,0.0,60,0,0.0,0.0,337.4,60,0,342.9,323.3,0,0,0,28.1,60,0,10.2,60,0,10.4,10.1,7.4,60,0,7.6,7.1,3.9,60,0,4.6,3.0,64.6,60,0,69.0,60.0,28.1,60,0,39.0,18.0,239,0.0,1021.4,60,0,1021.4,0,1007.1,60,0,46.2,60,0
86282,2024-03-13 00:00:00,0.0,60,0,0.0,0.0,0.0,60,0,0.0,0.0,0.0,60,0,0.0,0.0,0.0,60,0,0.0,0.0,337.4,60,0,342.9,323.3,0,0,0,28.1,60,0,10.2,60,0,10.4,10.1,7.4,60,0,7.6,7.1,3.9,60,0,4.6,3.0,64.6,60,0,69.0,60.0,28.1,60,0,39.0,18.0,239,0.0,1021.4,60,0,1021.4,0,1007.1,60,0,46.2,60,0
86282,2024-03-28 00:00:00,0.0,60,0,0.0,0.0,0.0,60,0,0.0,0.0,0.0,60,0,0.0,0.0,0.0,60,0,0.0,0.0,337.4,60,0,342.9,323.3,0,0,0,28.1,60,0,10.2,60,0,10.4,10.1,7.4,60,0,7.6,7.1,3.9,60,0,4.6,3.0,64.6,60,0,69.0,60.0,28.1,60,0,39.0,18.0,239,0.0,1021.4,60,0,1021.4,0,1007.1,60,0,46.2,60,0
86282,2024-04-12 00:00:00,0.0,60,0,0.0,0.0,0.0,60,0,0.0,0.0,0.0,60,0,0.0,0.0,0.0,60,0,0.0,0.0,337.4,60,0,342.9,323.3,0,0,0,28.1,60,0,10.2,60,0,10.4,10.1,7.4,60,0,7.6,7.1,3.9,60,0,4.6,3.0,64.6,60,0,69.0,60.0,28.1,60,0,39.0,18.0,239,0.0,1021.4,60,0,1021.4,0,1007.1,60,0,46.2,60,0
86282,2024-04-27 00:00:00,0.0,60,0,0.0,0.0,0.0,60,0,0.0,0.0,0.0,60,0,0.0,0.0,0.0,60,0,0.0,0.0,337.4,60,0,342.9,323.3,0,0,0,28.1,60,0,10.2,60,0,10.4,10.1,7.4,60,0,7.6,7.1,3.9,60,0,4.6,3.0,64.6,60,0,69.0,60.0,28.1,60,0,39.0,18.0,239,0.0,1021.4,60,0,1021.4,0,1007.1,60,0,46.2,60,0
