station,local time,ghi mean,ghi count,ghi fill count,ghi max,ghi min,dni mean,dni count,dni fill count,dni max,dni min,dhi mean,dhi count,dhi fill count,dhi max,dhi min,diffuse mean,diffuse count,diffuse fill count,diffuse max,diffuse min,terrestrial mean,terrestrial count,terrestrial fill count,terrestrial max,terrestrial min,seconds dni exceeding 120 W/sq m,seconds dni exceeding 144 W/sq m,seconds dni exceeding 96 W/sq m,zenith mean,zenith count,zenith fill count,air temp mean,air temp count,air temp fill count,air temp max,air temp min,wet bulb mean,wet bulb count,wet bulb fill count,wet bulb max,wet bulb min,dew point mean,dew point count,dew point fill count,dew point max,dew point min,relative humidity mean,relative humidity count,relative humidity fill count,relative humidity max,relative humidity min,wind speed mean,wind speed count,wind speed fill count,wind speed max,wind speed min,wind direction,precipitation,msl pressure mean,msl pressure count,msl pressure fill count,qnh pressure mean,qnh pressure fill count,station level pressure mean,station level pressure count,station level pressure fill count,visibility mean,visibility count,visibility fill count
86282,2012-01-01 12:00:00,0,60,0,0.0,0.0,0.0,60,0,0.0,0.0,0.0,60,0,0.0,0.0,0.0,60,0,0.0,0.0,337.4,60,0,342.9,323.3,0,0,0,28.1,60,0,10.2,60,0,10.4,10.1,7.4,60,0,7.6,7.1,3.9,60,0,4.6,3.0,64.6,60,0,69.0,60.0,28.1,60,0,39.0,18.0,239,0.0,1021.4,60,0,1021.4,0,1007.1,60,0,46.2,60,0
86282,2012-01-02 00:00:00,10,60,0,0.0,0.0,0.0,60,0,0.0,0.0,0.0,60,0,0.0,0.0,0.0,60,0,0.0,0.0,337.4,60,0,342.9,323.3,0,0,0,28.1,60,0,10.2,60,0,10.4,10.1,7.4,60,0,7.6,7.1,3.9,60,0,4.6,3.0,64.6,60,0,69.0,60.0,28.1,60,0,39.0,18.0,239,0.0,1021.4,60,0,1021.4,0,1007.1,60,0,46.2,60,0
86282,2012-01-02 12:00:00,20,60,0,0.0,0.0,0.0,60,0,0.0,0.0,0.0,60,0,0.0,0.0,0.0,60,0,0.0,0.0,337.4,60,0,342.9,323.3,0,0,0,28.1,60,0,10.2,60,0,10.4,10.1,7.4,60,0,7.6,7.1,3.9,60,0,4.6,3.0,64.6,60,0,69.0,60.0,28.1,60,0,39.0,18.0,239,0.0,1021.4,60,0,1021.4,0,1007.1,60,0,46.2,60,0
86282,2012-01-03 00:00:00,30,60,0,0.0,0.0,0.0,60,0,0.0,0.0,0.0,60,0,0.0,0.0,0.0,60,0,0.0,0.0,337.4,60,0,342.9,323.3,0,0,0,28.1,60,0,10.2,60,0,10.4,10.1,7.4,60,0,7.6,7.1,3.9,60,0,4.6,3.0,64.6,60,0,69.0,60.0,28.1,60,0,39.0,18.0,239,0.0,1021.4,60,0,1021.4,0,1007.1,60,0,46.2,60,0
86282,2012-01-03 12:00:00,40,60,0,0.0,0.0,0.0,60,0,0.0,0.0,0.0,60,0,0.0,0.0,0.0,60,0,0.0,0.0,337.4,60,0,342.9,323.3,0,0,0,28.1,60,0,10.2,60,0,10.4,10.1,7.4,60,0,7.6,7.1,3.9,60,0,4.6,3.0,64.6,60,0,69.0,60.0,28.1,60,0,39.0,18.0,239,0.0,1021.4,60,0,1021.4,0,1007.1,60,0,46.2,60,0
86282,2012-01-04 00:00:00,50,60,0,0.0,0.0,0.0,60,0,0.0,0.0,0.0,60,0,0.0,0.0,0.0,60,0,0.0,0.0,337.4,60,0,342.9,323.3,0,0,0,28.1,60,0,10.2,60,0,10.4,10.1,7.4,60,0,7.6,7.1,3.9,60,0,4.6,3.0,64.6,60,0,69.0,60.0,28.1,60,0,39.0,18.0,239,0.0,1021.4,60,0,1021.4,0,1007.1,60,0,46.2,60,0
86282,2012-01-04 12:00:00,60,60,0,0.0,0.0,0.0,60,0,0.0,0.0,0.0,60,0,0.0,0.0,0.0,60,0,0.0,0.0,337.4,60,0,342.9,323.3,0,0,0,28.1,60,0,10.2,60,0,10.4,10.1,7.4,60,0,7.6,7.1,3.9,60,0,4.6,3.0,64.6,60,0,69.0,60.0,28.1,60,0,39.0,18.0,239,0.0,1021.4,60,0,1021.4,0,1007.1,60,0,46.2,60,0
86282,2012-01-05 00:00:00,70,60,0,0.0,0.0,0.0,60,0,0.0,0.0,0.0,60,0,0.0,0.0,0.0,60,0,0.0,0.0,337.4,60,0,342.9,323.3,0,0,0,28.1,60,0,10.2,60,0,10.4,10.1,7.4,60,0,7.6,7.1,3.9,60,0,4.6,3.0,64.6,60,0,69.0,60.0,28.1,60,0,39.0,18.0,239,0.0,1021.4,60,0,1021.4,0,1007.1,60,0,46.2,60,0
86282,2012-01-05 12:00:00,80,60,0,0.0,0.0,0.0,60,0,0.0,0.0,0.0,60,0,0.0,0.0,0.0,60,0,0.0,0.0,337.4,60,0,342.9,323.3,0,0,0,28.1,60,0,10.2,60,0,10.4,10.1,7.4,60,0,7.6,7.1,3.9,60,0,4.6,3.0,64.6,60,0,69.0,60.0,28.1,60,0,39.0,18.0,239,0.0,1021.4,60,0,1021.4,0,1007.1,60,0,46.2,60,0
86282,2012-01-06 00:00:00,90,60,0,0.0,0.0,0.0,60,0,0.0,0.0,0.0,60,0,0.0,0.0,0.0,60,0,0.0,0.0,337.4,60,0,342.9,323.3,0,0,0,28.1,60,0,10.2,60,0,10.4,10.1,7.4,60,0,7.6,7.1,3.9,60,0,4.6,3.0,64.6,60,0,69.0,60.0,28.1,60,0,39.0,18.0,239,0.0,1021.4,60,0,1021.4,0,1007.1,60,0,46.2,60,0
86282,2012-01-06 12:00:00,100,60,0,0.0,0.0,0.0,60,0,0.0,0.0,0.0,60,0,0.0,0.0,0.0,60,0,0.0,0.0,337.4,60,0,342.9,323.3,0,0,0,28.1,60,0,10.2,60,0,10.4,10.1,7.4,60,0,7.6,7.1,3.9,60,0,4.6,3.0,64.6,60,0,69.0,60.0,28.1,60,0,39.0,18.0,239,0.0,1021.4,60,0,1021.4,0,1007.1,60,0,46.2,60,0
86282,2012-01-07 00:00:00,110,60,0,0.0,0.0,0.0,60,0,0.0,0.0,0.0,60,0,0.0,0.0,0.0,60,0,0.0,0.0,337.4,60,0,342.9,323.3,0,0,0,28.1,60,0,10.2,60,0,10.4,10.1,7.4,60,0,7.6,7.1,3.9,60,0,4.6,3.0,64.6,60,0,69.0,60.0,28.1,60,0,39.0,18.0,239,0.0,1021.4,60,0,1021.4,0,1007.1,60,0,46.2,60,0
86282,2012-01-07 12:00:00,120,60,0,0.0,0.0,0.0,60,0,0.0,0.0,0.0,60,0,0.0,0.0,0.0,60,0,0.0,0.0,337.4,60,0,342.9,323.3,0,0,0,28.1,60,0,10.2,60,0,10.4,10.1,7.4,60,0,7.6,7.1,3.9,60,0,4.6,3.0,64.6,60,0,69.0,60.0,28.1,60,0,39.0,18.0,239,0.0,1021.4,60,0,1021.4,0,1007.1,60,0,46.2,60,0
86282,2012-01-08 00:00:00,130,60,0,0.0,0.0,0.0,60,0,0.0,0.0,0.0,60,0,0.0,0.0,0.0,60,0,0.0,0.0,337.4,60,0,342.9,323.3,0,0,0,28.1,60,0,10.2,60,0,10.4,10.1,7.4,60,0,7.6,7.1,3.9,60,0,4.6,3.0,64.6,60,0,69.0,60.0,28.1,60,0,39.0,18.0,239,0.0,1021.4,60,0,1021.4,0,1007.1,60,0,46.2,60,0
86282,2012-01-08 12:00:00,140,60,0,0.0,0.0,0.0,60,0,0.0,0.0,0.0,60,0,0.0,0.0,0.0,60,0,0.0,0.0,337.4,60,0,342.9,323.3,0,0,0,28.1,60,0,10.2,60,0,10.4,10.1,7.4,60,0,7.6,7.1,3.9,60,0,4.6,3.0,64.6,60,0,69.0,60.0,28.1,60,0,39.0,18.0,239,0.0,1021.4,60,0,1021.4,0,1007.1,60,0,46.2,60,0
86282,2012-01-09 00:00:00,150,60,0,0.0,0.0,0.0,60,0,0.0,0.0,0.0,60,0,0.0,0.0,0.0,60,0,0.0,0.0,337.4,60,0,342.9,323.3,0,0,0,28.1,60,0,10.2,60,0,10.4,10.1,7.4,60,0,7.6,7.1,3.9,60,0,4.6,3.0,64.6,60,0,69.0,60.0,28.1,60,0,39.0,18.0,239,0.0,1021.4,60,0,1021.4,0,1007.1,60,0,46.2,60,0
86282,2012-01-09 12:00:00,160,60,0,0.0,0.0,0.0,60,0,0.0,0.0,0.0,60,0,0.0,0.0,0.0,60,0,0.0,0.0,337.4,60,0,342.9,323.3,0,0,0,28.1,60,0,10.2,60,0,10.4,10.1,7.4,60,0,7.6,7.1,3.9,60,0,4.6,3.0,64.6,60,0,69.0,60.0,28.1,60,0,39.0,18.0,239,0.0,1021.4,60,0,1021.4,0,1007.1,60,0,46.2,60,0
86282,2012-01-10 00:00:00,170,60,0,0.0,0.0,0.0,60,0,0.0,0.0,0.0,60,0,0.0,0.0,0.0,60,0,0.0,0.0,337.4,60,0,342.9,323.3,0,0,0,28.1,60,0,10.2,60,0,10.4,10.1,7.4,60,0,7.6,7.1,3.9,60,0,4.6,3.0,64.6,60,0,69.0,60.0,28.1,60,0,39.0,18.0,239,0.0,1021.4,60,0,1021.4,0,1007.1,60,0,46.2,60,0
86282,2012-01-10 12:00:00,180,60,0,0.0,0.0,0.0,60,0,0.0,0.0,0.0,60,0,0.0,0.0,0.0,60,0,0.0,0.0,337.4,60,0,342.9,323.3,0,0,0,28.1,60,0,10.2,60,0,10.4,10.1,7.4,60,0,7.6,7.1,3.9,60,0,4.6,3.0,64.6,60,0,69.0,60.0,28.1,60,0,39.0,18.0,239,0.0,1021.4,60,0,1021.4,0,1007.1,60,0,46.2,60,0
86282,2012-01-11 00:00:00,190,60,0,0.0,0.0,0.0,60,0,0.0,0.0,0.0,60,0,0.0,0.0,0.0,60,0,0.0,0.0,337.4,60,0,342.9,323.3,0,0,0,28.1,60,0,10.2,60,0,10.4,10.1,7.4,60,0,7.6,7.1,3.9,60,0,4.6,3.0,64.6,60,0,69.0,60.0,28.1,60,0,39.0,18.0,239,0.0,1021.4,60,0,1021.4,0,1007.1,60,0,46.2,60,0
86282,2012-01-11 12:00:00,200,60,0,0.0,0.0,0.0,60,0,0.0,0.0,0.0,60,0,0.0,0.0,0.0,60,0,0.0,0.0,337.4,60,0,342.9,323.3,0,0,0,28.1,60,0,10.2,60,0,10.4,10.1,7.4,60,0,7.6,7.1,3.9,60,0,4.6,3.0,64.6,60,0,69.0,60.0,28.1,60,0,39.0,18.0,239,0.0,1021.4,60,0,1021.4,0,1007.1,60,0,46.2,60,0
86282,2012-01-12 00:00:00,210,60,0,0.0,0.0,0.0,60,0,0.0,0.0,0.0,60,0,0.0,0.0,0.0,60,0,0.0,0.0,337.4,60,0,342.9,323.3,0,0,0,28.1,60,0,10.2,60,0,10.4,10.1,7.4,60,0,7.6,7.1,3.9,60,0,4.6,3.0,64.6,60,0,69.0,60.0,28.1,60,0,39.0,18.0,239,0.0,1021.4,60,0,1021.4,0,1007.1,60,0,46.2,60,0
86282,2012-01-12 12:00:00,220,60,0,0.0,0.0,0.0,60,0,0.0,0.0,0.0,60,0,0.0,0.0,0.0,60,0,0.0,0.0,337.4,60,0,342.9,323.3,0,0,0,28.1,60,0,10.2,60,0,10.4,10.1,7.4,60,0,7.6,7.1,3.9,60,0,4.6,3.0,64.6,60,0,69.0,60.0,28.1,60,0,39.0,18.0,239,0.0,1021.4,60,0,1021.4,0,1007.1,60,0,46.2,60,0
86282,2012-01-13 00:00:00,230,60,0,0.0,0.0,0.0,60,0,0.0,0.0,0.0,60,0,0.0,0.0,0.0,60,0,0.0,0.0,337.4,60,0,342.9,323.3,0,0,0,28.1,60,0,10.2,60,0,10.4,10.1,7.4,60,0,7.6,7.1,3.9,60,0,4.6,3.0,64.6,60,0,69.0,60.0,28.1,60,0,39.0,18.0,239,0.0,1021.4,60,0,1021.4,0,1007.1,60,0,46.2,60,0
86282,2012-01-13 12:00:00,240,60,0,0.0,0.0,0.0,60,0,0.0,0.0,0.0,60,0,0.0,0.0,0.0,60,0,0.0,0.0,337.4,60,0,342.9,323.3,0,0,0,28.1,60,0,10.2,60,0,10.4,10.1,7.4,60,0,7.6,7.1,3.9,60,0,4.6,3.0,64.6,60,0,69.0,60.0,28.1,60,0,39.0,18.0,239,0.0,1021.4,60,0,1021.4,0,1007.1,60,0,46.2,60,0
86282,2012-01-14 00:00:00,250,60,0,0.0,0.0,0.0,60,0,0.0,0.0,0.0,60,0,0.0,0.0,0.0,60,0,0.0,0.0,337.4,60,0,342.9,323.3,0,0,0,28.1,60,0,10.2,60,0,10.4,10.1,7.4,60,0,7.6,7.1,3.9,60,0,4.6,3.0,64.6,60,0,69.0,60.0,28.1,60,0,39.0,18.0,239,0.0,1021.4,60,0,1021.4,0,1007.1,60,0,46.2,60,0
86282,2012-01-14 12:00:00,260,60,0,0.0,0.0,0.0,60,0,0.0,0.0,0.0,60,0,0.0,0.0,0.0,60,0,0.0,0.0,337.4,60,0,342.9,323.3,0,0,0,28.1,60,0,10.2,60,0,10.4,10.1,7.4,60,0,7.6,7.1,3.9,60,0,4.6,3.0,64.6,60,0,69.0,60.0,28.1,60,0,39.0,18.0,239,0.0,1021.4,60,0,1021.4,0,1007.1,60,0,46.2,60,0
86282,2012-01-15 00:00:00,270,60,0,0.0,0.0,0.0,60,0,0.0,0.0,0.0,60,0,0.0,0.0,0.0,60,0,0.0,0.0,337.4,60,0,342.9,323.3,0,0,0,28.1,60,0,10.2,60,0,10.4,10.1,7.4,60,0,7.6,7.1,3.9,60,0,4.6,3.0,64.6,60,0,69.0,60.0,28.1,60,0,39.0,18.0,239,0.0,1021.4,60,0,1021.4,0,1007.1,60,0,46.2,60,0
86282,2012-01-15 12:00:00,280,60,0,0.0,0.0,0.0,60,0,0.0,0.0,0.0,60,0,0.0,0.0,0.0,60,0,0.0,0.0,337.4,60,0,342.9,323.3,0,0,0,28.1,60,0,10.2,60,0,10.4,10.1,7.4,60,0,7.6,7.1,3.9,60,0,4.6,3.0,64.6,60,0,69.0,60.0,28.1,60,0,39.0,18.0,239,0.0,1021.4,60,0,1021.4,0,1007.1,60,0,46.2,60,0
86282,2012-01-16 00:00:00,290,60,0,0.0,0.0,0.0,60,0,0.0,0.0,0.0,60,0,0.0,0.0,0.0,60,0,0.0,0.0,337.4,60,0,342.9,323.3,0,0,0,28.1,60,0,10.2,60,0,10.4,10.1,7.4,60,0,7.6,7.1,3.9,60,0,4.6,3.0,64.6,60,0,69.0,60.0,28.1,60,0,39.0,18.0,239,0.0,1021.4,60,0,1021.4,0,1007.1,60,0,46.2,60,0
86282,2012-01-16 12:00:00,300,60,0,0.0,0.0,0.0,60,0,0.0,0.0,0.0,60,0,0.0,0.0,0.0,60,0,0.0,0.0,337.4,60,0,342.9,323.3,0,0,0,28.1,60,0,10.2,60,0,10.4,10.1,7.4,60,0,7.6,7.1,3.9,60,0,4.6,3.0,64.6,60,0,69.0,60.0,28.1,60,0,39.0,18.0,239,0.0,1021.4,60,0,1021.4,0,1007.1,60,0,46.2,60,0
86282,2012-01-17 00:00:00,310,60,0,0.0,0.0,0.0,60,0,0.0,0.0,0.0,60,0,0.0,0.0,0.0,60,0,0.0,0.0,337.4,60,0,342.9,323.3,0,0,0,28.1,60,0,10.2,60,0,10.4,10.1,7.4,60,0,7.6,7.1,3.9,60,0,4.6,3.0,64.6,60,0,69.0,60.0,28.1,60,0,39.0,18.0,239,0.0,1021.4,60,0,1021.4,0,1007.1,60,0,46.2,60,0
86282,2012-01-17 12:00:00,320,60,0,0.0,0.0,0.0,60,0,0.0,0.0,0.0,60,0,0.0,0.0,0.0,60,0,0.0,0.0,337.4,60,0,342.9,323.3,0,0,0,28.1,60,0,10.2,60,0,10.4,10.1,7.4,60,0,7.6,7.1,3.9,60,0,4.6,3.0,64.6,60,0,69.0,60.0,28.1,60,0,39.0,18.0,239,0.0,1021.4,60,0,1021.4,0,1007.1,60,0,46.2,60,0
86282,2012-01-18 00:00:00,330,60,0,0.0,0.0,0.0,60,0,0.0,0.0,0.0,60,0,0.0,0.0,0.0,60,0,0.0,0.0,337.4,60,0,342.9,323.3,0,0,0,28.1,60,0,10.2,60,0,10.4,10.1,7.4,60,0,7.6,7.1,3.9,60,0,4.6,3.0,64.6,60,0,69.0,60.0,28.1,60,0,39.0,18.0,239,0.0,1021.4,60,0,1021.4,0,1007.1,60,0,46.2,60,0
86282,2012-01-18 12:00:00,340,60,0,0.0,0.0,0.0,60,0,0.0,0.0,0.0,60,0,0.0,0.0,0.0,60,0,0.0,0.0,337.4,60,0,342.9,323.3,0,0,0,28.1,60,0,10.2,60,0,10.4,10.1,7.4,60,0,7.6,7.1,3.9,60,0,4.6,3.0,64.6,60,0,69.0,60.0,28.1,60,0,39.0,18.0,239,0.0,1021.4,60,0,1021.4,0,1007.1,60,0,46.2,60,0
86282,2012-01-19 00:00:00,350,60,0,0.0,0.0,0.0,60,0,0.0,0.0,0.0,60,0,0.0,0.0,0.0,60,0,0.0,0.0,337.4,60,0,342.9,323.3,0,0,0,28.1,60,0,10.2,60,0,10.4,10.1,7.4,60,0,7.6,7.1,3.9,60,0,4.6,3.0,64.6,60,0,69.0,60.0,28.1,60,0,39.0,18.0,239,0.0,1021.4,60,0,1021.4,0,1007.1,60,0,46.2,60,0
86282,2012-01-19 12:00:00,360,60,0,0.0,0.0,0.0,60,0,0.0,0.0,0.0,60,0,0.0,0.0,0.0,60,0,0.0,0.0,337.4,60,0,342.9,323.3,0,0,0,28.1,60,0,10.2,60,0,10.4,10.1,7.4,60,0,7.6,7.1,3.9,60,0,4.6,3.0,64.6,60,0,69.0,60.0,28.1,60,0,39.0,18.0,239,0.0,1021.4,60,0,1021.4,0,1007.1,60,0,46.2,60,0
86282,2012-01-20 00:00:00,370,60,0,0.0,0.0,0.0,60,0,0.0,0.0,0.0,60,0,0.0,0.0,0.0,60,0,0.0,0.0,337.4,60,0,342.9,323.3,0,0,0,28.1,60,0,10.2,60,0,10.4,10.1,7.4,60,0,7.6,7.1,3.9,60,0,4.6,3.0,64.6,60,0,69.0,60.0,28.1,60,0,39.0,18.0,239,0.0,1021.4,60,0,1021.4,0,1007.1,60,0,46.2,60,0
86282,2012-01-20 12:00:00,380,60,0,0.0,0.0,0.0,60,0,0.0,0.0,0.0,60,0,0.0,0.0,0.0,60,0,0.0,0.0,337.4,60,0,342.9,323.3,0,0,0,28.1,60,0,10.2,60,0,10.4,10.1,7.4,60,0,7.6,7.1,3.9,60,0,4.6,3.0,64.6,60,0,69.0,60.0,28.1,60,0,39.0,18.0,239,0.0,1021.4,60,0,1021.4,0,1007.1,60,0,46.2,60,0
86282,2012-01-21 00:00:00,390,60,0,0.0,0.0,0.0,60,0,0.0,0.0,0.0,60,0,0.0,0.0,0.0,60,0,0.0,0.0,337.4,60,0,342.9,323.3,0,0,0,28.1,60,0,10.2,60,0,10.4,10.1,7.4,60,0,7.6,7.1,3.9,60,0,4.6,3.0,64.6,60,0,69.0,60.0,28.1,60,0,39.0,18.0,239,0.0,1021.4,60,0,1021.4,0,1007.1,60,0,46.2,60,0
86282,2012-01-21 12:00:00,400,60,0,0.0,0.0,0.0,60,0,0.0,0.0,0.0,60,0,0.0,0.0,0.0,60,0,0.0,0.0,337.4,60,0,342.9,323.3,0,0,0,28.1,60,0,10.2,60,0,10.4,10.1,7.4,60,0,7.6,7.1,3.9,60,0,4.6,3.0,64.6,60,0,69.0,60.0,28.1,60,0,39.0,18.0,239,0.0,1021.4,60,0,1021.4,0,1007.1,60,0,46.2,60,0
86282,2012-01-22 00:00:00,410,60,0,0.0,0.0,0.0,60,0,0.0,0.0,0.0,60,0,0.0,0.0,0.0,60,0,0.0,0.0,337.4,60,0,342.9,323.3,0,0,0,28.1,60,0,10.2,60,0,10.4,10.1,7.4,60,0,7.6,7.1,3.9,60,0,4.6,3.0,64.6,60,0,69.0,60.0,28.1,60,0,39.0,18.0,239,0.0,1021.4,60,0,1021.4,0,1007.1,60,0,46.2,60,0
86282,2012-01-22 12:00:00,420,60,0,0.0,0.0,0.0,60,0,0.0,0.0,0.0,60,0,0.0,0.0,0.0,60,0,0.0,0.0,337.4,60,0,342.9,323.3,0,0,0,28.1,60,0,10.2,60,0,10.4,10.1,7.4,60,0,7.6,7.1,3.9,60,0,4.6,3.0,64.6,60,0,69.0,60.0,28.1,60,0,39.0,18.0,239,0.0,1021.4,60,0,1021.4,0,1007.1,60,0,46.2,60,0
86282,2012-01-23 00:00:00,430,60,0,0.0,0.0,0.0,60,0,0.0,0.0,0.0,60,0,0.0,0.0,0.0,60,0,0.0,0.0,337.4,60,0,342.9,323.3,0,0,0,28.1,60,0,10.2,60,0,10.4,10.1,7.4,60,0,7.6,7.1,3.9,60,0,4.6,3.0,64.6,60,0,69.0,60.0,28.1,60,0,39.0,18.0,239,0.0,1021.4,60,0,1021.4,0,1007.1,60,0,46.2,60,0
86282,2012-01-23 12:00:00,440,60,0,0.0,0.0,0.0,60,0,0.0,0.0,0.0,60,0,0.0,0.0,0.0,60,0,0.0,0.0,337.4,60,0,342.9,323.3,0,0,0,28.1,60,0,10.2,60,0,10.4,10.1,7.4,60,0,7.6,7.1,3.9,60,0,4.6,3.0,64.6,60,0,69.0,60.0,28.1,60,0,39.0,18.0,239,0.0,1021.4,60,0,1021.4,0,1007.1,60,0,46.2,60,0
86282,2012-01-24 00:00:00,450,60,0,0.0,0.0,0.0,60,0,0.0,0.0,0.0,60,0,0.0,0.0,0.0,60,0,0.0,0.0,337.4,60,0,342.9,323.3,0,0,0,28.1,60,0,10.2,60,0,10.4,10.1,7.4,60,0,7.6,7.1,3.9,60,0,4.6,3.0,64.6,60,0,69.0,60.0,28.1,60,0,39.0,18.0,239,0.0,1021.4,60,0,1021.4,0,1007.1,60,0,46.2,60,0
86282,2012-01-24 12:00:00,460,60,0,0.0,0.0,0.0,60,0,0.0,0.0,0.0,60,0,0.0,0.0,0.0,60,0,0.0,0.0,337.4,60,0,342.9,323.3,0,0,0,28.1,60,0,10.2,60,0,10.4,10.1,7.4,60,0,7.6,7.1,3.9,60,0,4.6,3.0,64.6,60,0,69.0,60.0,28.1,60,0,39.0,18.0,239,0.0,1021.4,60,0,1021.4,0,1007.1,60,0,46.2,60,0
86282,2012-01-25 00:00:00,470,60,0,0.0,0.0,0.0,60,0,0.0,0.0,0.0,60,0,0.0,0.0,0.0,60,0,0.0,0.0,337.4,60,0,342.9,323.3,0,0,0,28.1,60,0,10.2,60,0,10.4,10.1,7.4,60,0,7.6,7.1,3.9,60,0,4.6,3.0,64.6,60,0,69.0,60.0,28.1,60,0,39.0,18.0,239,0.0,1021.4,60,0,1021.4,0,1007.1,60,0,46.2,60,0
86282,2012-01-25 12:00:00,480,60,0,0.0,0.0,0.0,60,0,0.0,0.0,0.0,60,0,0.0,0.0,0.0,60,0,0.0,0.0,337.4,60,0,342.9,323.3,0,0,0,28.1,60,0,10.2,60,0,10.4,10.1,7.4,60,0,7.6,7.1,3.9,60,0,4.6,3.0,64.6,60,0,69.0,60.0,28.1,60,0,39.0,18.0,239,0.0,1021.4,60,0,1021.4,0,1007.1,60,0,46.2,60,0
86282,2012-01-26 00:00:00,490,60,0,0.0,0.0,0.0,60,0,0.0,0.0,0.0,60,0,0.0,0.0,0.0,60,0,0.0,0.0,337.4,60,0,342.9,323.3,0,0,0,28.1,60,0,10.2,60,0,10.4,10.1,7.4,60,0,7.6,7.1,3.9,60,0,4.6,3.0,64.6,60,0,69.0,60.0,28.1,60,0,39.0,18.0,239,0.0,1021.4,60,0,1021.4,0,1007.1,60,0,46.2,60,0
86282,2012-01-26 12:00:00,500,60,0,0.0,0.0,0.0,60,0,0.0,0.0,0.0,60,0,0.0,0.0,0.0,60,0,0.0,0.0,337.4,60,0,342.9,323.3,0,0,0,28.1,60,0,10.2,60,0,10.4,10.1,7.4,60,0,7.6,7.1,3.9,60,0,4.6,3.0,64.6,60,0,69.0,60.0,28.1,60,0,39.0,18.0,239,0.0,1021.4,60,0,1021.4,0,1007.1,60,0,46.2,60,0
86282,2012-01-27 00:00:00,510,60,0,0.0,0.0,0.0,60,0,0.0,0.0,0.0,60,0,0.0,0.0,0.0,60,0,0.0,0.0,337.4,60,0,342.9,323.3,0,0,0,28.1,60,0,10.2,60,0,10.4,10.1,7.4,60,0,7.6,7.1,3.9,60,0,4.6,3.0,64.6,60,0,69.0,60.0,28.1,60,0,39.0,18.0,239,0.0,1021.4,60,0,1021.4,0,1007.1,60,0,46.2,60,0
86282,2012-01-27 12:00:00,520,60,0,0.0,0.0,0.0,60,0,0.0,0.0,0.0,60,0,0.0,0.0,0.0,60,0,0.0,0.0,337.4,60,0,342.9,323.3,0,0,0,28.1,60,0,10.2,60,0,10.4,10.1,7.4,60,0,7.6,7.1,3.9,60,0,4.6,3.0,64.6,60,0,69.0,60.0,28.1,60,0,39.0,18.0,239,0.0,1021.4,60,0,1021.4,0,1007.1,60,0,46.2,60,0
86282,2012-01-28 00:00:00,530,60,0,0.0,0.0,0.0,60,0,0.0,0.0,0.0,60,0,0.0,0.0,0.0,60,0,0.0,0.0,337.4,60,0,342.9,323.3,0,0,0,28.1,60,0,10.2,60,0,10.4,10.1,7.4,60,0,7.6,7.1,3.9,60,0,4.6,3.0,64.6,60,0,69.0,60.0,28.1,60,0,39.0,18.0,239,0.0,1021.4,60,0,1021.4,0,1007.1,60,0,46.2,60,0
86282,2012-01-28 12:00:00,540,60,0,0.0,0.0,0.0,60,0,0.0,0.0,0.0,60,0,0.0,0.0,0.0,60,0,0.0,0.0,337.4,60,0,342.9,323.3,0,0,0,28.1,60,0,10.2,60,0,10.4,10.1,7.4,60,0,7.6,7.1,3.9,60,0,4.6,3.0,64.6,60,0,69.0,60.0,28.1,60,0,39.0,18.0,239,0.0,1021.4,60,0,1021.4,0,1007.1,60,0,46.2,60,0
86282,2012-01-29 00:00:00,550,60,0,0.0,0.0,0.0,60,0,0.0,0.0,0.0,60,0,0.0,0.0,0.0,60,0,0.0,0.0,337.4,60,0,342.9,323.3,0,0,0,28.1,60,0,10.2,60,0,10.4,10.1,7.4,60,0,7.6,7.1,3.9,60,0,4.6,3.0,64.6,60,0,69.0,60.0,28.1,60,0,39.0,18.0,239,0.0,1021.4,60,0,1021.4,0,1007.1,60,0,46.2,60,0
86282,2012-01-29 12:00:00,560,60,0,0.0,0.0,0.0,60,0,0.0,0.0,0.0,60,0,0.0,0.0,0.0,60,0,0.0,0.0,337.4,60,0,342.9,323.3,0,0,0,28.1,60,0,10.2,60,0,10.4,10.1,7.4,60,0,7.6,7.1,3.9,60,0,4.6,3.0,64.6,60,0,69.0,60.0,28.1,60,0,39.0,18.0,239,0.0,1021.4,60,0,1021.4,0,1007.1,60,0,46.2,60,0
86282,2012-01-30 00:00:00,570,60,0,0.0,0.0,0.0,60,0,0.0,0.0,0.0,60,0,0.0,0.0,0.0,60,0,0.0,0.0,337.4,60,0,342.9,323.3,0,0,0,28.1,60,0,10.2,60,0,10.4,10.1,7.4,60,0,7.6,7.1,3.9,60,0,4.6,3.0,64.6,60,0,69.0,60.0,28.1,60,0,39.0,18.0,239,0.0,1021.4,60,0,1021.4,0,1007.1,60,0,46.2,60,0
86282,2012-01-30 12:00:00,580,60,0,0.0,0.0,0.0,60,0,0.0,0.0,0.0,60,0,0.0,0.0,0.0,60,0,0.0,0.0,337.4,60,0,342.9,323.3,0,0,0,28.1,60,0,10.2,60,0,10.4,10.1,7.4,60,0,7.6,7.1,3.9,60,0,4.6,3.0,64.6,60,0,69.0,60.0,28.1,60,0,39.0,18.0,239,0.0,1021.4,60,0,1021.4,0,1007.1,60,0,46.2,60,0
86282,2012-01-31 00:00:00,590,60,0,0.0,0.0,0.0,60,0,0.0,0.0,0.0,60,0,0.0,0.0,0.0,60,0,0.0,0.0,337.4,60,0,342.9,323.3,0,0,0,28.1,60,0,10.2,60,0,10.4,10.1,7.4,60,0,7.6,7.1,3.9,60,0,4.6,3.0,64.6,60,0,69.0,60.0,28.1,60,0,39.0,18.0,239,0.0,1021.4,60,0,1021.4,0,1007.1,60,0,46.2,60,0
86282,2012-01-31 12:00:00,600,60,0,0.0,0.0,0.0,60,0,0.0,0.0,0.0,60,0,0.0,0.0,0.0,60,0,0.0,0.0,337.4,60,0,342.9,323.3,0,0,0,28.1,60,0,10.2,60,0,10.4,10.1,7.4,60,0,7.6,7.1,3.9,60,0,4.6,3.0,64.6,60,0,69.0,60.0,28.1,60,0,39.0,18.0,239,0.0,1021.4,60,0,1021.4,0,1007.1,60,0,46.2,60,0
86282,2012-02-01 00:00:00,610,60,0,0.0,0.0,0.0,60,0,0.0,0.0,0.0,60,0,0.0,0.0,0.0,60,0,0.0,0.0,337.4,60,0,342.9,323.3,0,0,0,28.1,60,0,10.2,60,0,10.4,10.1,7.4,60,0,7.6,7.1,3.9,60,0,4.6,3.0,64.6,60,0,69.0,60.0,28.1,60,0,39.0,18.0,239,0.0,1021.4,60,0,1021.4,0,1007.1,60,0,46.2,60,0
86282,2012-02-01 12:00:00,620,60,0,0.0,0.0,0.0,60,0,0.0,0.0,0.0,60,0,0.0,0.0,0.0,60,0,0.0,0.0,337.4,60,0,342.9,323.3,0,0,0,28.1,60,0,10.2,60,0,10.4,10.1,7.4,60,0,7.6,7.1,3.9,60,0,4.6,3.0,64.6,60,0,69.0,60.0,28.1,60,0,39.0,18.0,239,0.0,1021.4,60,0,1021.4,0,1007.1,60,0,46.2,60,0
86282,2012-02-02 00:00:00,630,60,0,0.0,0.0,0.0,60,0,0.0,0.0,0.0,60,0,0.0,0.0,0.0,60,0,0.0,0.0,337.4,60,0,342.9,323.3,0,0,0,28.1,60,0,10.2,60,0,10.4,10.1,7.4,60,0,7.6,7.1,3.9,60,0,4.6,3.0,64.6,60,0,69.0,60.0,28.1,60,0,39.0,18.0,239,0.0,1021.4,60,0,1021.4,0,1007.1,60,0,46.2,60,0
86282,2012-02-02 12:00:00,640,60,0,0.0,0.0,0.0,60,0,0.0,0.0,0.0,60,0,0.0,0.0,0.0,60,0,0.0,0.0,337.4,60,0,342.9,323.3,0,0,0,28.1,60,0,10.2,60,0,10.4,10.1,7.4,60,0,7.6,7.1,3.9,60,0,4.6,3.0,64.6,60,0,69.0,60.0,28.1,60,0,39.0,18.0,239,0.0,1021.4,60,0,1021.4,0,1007.1,60,0,46.2,60,0
86282,2012-02-03 00:00:00,650,60,0,0.0,0.0,0.0,60,0,0.0,0.0,0.0,60,0,0.0,0.0,0.0,60,0,0.0,0.0,337.4,60,0,342.9,323.3,0,0,0,28.1,60,0,10.2,60,0,10.4,10.1,7.4,60,0,7.6,7.1,3.9,60,0,4.6,3.0,64.6,60,0,69.0,60.0,28.1,60,0,39.0,18.0,239,0.0,1021.4,60,0,1021.4,0,1007.1,60,0,46.2,60,0
86282,2012-02-03 12:00:00,660,60,0,0.0,0.0,0.0,60,0,0.0,0.0,0.0,60,0,0.0,0.0,0.0,60,0,0.0,0.0,337.4,60,0,342.9,323.3,0,0,0,28.1,60,0,10.2,60,0,10.4,10.1,7.4,60,0,7.6,7.1,3.9,60,0,4.6,3.0,64.6,60,0,69.0,60.0,28.1,60,0,39.0,18.0,239,0.0,1021.4,60,0,1021.4,0,1007.1,60,0,46.2,60,0
86282,2012-02-04 00:00:00,670,60,0,0.0,0.0,0.0,60,0,0.0,0.0,0.0,60,0,0.0,0.0,0.0,60,0,0.0,0.0,337.4,60,0,342.9,323.3,0,0,0,28.1,60,0,10.2,60,0,10.4,10.1,7.4,60,0,7.6,7.1,3.9,60,0,4.6,3.0,64.6,60,0,69.0,60.0,28.1,60,0,39.0,18.0,239,0.0,1021.4,60,0,1021.4,0,1007.1,60,0,46.2,60,0
86282,2012-02-04 12:00:00,680,60,0,0.0,0.0,0.0,60,0,0.0,0.0,0.0,60,0,0.0,0.0,0.0,60,0,0.0,0.0,337.4,60,0,342.9,323.3,0,0,0,28.1,60,0,10.2,60,0,10.4,10.1,7.4,60,0,7.6,7.1,3.9,60,0,4.6,3.0,64.6,60,0,69.0,60.0,28.1,60,0,39.0,18.0,239,0.0,1021.4,60,0,1021.4,0,1007.1,60,0,46.2,60,0
86282,2012-02-05 00:00:00,690,60,0,0.0,0.0,0.0,60,0,0.0,0.0,0.0,60,0,0.0,0.0,0.0,60,0,0.0,0.0,337.4,60,0,342.9,323.3,0,0,0,28.1,60,0,10.2,60,0,10.4,10.1,7.4,60,0,7.6,7.1,3.9,60,0,4.6,3.0,64.6,60,0,69.0,60.0,28.1,60,0,39.0,18.0,239,0.0,1021.4,60,0,1021.4,0,1007.1,60,0,46.2,60,0
86282,2012-02-05 12:00:00,700,60,0,0.0,0.0,0.0,60,0,0.0,0.0,0.0,60,0,0.0,0.0,0.0,60,0,0.0,0.0,337.4,60,0,342.9,323.3,0,0,0,28.1,60,0,10.2,60,0,10.4,10.1,7.4,60,0,7.6,7.1,3.9,60,0,4.6,3.0,64.6,60,0,69.0,60.0,28.1,60,0,39.0,18.0,239,0.0,1021.4,60,0,1021.4,0,1007.1,60,0,46.2,60,0
86282,2012-02-06 00:00:00,710,60,0,0.0,0.0,0.0,60,0,0.0,0.0,0.0,60,0,0.0,0.0,0.0,60,0,0.0,0.0,337.4,60,0,342.9,323.3,0,0,0,28.1,60,0,10.2,60,0,10.4,10.1,7.4,60,0,7.6,7.1,3.9,60,0,4.6,3.0,64.6,60,0,69.0,60.0,28.1,60,0,39.0,18.0,239,0.0,1021.4,60,0,1021.4,0,1007.1,60,0,46.2,60,0
86282,2012-02-06 12:00:00,720,60,0,0.0,0.0,0.0,60,0,0.0,0.0,0.0,60,0,0.0,0.0,0.0,60,0,0.0,0.0,337.4,60,0,342.9,323.3,0,0,0,28.1,60,0,10.2,60,0,10.4,10.1,7.4,60,0,7.6,7.1,3.9,60,0,4.6,3.0,64.6,60,0,69.0,60.0,28.1,60,0,39.0,18.0,239,0.0,1021.4,60,0,1021.4,0,1007.1,60,0,46.2,60,0
86282,2012-02-07 00:00:00,730,60,0,0.0,0.0,0.0,60,0,0.0,0.0,0.0,60,0,0.0,0.0,0.0,60,0,0.0,0.0,337.4,60,0,342.9,323.3,0,0,0,28.1,60,0,10.2,60,0,10.4,10.1,7.4,60,0,7.6,7.1,3.9,60,0,4.6,3.0,64.6,60,0,69.0,60.0,28.1,60,0,39.0,18.0,239,0.0,1021.4,60,0,1021.4,0,1007.1,60,0,46.2,60,0
86282,2012-02-07 12:00:00,740,60,0,0.0,0.0,0.0,60,0,0.0,0.0,0.0,60,0,0.0,0.0,0.0,60,0,0.0,0.0,337.4,60,0,342.9,323.3,0,0,0,28.1,60,0,10.2,60,0,10.4,10.1,7.4,60,0,7.6,7.1,3.9,60,0,4.6,3.0,64.6,60,0,69.0,60.0,28.1,60,0,39.0,18.0,239,0.0,1021.4,60,0,1021.4,0,1007.1,60,0,46.2,60,0
86282,2012-02-08 00:00:00,750,60,0,0.0,0.0,0.0,60,0,0.0,0.0,0.0,60,0,0.0,0.0,0.0,60,0,0.0,0.0,337.4,60,0,342.9,323.3,0,0,0,28.1,60,0,10.2,60,0,10.4,10.1,7.4,60,0,7.6,7.1,3.9,60,0,4.6,3.0,64.6,60,0,69.0,60.0,28.1,60,0,39.0,18.0,239,0.0,1021.4,60,0,1021.4,0,1007.1,60,0,46.2,60,0
86282,2012-02-08 12:00:00,760,60,0,0.0,0.0,0.0,60,0,0.0,0.0,0.0,60,0,0.0,0.0,0.0,60,0,0.0,0.0,337.4,60,0,342.9,323.3,0,0,0,28.1,60,0,10.2,60,0,10.4,10.1,7.4,60,0,7.6,7.1,3.9,60,0,4.6,3.0,64.6,60,0,69.0,60.0,28.1,60,0,39.0,18.0,239,0.0,1021.4,60,0,1021.4,0,1007.1,60,0,46.2,60,0
86282,2012-02-09 00:00:00,770,60,0,0.0,0.0,0.0,60,0,0.0,0.0,0.0,60,0,0.0,0.0,0.0,60,0,0.0,0.0,337.4,60,0,342.9,323.3,0,0,0,28.1,60,0,10.2,60,0,10.4,10.1,7.4,60,0,7.6,7.1,3.9,60,0,4.6,3.0,64.6,60,0,69.0,60.0,28.1,60,0,39.0,18.0,239,0.0,1021.4,60,0,1021.4,0,1007.1,60,0,46.2,60,0
86282,2012-02-09 12:00:00,780,60,0,0.0,0.0,0.0,60,0,0.0,0.0,0.0,60,0,0.0,0.0,0.0,60,0,0.0,0.0,337.4,60,0,342.9,323.3,0,0,0,28.1,60,0,10.2,60,0,10.4,10.1,7.4,60,0,7.6,7.1,3.9,60,0,4.6,3.0,64.6,60,0,69.0,60.0,28.1,60,0,39.0,18.0,239,0.0,1021.4,60,0,1021.4,0,1007.1,60,0,46.2,60,0
86282,2012-02-10 00:00:00,790,60,0,0.0,0.0,0.0,60,0,0.0,0.0,0.0,60,0,0.0,0.0,0.0,60,0,0.0,0.0,337.4,60,0,342.9,323.3,0,0,0,28.1,60,0,10.2,60,0,10.4,10.1,7.4,60,0,7.6,7.1,3.9,60,0,4.6,3.0,64.6,60,0,69.0,60.0,28.1,60,0,39.0,18.0,239,0.0,1021.4,60,0,1021.4,0,1007.1,60,0,46.2,60,0
86282,2012-02-10 12:00:00,800,60,0,0.0,0.0,0.0,60,0,0.0,0.0,0.0,60,0,0.0,0.0,0.0,60,0,0.0,0.0,337.4,60,0,342.9,323.3,0,0,0,28.1,60,0,10.2,60,0,10.4,10.1,7.4,60,0,7.6,7.1,3.9,60,0,4.6,3.0,64.6,60,0,69.0,60.0,28.1,60,0,39.0,18.0,239,0.0,1021.4,60,0,1021.4,0,1007.1,60,0,46.2,60,0
86282,2012-02-11 00:00:00,810,60,0,0.0,0.0,0.0,60,0,0.0,0.0,0.0,60,0,0.0,0.0,0.0,60,0,0.0,0.0,337.4,60,0,342.9,323.3,0,0,0,28.1,60,0,10.2,60,0,10.4,10.1,7.4,60,0,7.6,7.1,3.9,60,0,4.6,3.0,64.6,60,0,69.0,60.0,28.1,60,0,39.0,18.0,239,0.0,1021.4,60,0,1021.4,0,1007.1,60,0,46.2,60,0
86282,2012-02-11 12:00:00,820,60,0,0.0,0.0,0.0,60,0,0.0,0.0,0.0,60,0,0.0,0.0,0.0,60,0,0.0,0.0,337.4,60,0,342.9,323.3,0,0,0,28.1,60,0,10.2,60,0,10.4,10.1,7.4,60,0,7.6,7.1,3.9,60,0,4.6,3.0,64.6,60,0,69.0,60.0,28.1,60,0,39.0,18.0,239,0.0,1021.4,60,0,1021.4,0,1007.1,60,0,46.2,60,0
86282,2012-02-12 00:00:00,830,60,0,0.0,0.0,0.0,60,0,0.0,0.0,0.0,60,0,0.0,0.0,0.0,60,0,0.0,0.0,337.4,60,0,342.9,323.3,0,0,0,28.1,60,0,10.2,60,0,10.4,10.1,7.4,60,0,7.6,7.1,3.9,60,0,4.6,3.0,64.6,60,0,69.0,60.0,28.1,60,0,39.0,18.0,239,0.0,1021.4,60,0,1021.4,0,1007.1,60,0,46.2,60,0
86282,2012-02-12 12:00:00,840,60,0,0.0,0.0,0.0,60,0,0.0,0.0,0.0,60,0,0.0,0.0,0.0,60,0,0.0,0.0,337.4,60,0,342.9,323.3,0,0,0,28.1,60,0,10.2,60,0,10.4,10.1,7.4,60,0,7.6,7.1,3.9,60,0,4.6,3.0,64.6,60,0,69.0,60.0,28.1,60,0,39.0,18.0,239,0.0,1021.4,60,0,1021.4,0,1007.1,60,0,46.2,60,0
86282,2012-02-13 00:00:00,850,60,0,0.0,0.0,0.0,60,0,0.0,0.0,0.0,60,0,0.0,0.0,0.0,60,0,0.0,0.0,337.4,60,0,342.9,323.3,0,0,0,28.1,60,0,10.2,60,0,10.4,10.1,7.4,60,0,7.6,7.1,3.9,60,0,4.6,3.0,64.6,60,0,69.0,60.0,28.1,60,0,39.0,18.0,239,0.0,1021.4,60,0,1021.4,0,1007.1,60,0,46.2,60,0
86282,2012-02-13 12:00:00,860,60,0,0.0,0.0,0.0,60,0,0.0,0.0,0.0,60,0,0.0,0.0,0.0,60,0,0.0,0.0,337.4,60,0,342.9,323.3,0,0,0,28.1,60,0,10.2,60,0,10.4,10.1,7.4,60,0,7.6,7.1,3.9,60,0,4.6,3.0,64.6,60,0,69.0,60.0,28.1,60,0,39.0,18.0,239,0.0,1021.4,60,0,1021.4,0,1007.1,60,0,46.2,60,0
86282,2012-02-14 00:00:00,870,60,0,0.0,0.0,0.0,60,0,0.0,0.0,0.0,60,0,0.0,0.0,0.0,60,0,0.0,0.0,337.4,60,0,342.9,323.3,0,0,0,28.1,60,0,10.2,60,0,10.4,10.1,7.4,60,0,7.6,7.1,3.9,60,0,4.6,3.0,64.6,60,0,69.0,60.0,28.1,60,0,39.0,18.0,239,0.0,1021.4,60,0,1021.4,0,1007.1,60,0,46.2,60,0
86282,2012-02-14 12:00:00,880,60,0,0.0,0.0,0.0,60,0,0.0,0.0,0.0,60,0,0.0,0.0,0.0,60,0,0.0,0.0,337.4,60,0,342.9,323.3,0,0,0,28.1,60,0,10.2,60,0,10.4,10.1,7.4,60,0,7.6,7.1,3.9,60,0,4.6,3.0,64.6,60,0,69.0,60.0,28.1,60,0,39.0,18.0,239,0.0,1021.4,60,0,1021.4,0,1007.1,60,0,46.2,60,0
86282,2012-02-15 00:00:00,890,60,0,0.0,0.0,0.0,60,0,0.0,0.0,0.0,60,0,0.0,0.0,0.0,60,0,0.0,0.0,337.4,60,0,342.9,323.3,0,0,0,28.1,60,0,10.2,60,0,10.4,10.1,7.4,60,0,7.6,7.1,3.9,60,0,4.6,3.0,64.6,60,0,69.0,60.0,28.1,60,0,39.0,18.0,239,0.0,1021.4,60,0,1021.4,0,1007.1,60,0,46.2,60,0
86282,2012-02-15 12:00:00,900,60,0,0.0,0.0,0.0,60,0,0.0,0.0,0.0,60,0,0.0,0.0,0.0,60,0,0.0,0.0,337.4,60,0,342.9,323.3,0,0,0,28.1,60,0,10.2,60,0,10.4,10.1,7.4,60,0,7.6,7.1,3.9,60,0,4.6,3.0,64.6,60,0,69.0,60.0,28.1,60,0,39.0,18.0,239,0.0,1021.4,60,0,1021.4,0,1007.1,60,0,46.2,60,0
86282,2012-02-16 00:00:00,910,60,0,0.0,0.0,0.0,60,0,0.0,0.0,0.0,60,0,0.0,0.0,0.0,60,0,0.0,0.0,337.4,60,0,342.9,323.3,0,0,0,28.1,60,0,10.2,60,0,10.4,10.1,7.4,60,0,7.6,7.1,3.9,60,0,4.6,3.0,64.6,60,0,69.0,60.0,28.1,60,0,39.0,18.0,239,0.0,1021.4,60,0,1021.4,0,1007.1,60,0,46.2,60,0
86282,2012-02-16 12:00:00,920,60,0,0.0,0.0,0.0,60,0,0.0,0.0,0.0,60,0,0.0,0.0,0.0,60,0,0.0,0.0,337.4,60,0,342.9,323.3,0,0,0,28.1,60,0,10.2,60,0,10.4,10.1,7.4,60,0,7.6,7.1,3.9,60,0,4.6,3.0,64.6,60,0,69.0,60.0,28.1,60,0,39.0,18.0,239,0.0,1021.4,60,0,1021.4,0,1007.1,60,0,46.2,60,0
86282,2012-02-17 00:00:00,930,60,0,0.0,0.0,0.0,60,0,0.0,0.0,0.0,60,0,0.0,0.0,0.0,60,0,0.0,0.0,337.4,60,0,342.9,323.3,0,0,0,28.1,60,0,10.2,60,0,10.4,10.1,7.4,60,0,7.6,7.1,3.9,60,0,4.6,3.0,64.6,60,0,69.0,60.0,28.1,60,0,39.0,18.0,239,0.0,1021.4,60,0,1021.4,0,1007.1,60,0,46.2,60,0
86282,2012-02-17 12:00:00,940,60,0,0.0,0.0,0.0,60,0,0.0,0.0,0.0,60,0,0.0,0.0,0.0,60,0,0.0,0.0,337.4,60,0,342.9,323.3,0,0,0,28.1,60,0,10.2,60,0,10.4,10.1,7.4,60,0,7.6,7.1,3.9,60,0,4.6,3.0,64.6,60,0,69.0,60.0,28.1,60,0,39.0,18.0,239,0.0,1021.4,60,0,1021.4,0,1007.1,60,0,46.2,60,0
86282,2012-02-18 00:00:00,950,60,0,0.0,0.0,0.0,60,0,0.0,0.0,0.0,60,0,0.0,0.0,0.0,60,0,0.0,0.0,337.4,60,0,342.9,323.3,0,0,0,28.1,60,0,10.2,60,0,10.4,10.1,7.4,60,0,7.6,7.1,3.9,60,0,4.6,3.0,64.6,60,0,69.0,60.0,28.1,60,0,39.0,18.0,239,0.0,1021.4,60,0,1021.4,0,1007.1,60,0,46.2,60,0
86282,2012-02-18 12:00:00,960,60,0,0.0,0.0,0.0,60,0,0.0,0.0,0.0,60,0,0.0,0.0,0.0,60,0,0.0,0.0,337.4,60,0,342.9,323.3,0,0,0,28.1,60,0,10.2,60,0,10.4,10.1,7.4,60,0,7.6,7.1,3.9,60,0,4.6,3.0,64.6,60,0,69.0,60.0,28.1,60,0,39.0,18.0,239,0.0,1021.4,60,0,1021.4,0,1007.1,60,0,46.2,60,0
86282,2012-02-19 00:00:00,970,60,0,0.0,0.0,0.0,60,0,0.0,0.0,0.0,60,0,0.0,0.0,0.0,60,0,0.0,0.0,337.4,60,0,342.9,323.3,0,0,0,28.1,60,0,10.2,60,0,10.4,10.1,7.4,60,0,7.6,7.1,3.9,60,0,4.6,3.0,64.6,60,0,69.0,60.0,28.1,60,0,39.0,18.0,239,0.0,1021.4,60,0,1021.4,0,1007.1,60,0,46.2,60,0
86282,2012-02-19 12:00:00,980,60,0,0.0,0.0,0.0,60,0,0.0,0.0,0.0,60,0,0.0,0.0,0.0,60,0,0.0,0.0,337.4,60,0,342.9,323.3,0,0,0,28.1,60,0,10.2,60,0,10.4,10.1,7.4,60,0,7.6,7.1,3.9,60,0,4.6,3.0,64.6,60,0,69.0,60.0,28.1,60,0,39.0,18.0,239,0.0,1021.4,60,0,1021.4,0,1007.1,60,0,46.2,60,0
86282,2012-02-20 00:00:00,990,60,0,0.0,0.0,0.0,60,0,0.0,0.0,0.0,60,0,0.0,0.0,0.0,60,0,0.0,0.0,337.4,60,0,342.9,323.3,0,0,0,28.1,60,0,10.2,60,0,10.4,10.1,7.4,60,0,7.6,7.1,3.9,60,0,4.6,3.0,64.6,60,0,69.0,60.0,28.1,60,0,39.0,18.0,239,0.0,1021.4,60,0,1021.4,0,1007.1,60,0,46.2,60,0
86282,2012-02-20 12:00:00,1000,60,0,0.0,0.0,0.0,60,0,0.0,0.0,0.0,60,0,0.0,0.0,0.0,60,0,0.0,0.0,337.4,60,0,342.9,323.3,0,0,0,28.1,60,0,10.2,60,0,10.4,10.1,7.4,60,0,7.6,7.1,3.9,60,0,4.6,3.0,64.6,60,0,69.0,60.0,28.1,60,0,39.0,18.0,239,0.0,1021.4,60,0,1021.4,0,1007.1,60,0,46.2,60,0
86282,2012-02-21 00:00:00,1010,60,0,0.0,0.0,0.0,60,0,0.0,0.0,0.0,60,0,0.0,0.0,0.0,60,0,0.0,0.0,337.4,60,0,342.9,323.3,0,0,0,28.1,60,0,10.2,60,0,10.4,10.1,7.4,60,0,7.6,7.1,3.9,60,0,4.6,3.0,64.6,60,0,69.0,60.0,28.1,60,0,39.0,18.0,239,0.0,1021.4,60,0,1021.4,0,1007.1,60,0,46.2,60,0
86282,2012-02-21 12:00:00,1020,60,0,0.0,0.0,0.0,60,0,0.0,0.0,0.0,60,0,0.0,0.0,0.0,60,0,0.0,0.0,337.4,60,0,342.9,323.3,0,0,0,28.1,60,0,10.2,60,0,10.4,10.1,7.4,60,0,7.6,7.1,3.9,60,0,4.6,3.0,64.6,60,0,69.0,60.0,28.1,60,0,39.0,18.0,239,0.0,1021.4,60,0,1021.4,0,1007.1,60,0,46.2,60,0
86282,2012-02-22 00:00:00,1030,60,0,0.0,0.0,0.0,60,0,0.0,0.0,0.0,60,0,0.0,0.0,0.0,60,0,0.0,0.0,337.4,60,0,342.9,323.3,0,0,0,28.1,60,0,10.2,60,0,10.4,10.1,7.4,60,0,7.6,7.1,3.9,60,0,4.6,3.0,64.6,60,0,69.0,60.0,28.1,60,0,39.0,18.0,239,0.0,1021.4,60,0,1021.4,0,1007.1,60,0,46.2,60,0
86282,2012-02-22 12:00:00,1040,60,0,0.0,0.0,0.0,60,0,0.0,0.0,0.0,60,0,0.0,0.0,0.0,60,0,0.0,0.0,337.4,60,0,342.9,323.3,0,0,0,28.1,60,0,10.2,60,0,10.4,10.1,7.4,60,0,7.6,7.1,3.9,60,0,4.6,3.0,64.6,60,0,69.0,60.0,28.1,60,0,39.0,18.0,239,0.0,1021.4,60,0,1021.4,0,1007.1,60,0,46.2,60,0
86282,2012-02-23 00:00:00,1050,60,0,0.0,0.0,0.0,60,0,0.0,0.0,0.0,60,0,0.0,0.0,0.0,60,0,0.0,0.0,337.4,60,0,342.9,323.3,0,0,0,28.1,60,0,10.2,60,0,10.4,10.1,7.4,60,0,7.6,7.1,3.9,60,0,4.6,3.0,64.6,60,0,69.0,60.0,28.1,60,0,39.0,18.0,239,0.0,1021.4,60,0,1021.4,0,1007.1,60,0,46.2,60,0
86282,2012-02-23 12:00:00,1060,60,0,0.0,0.0,0.0,60,0,0.0,0.0,0.0,60,0,0.0,0.0,0.0,60,0,0.0,0.0,337.4,60,0,342.9,323.3,0,0,0,28.1,60,0,10.2,60,0,10.4,10.1,7.4,60,0,7.6,7.1,3.9,60,0,4.6,3.0,64.6,60,0,69.0,60.0,28.1,60,0,39.0,18.0,239,0.0,1021.4,60,0,1021.4,0,1007.1,60,0,46.2,60,0
86282,2012-02-24 00:00:00,1070,60,0,0.0,0.0,0.0,60,0,0.0,0.0,0.0,60,0,0.0,0.0,0.0,60,0,0.0,0.0,337.4,60,0,342.9,323.3,0,0,0,28.1,60,0,10.2,60,0,10.4,10.1,7.4,60,0,7.6,7.1,3.9,60,0,4.6,3.0,64.6,60,0,69.0,60.0,28.1,60,0,39.0,18.0,239,0.0,1021.4,60,0,1021.4,0,1007.1,60,0,46.2,60,0
86282,2012-02-24 12:00:00,1080,60,0,0.0,0.0,0.0,60,0,0.0,0.0,0.0,60,0,0.0,0.0,0.0,60,0,0.0,0.0,337.4,60,0,342.9,323.3,0,0,0,28.1,60,0,10.2,60,0,10.4,10.1,7.4,60,0,7.6,7.1,3.9,60,0,4.6,3.0,64.6,60,0,69.0,60.0,28.1,60,0,39.0,18.0,239,0.0,1021.4,60,0,1021.4,0,1007.1,60,0,46.2,60,0
86282,2012-02-25 00:00:00,1090,60,0,0.0,0.0,0.0,60,0,0.0,0.0,0.0,60,0,0.0,0.0,0.0,60,0,0.0,0.0,337.4,60,0,342.9,323.3,0,0,0,28.1,60,0,10.2,60,0,10.4,10.1,7.4,60,0,7.6,7.1,3.9,60,0,4.6,3.0,64.6,60,0,69.0,60.0,28.1,60,0,39.0,18.0,239,0.0,1021.4,60,0,1021.4,0,1007.1,60,0,46.2,60,0
86282,2012-02-25 12:00:00,1100,60,0,0.0,0.0,0.0,60,0,0.0,0.0,0.0,60,0,0.0,0.0,0.0,60,0,0.0,0.0,337.4,60,0,342.9,323.3,0,0,0,28.1,60,0,10.2,60,0,10.4,10.1,7.4,60,0,7.6,7.1,3.9,60,0,4.6,3.0,64.6,60,0,69.0,60.0,28.1,60,0,39.0,18.0,239,0.0,1021.4,60,0,1021.4,0,1007.1,60,0,46.2,60,0
86282,2012-02-26 00:00:00,1110,60,0,0.0,0.0,0.0,60,0,0.0,0.0,0.0,60,0,0.0,0.0,0.0,60,0,0.0,0.0,337.4,60,0,342.9,323.3,0,0,0,28.1,60,0,10.2,60,0,10.4,10.1,7.4,60,0,7.6,7.1,3.9,60,0,4.6,3.0,64.6,60,0,69.0,60.0,28.1,60,0,39.0,18.0,239,0.0,1021.4,60,0,1021.4,0,1007.1,60,0,46.2,60,0
86282,2012-02-26 12:00:00,1120,60,0,0.0,0.0,0.0,60,0,0.0,0.0,0.0,60,0,0.0,0.0,0.0,60,0,0.0,0.0,337.4,60,0,342.9,323.3,0,0,0,28.1,60,0,10.2,60,0,10.4,10.1,7.4,60,0,7.6,7.1,3.9,60,0,4.6,3.0,64.6,60,0,69.0,60.0,28.1,60,0,39.0,18.0,239,0.0,1021.4,60,0,1021.4,0,1007.1,60,0,46.2,60,0
86282,2012-02-27 00:00:00,1130,60,0,0.0,0.0,0.0,60,0,0.0,0.0,0.0,60,0,0.0,0.0,0.0,60,0,0.0,0.0,337.4,60,0,342.9,323.3,0,0,0,28.1,60,0,10.2,60,0,10.4,10.1,7.4,60,0,7.6,7.1,3.9,60,0,4.6,3.0,64.6,60,0,69.0,60.0,28.1,60,0,39.0,18.0,239,0.0,1021.4,60,0,1021.4,0,1007.1,60,0,46.2,60,0
86282,2012-02-27 12:00:00,1140,60,0,0.0,0.0,0.0,60,0,0.0,0.0,0.0,60,0,0.0,0.0,0.0,60,0,0.0,0.0,337.4,60,0,342.9,323.3,0,0,0,28.1,60,0,10.2,60,0,10.4,10.1,7.4,60,0,7.6,7.1,3.9,60,0,4.6,3.0,64.6,60,0,69.0,60.0,28.1,60,0,39.0,18.0,239,0.0,1021.4,60,0,1021.4,0,1007.1,60,0,46.2,60,0
86282,2012-02-28 00:00:00,1150,60,0,0.0,0.0,0.0,60,0,0.0,0.0,0.0,60,0,0.0,0.0,0.0,60,0,0.0,0.0,337.4,60,0,342.9,323.3,0,0,0,28.1,60,0,10.2,60,0,10.4,10.1,7.4,60,0,7.6,7.1,3.9,60,0,4.6,3.0,64.6,60,0,69.0,60.0,28.1,60,0,39.0,18.0,239,0.0,1021.4,60,0,1021.4,0,1007.1,60,0,46.2,60,0
86282,2012-02-28 12:00:00,1160,60,0,0.0,0.0,0.0,60,0,0.0,0.0,0.0,60,0,0.0,0.0,0.0,60,0,0.0,0.0,337.4,60,0,342.9,323.3,0,0,0,28.1,60,0,10.2,60,0,10.4,10.1,7.4,60,0,7.6,7.1,3.9,60,0,4.6,3.0,64.6,60,0,69.0,60.0,28.1,60,0,39.0,18.0,239,0.0,1021.4,60,0,1021.4,0,1007.1,60,0,46.2,60,0
86282,2012-02-29 00:00:00,1170,60,0,0.0,0.0,0.0,60,0,0.0,0.0,0.0,60,0,0.0,0.0,0.0,60,0,0.0,0.0,337.4,60,0,342.9,323.3,0,0,0,28.1,60,0,10.2,60,0,10.4,10.1,7.4,60,0,7.6,7.1,3.9,60,0,4.6,3.0,64.6,60,0,69.0,60.0,28.1,60,0,39.0,18.0,239,0.0,1021.4,60,0,1021.4,0,1007.1,60,0,46.2,60,0
86282,2012-02-29 12:00:00,1180,60,0,0.0,0.0,0.0,60,0,0.0,0.0,0.0,60,0,0.0,0.0,0.0,60,0,0.0,0.0,337.4,60,0,342.9,323.3,0,0,0,28.1,60,0,10.2,60,0,10.4,10.1,7.4,60,0,7.6,7.1,3.9,60,0,4.6,3.0,64.6,60,0,69.0,60.0,28.1,60,0,39.0,18.0,239,0.0,1021.4,60,0,1021.4,0,1007.1,60,0,46.2,60,0
86282,2012-03-01 00:00:00,1190,60,0,0.0,0.0,0.0,60,0,0.0,0.0,0.0,60,0,0.0,0.0,0.0,60,0,0.0,0.0,337.4,60,0,342.9,323.3,0,0,0,28.1,60,0,10.2,60,0,10.4,10.1,7.4,60,0,7.6,7.1,3.9,60,0,4.6,3.0,64.6,60,0,69.0,60.0,28.1,60,0,39.0,18.0,239,0.0,1021.4,60,0,1021.4,0,1007.1,60,0,46.2,60,0
86282,2012-03-01 12:00:00,1200,60,0,0.0,0.0,0.0,60,0,0.0,0.0,0.0,60,0,0.0,0.0,0.0,60,0,0.0,0.0,337.4,60,0,342.9,323.3,0,0,0,28.1,60,0,10.2,60,0,10.4,10.1,7.4,60,0,7.6,7.1,3.9,60,0,4.6,3.0,64.6,60,0,69.0,60.0,28.1,60,0,39.0,18.0,239,0.0,1021.4,60,0,1021.4,0,1007.1,60,0,46.2,60,0
86282,2012-03-02 00:00:00,1210,60,0,0.0,0.0,0.0,60,0,0.0,0.0,0.0,60,0,0.0,0.0,0.0,60,0,0.0,0.0,337.4,60,0,342.9,323.3,0,0,0,28.1,60,0,10.2,60,0,10.4,10.1,7.4,60,0,7.6,7.1,3.9,60,0,4.6,3.0,64.6,60,0,69.0,60.0,28.1,60,0,39.0,18.0,239,0.0,1021.4,60,0,1021.4,0,1007.1,60,0,46.2,60,0
86282,2012-03-02 12:00:00,1220,60,0,0.0,0.0,0.0,60,0,0.0,0.0,0.0,60,0,0.0,0.0,0.0,60,0,0.0,0.0,337.4,60,0,342.9,323.3,0,0,0,28.1,60,0,10.2,60,0,10.4,10.1,7.4,60,0,7.6,7.1,3.9,60,0,4.6,3.0,64.6,60,0,69.0,60.0,28.1,60,0,39.0,18.0,239,0.0,1021.4,60,0,1021.4,0,1007.1,60,0,46.2,60,0
86282,2012-03-03 00:00:00,1230,60,0,0.0,0.0,0.0,60,0,0.0,0.0,0.0,60,0,0.0,0.0,0.0,60,0,0.0,0.0,337.4,60,0,342.9,323.3,0,0,0,28.1,60,0,10.2,60,0,10.4,10.1,7.4,60,0,7.6,7.1,3.9,60,0,4.6,3.0,64.6,60,0,69.0,60.0,28.1,60,0,39.0,18.0,239,0.0,1021.4,60,0,1021.4,0,1007.1,60,0,46.2,60,0
86282,2012-03-03 12:00:00,1240,60,0,0.0,0.0,0.0,60,0,0.0,0.0,0.0,60,0,0.0,0.0,0.0,60,0,0.0,0.0,337.4,60,0,342.9,323.3,0,0,0,28.1,60,0,10.2,60,0,10.4,10.1,7.4,60,0,7.6,7.1,3.9,60,0,4.6,3.0,64.6,60,0,69.0,60.0,28.1,60,0,39.0,18.0,239,0.0,1021.4,60,0,1021.4,0,1007.1,60,0,46.2,60,0
86282,2012-03-04 00:00:00,1250,60,0,0.0,0.0,0.0,60,0,0.0,0.0,0.0,60,0,0.0,0.0,0.0,60,0,0.0,0.0,337.4,60,0,342.9,323.3,0,0,0,28.1,60,0,10.2,60,0,10.4,10.1,7.4,60,0,7.6,7.1,3.9,60,0,4.6,3.0,64.6,60,0,69.0,60.0,28.1,60,0,39.0,18.0,239,0.0,1021.4,60,0,1021.4,0,1007.1,60,0,46.2,60,0
86282,2012-03-04 12:00:00,1260,60,0,0.0,0.0,0.0,60,0,0.0,0.0,0.0,60,0,0.0,0.0,0.0,60,0,0.0,0.0,337.4,60,0,342.9,323.3,0,0,0,28.1,60,0,10.2,60,0,10.4,10.1,7.4,60,0,7.6,7.1,3.9,60,0,4.6,3.0,64.6,60,0,69.0,60.0,28.1,60,0,39.0,18.0,239,0.0,1021.4,60,0,1021.4,0,1007.1,60,0,46.2,60,0
86282,2012-03-05 00:00:00,1270,60,0,0.0,0.0,0.0,60,0,0.0,0.0,0.0,60,0,0.0,0.0,0.0,60,0,0.0,0.0,337.4,60,0,342.9,323.3,0,0,0,28.1,60,0,10.2,60,0,10.4,10.1,7.4,60,0,7.6,7.1,3.9,60,0,4.6,3.0,64.6,60,0,69.0,60.0,28.1,60,0,39.0,18.0,239,0.0,1021.4,60,0,1021.4,0,1007.1,60,0,46.2,60,0
86282,2012-03-05 12:00:00,1280,60,0,0.0,0.0,0.0,60,0,0.0,0.0,0.0,60,0,0.0,0.0,0.0,60,0,0.0,0.0,337.4,60,0,342.9,323.3,0,0,0,28.1,60,0,10.2,60,0,10.4,10.1,7.4,60,0,7.6,7.1,3.9,60,0,4.6,3.0,64.6,60,0,69.0,60.0,28.1,60,0,39.0,18.0,239,0.0,1021.4,60,0,1021.4,0,1007.1,60,0,46.2,60,0
86282,2012-03-06 00:00:00,1290,60,0,0.0,0.0,0.0,60,0,0.0,0.0,0.0,60,0,0.0,0.0,0.0,60,0,0.0,0.0,337.4,60,0,342.9,323.3,0,0,0,28.1,60,0,10.2,60,0,10.4,10.1,7.4,60,0,7.6,7.1,3.9,60,0,4.6,3.0,64.6,60,0,69.0,60.0,28.1,60,0,39.0,18.0,239,0.0,1021.4,60,0,1021.4,0,1007.1,60,0,46.2,60,0
86282,2012-03-06 12:00:00,1300,60,0,0.0,0.0,0.0,60,0,0.0,0.0,0.0,60,0,0.0,0.0,0.0,60,0,0.0,0.0,337.4,60,0,342.9,323.3,0,0,0,28.1,60,0,10.2,60,0,10.4,10.1,7.4,60,0,7.6,7.1,3.9,60,0,4.6,3.0,64.6,60,0,69.0,60.0,28.1,60,0,39.0,18.0,239,0.0,1021.4,60,0,1021.4,0,1007.1,60,0,46.2,60,0
86282,2012-03-07 00:00:00,1310,60,0,0.0,0.0,0.0,60,0,0.0,0.0,0.0,60,0,0.0,0.0,0.0,60,0,0.0,0.0,337.4,60,0,342.9,323.3,0,0,0,28.1,60,0,10.2,60,0,10.4,10.1,7.4,60,0,7.6,7.1,3.9,60,0,4.6,3.0,64.6,60,0,69.0,60.0,28.1,60,0,39.0,18.0,239,0.0,1021.4,60,0,1021.4,0,1007.1,60,0,46.2,60,0
86282,2012-03-07 12:00:00,1320,60,0,0.0,0.0,0.0,60,0,0.0,0.0,0.0,60,0,0.0,0.0,0.0,60,0,0.0,0.0,337.4,60,0,342.9,323.3,0,0,0,28.1,60,0,10.2,60,0,10.4,10.1,7.4,60,0,7.6,7.1,3.9,60,0,4.6,3.0,64.6,60,0,69.0,60.0,28.1,60,0,39.0,18.0,239,0.0,1021.4,60,0,1021.4,0,1007.1,60,0,46.2,60,0
86282,2012-03-08 00:00:00,1330,60,0,0.0,0.0,0.0,60,0,0.0,0.0,0.0,60,0,0.0,0.0,0.0,60,0,0.0,0.0,337.4,60,0,342.9,323.3,0,0,0,28.1,60,0,10.2,60,0,10.4,10.1,7.4,60,0,7.6,7.1,3.9,60,0,4.6,3.0,64.6,60,0,69.0,60.0,28.1,60,0,39.0,18.0,239,0.0,1021.4,60,0,1021.4,0,1007.1,60,0,46.2,60,0
86282,2012-03-08 12:00:00,1340,60,0,0.0,0.0,0.0,60,0,0.0,0.0,0.0,60,0,0.0,0.0,0.0,60,0,0.0,0.0,337.4,60,0,342.9,323.3,0,0,0,28.1,60,0,10.2,60,0,10.4,10.1,7.4,60,0,7.6,7.1,3.9,60,0,4.6,3.0,64.6,60,0,69.0,60.0,28.1,60,0,39.0,18.0,239,0.0,1021.4,60,0,1021.4,0,1007.1,60,0,46.2,60,0
86282,2012-03-09 00:00:00,1350,60,0,0.0,0.0,0.0,60,0,0.0,0.0,0.0,60,0,0.0,0.0,0.0,60,0,0.0,0.0,337.4,60,0,342.9,323.3,0,0,0,28.1,60,0,10.2,60,0,10.4,10.1,7.4,60,0,7.6,7.1,3.9,60,0,4.6,3.0,64.6,60,0,69.0,60.0,28.1,60,0,39.0,18.0,239,0.0,1021.4,60,0,1021.4,0,1007.1,60,0,46.2,60,0
86282,2012-03-09 12:00:00,1360,60,0,0.0,0.0,0.0,60,0,0.0,0.0,0.0,60,0,0.0,0.0,0.0,60,0,0.0,0.0,337.4,60,0,342.9,323.3,0,0,0,28.1,60,0,10.2,60,0,10.4,10.1,7.4,60,0,7.6,7.1,3.9,60,0,4.6,3.0,64.6,60,0,69.0,60.0,28.1,60,0,39.0,18.0,239,0.0,1021.4,60,0,1021.4,0,1007.1,60,0,46.2,60,0
86282,2012-03-10 00:00:00,1370,60,0,0.0,0.0,0.0,60,0,0.0,0.0,0.0,60,0,0.0,0.0,0.0,60,0,0.0,0.0,337.4,60,0,342.9,323.3,0,0,0,28.1,60,0,10.2,60,0,10.4,10.1,7.4,60,0,7.6,7.1,3.9,60,0,4.6,3.0,64.6,60,0,69.0,60.0,28.1,60,0,39.0,18.0,239,0.0,1021.4,60,0,1021.4,0,1007.1,60,0,46.2,60,0
86282,2012-03-10 12:00:00,1380,60,0,0.0,0.0,0.0,60,0,0.0,0.0,0.0,60,0,0.0,0.0,0.0,60,0,0.0,0.0,337.4,60,0,342.9,323.3,0,0,0,28.1,60,0,10.2,60,0,10.4,10.1,7.4,60,0,7.6,7.1,3.9,60,0,4.6,3.0,64.6,60,0,69.0,60.0,28.1,60,0,39.0,18.0,239,0.0,1021.4,60,0,1021.4,0,1007.1,60,0,46.2,60,0
86282,2012-03-11 00:00:00,1390,60,0,0.0,0.0,0.0,60,0,0.0,0.0,0.0,60,0,0.0,0.0,0.0,60,0,0.0,0.0,337.4,60,0,342.9,323.3,0,0,0,28.1,60,0,10.2,60,0,10.4,10.1,7.4,60,0,7.6,7.1,3.9,60,0,4.6,3.0,64.6,60,0,69.0,60.0,28.1,60,0,39.0,18.0,239,0.0,1021.4,60,0,1021.4,0,1007.1,60,0,46.2,60,0
86282,2012-03-11 12:00:00,1400,60,0,0.0,0.0,0.0,60,0,0.0,0.0,0.0,60,0,0.0,0.0,0.0,60,0,0.0,0.0,337.4,60,0,342.9,323.3,0,0,0,28.1,60,0,10.2,60,0,10.4,10.1,7.4,60,0,7.6,7.1,3.9,60,0,4.6,3.0,64.6,60,0,69.0,60.0,28.1,60,0,39.0,18.0,239,0.0,1021.4,60,0,1021.4,0,1007.1,60,0,46.2,60,0
86282,2012-03-12 00:00:00,1410,60,0,0.0,0.0,0.0,60,0,0.0,0.0,0.0,60,0,0.0,0.0,0.0,60,0,0.0,0.0,337.4,60,0,342.9,323.3,0,0,0,28.1,60,0,10.2,60,0,10.4,10.1,7.4,60,0,7.6,7.1,3.9,60,0,4.6,3.0,64.6,60,0,69.0,60.0,28.1,60,0,39.0,18.0,239,0.0,1021.4,60,0,1021.4,0,1007.1,60,0,46.2,60,0
86282,2012-03-12 12:00:00,1420,60,0,0.0,0.0,0.0,60,0,0.0,0.0,0.0,60,0,0.0,0.0,0.0,60,0,0.0,0.0,337.4,60,0,342.9,323.3,0,0,0,28.1,60,0,10.2,60,0,10.4,10.1,7.4,60,0,7.6,7.1,3.9,60,0,4.6,3.0,64.6,60,0,69.0,60.0,28.1,60,0,39.0,18.0,239,0.0,1021.4,60,0,1021.4,0,1007.1,60,0,46.2,60,0
86282,2012-03-13 00:00:00,1430,60,0,0.0,0.0,0.0,60,0,0.0,0.0,0.0,60,0,0.0,0.0,0.0,60,0,0.0,0.0,337.4,60,0,342.9,323.3,0,0,0,28.1,60,0,10.2,60,0,10.4,10.1,7.4,60,0,7.6,7.1,3.9,60,0,4.6,3.0,64.6,60,0,69.0,60.0,28.1,60,0,39.0,18.0,239,0.0,1021.4,60,0,1021.4,0,1007.1,60,0,46.2,60,0
86282,2012-03-13 12:00:00,1440,60,0,0.0,0.0,0.0,60,0,0.0,0.0,0.0,60,0,0.0,0.0,0.0,60,0,0.0,0.0,337.4,60,0,342.9,323.3,0,0,0,28.1,60,0,10.2,60,0,10.4,10.1,7.4,60,0,7.6,7.1,3.9,60,0,4.6,3.0,64.6,60,0,69.0,60.0,28.1,60,0,39.0,18.0,239,0.0,1021.4,60,0,1021.4,0,1007.1,60,0,46.2,60,0
86282,2012-03-14 00:00:00,1450,60,0,0.0,0.0,0.0,60,0,0.0,0.0,0.0,60,0,0.0,0.0,0.0,60,0,0.0,0.0,337.4,60,0,342.9,323.3,0,0,0,28.1,60,0,10.2,60,0,10.4,10.1,7.4,60,0,7.6,7.1,3.9,60,0,4.6,3.0,64.6,60,0,69.0,60.0,28.1,60,0,39.0,18.0,239,0.0,1021.4,60,0,1021.4,0,1007.1,60,0,46.2,60,0
86282,2012-03-14 12:00:00,1460,60,0,0.0,0.0,0.0,60,0,0.0,0.0,0.0,60,0,0.0,0.0,0.0,60,0,0.0,0.0,337.4,60,0,342.9,323.3,0,0,0,28.1,60,0,10.2,60,0,10.4,10.1,7.4,60,0,7.6,7.1,3.9,60,0,4.6,3.0,64.6,60,0,69.0,60.0,28.1,60,0,39.0,18.0,239,0.0,1021.4,60,0,1021.4,0,1007.1,60,0,46.2,60,0
86282,2012-03-15 00:00:00,1470,60,0,0.0,0.0,0.0,60,0,0.0,0.0,0.0,60,0,0.0,0.0,0.0,60,0,0.0,0.0,337.4,60,0,342.9,323.3,0,0,0,28.1,60,0,10.2,60,0,10.4,10.1,7.4,60,0,7.6,7.1,3.9,60,0,4.6,3.0,64.6,60,0,69.0,60.0,28.1,60,0,39.0,18.0,239,0.0,1021.4,60,0,1021.4,0,1007.1,60,0,46.2,60,0
86282,2012-03-15 12:00:00,1480,60,0,0.0,0.0,0.0,60,0,0.0,0.0,0.0,60,0,0.0,0.0,0.0,60,0,0.0,0.0,337.4,60,0,342.9,323.3,0,0,0,28.1,60,0,10.2,60,0,10.4,10.1,7.4,60,0,7.6,7.1,3.9,60,0,4.6,3.0,64.6,60,0,69.0,60.0,28.1,60,0,39.0,18.0,239,0.0,1021.4,60,0,1021.4,0,1007.1,60,0,46.2,60,0
86282,2012-03-16 00:00:00,1490,60,0,0.0,0.0,0.0,60,0,0.0,0.0,0.0,60,0,0.0,0.0,0.0,60,0,0.0,0.0,337.4,60,0,342.9,323.3,0,0,0,28.1,60,0,10.2,60,0,10.4,10.1,7.4,60,0,7.6,7.1,3.9,60,0,4.6,3.0,64.6,60,0,69.0,60.0,28.1,60,0,39.0,18.0,239,0.0,1021.4,60,0,1021.4,0,1007.1,60,0,46.2,60,0
86282,2012-03-16 12:00:00,1500,60,0,0.0,0.0,0.0,60,0,0.0,0.0,0.0,60,0,0.0,0.0,0.0,60,0,0.0,0.0,337.4,60,0,342.9,323.3,0,0,0,28.1,60,0,10.2,60,0,10.4,10.1,7.4,60,0,7.6,7.1,3.9,60,0,4.6,3.0,64.6,60,0,69.0,60.0,28.1,60,0,39.0,18.0,239,0.0,1021.4,60,0,1021.4,0,1007.1,60,0,46.2,60,0
86282,2012-03-17 00:00:00,1510,60,0,0.0,0.0,0.0,60,0,0.0,0.0,0.0,60,0,0.0,0.0,0.0,60,0,0.0,0.0,337.4,60,0,342.9,323.3,0,0,0,28.1,60,0,10.2,60,0,10.4,10.1,7.4,60,0,7.6,7.1,3.9,60,0,4.6,3.0,64.6,60,0,69.0,60.0,28.1,60,0,39.0,18.0,239,0.0,1021.4,60,0,1021.4,0,1007.1,60,0,46.2,60,0
86282,2012-03-17 12:00:00,1520,60,0,0.0,0.0,0.0,60,0,0.0,0.0,0.0,60,0,0.0,0.0,0.0,60,0,0.0,0.0,337.4,60,0,342.9,323.3,0,0,0,28.1,60,0,10.2,60,0,10.4,10.1,7.4,60,0,7.6,7.1,3.9,60,0,4.6,3.0,64.6,60,0,69.0,60.0,28.1,60,0,39.0,18.0,239,0.0,1021.4,60,0,1021.4,0,1007.1,60,0,46.2,60,0
86282,2012-03-18 00:00:00,1530,60,0,0.0,0.0,0.0,60,0,0.0,0.0,0.0,60,0,0.0,0.0,0.0,60,0,0.0,0.0,337.4,60,0,342.9,323.3,0,0,0,28.1,60,0,10.2,60,0,10.4,10.1,7.4,60,0,7.6,7.1,3.9,60,0,4.6,3.0,64.6,60,0,69.0,60.0,28.1,60,0,39.0,18.0,239,0.0,1021.4,60,0,1021.4,0,1007.1,60,0,46.2,60,0
86282,2012-03-18 12:00:00,1540,60,0,0.0,0.0,0.0,60,0,0.0,0.0,0.0,60,0,0.0,0.0,0.0,60,0,0.0,0.0,337.4,60,0,342.9,323.3,0,0,0,28.1,60,0,10.2,60,0,10.4,10.1,7.4,60,0,7.6,7.1,3.9,60,0,4.6,3.0,64.6,60,0,69.0,60.0,28.1,60,0,39.0,18.0,239,0.0,1021.4,60,0,1021.4,0,1007.1,60,0,46.2,60,0
86282,2012-03-19 00:00:00,1550,60,0,0.0,0.0,0.0,60,0,0.0,0.0,0.0,60,0,0.0,0.0,0.0,60,0,0.0,0.0,337.4,60,0,342.9,323.3,0,0,0,28.1,60,0,10.2,60,0,10.4,10.1,7.4,60,0,7.6,7.1,3.9,60,0,4.6,3.0,64.6,60,0,69.0,60.0,28.1,60,0,39.0,18.0,239,0.0,1021.4,60,0,1021.4,0,1007.1,60,0,46.2,60,0
86282,2012-03-19 12:00:00,1560,60,0,0.0,0.0,0.0,60,0,0.0,0.0,0.0,60,0,0.0,0.0,0.0,60,0,0.0,0.0,337.4,60,0,342.9,323.3,0,0,0,28.1,60,0,10.2,60,0,10.4,10.1,7.4,60,0,7.6,7.1,3.9,60,0,4.6,3.0,64.6,60,0,69.0,60.0,28.1,60,0,39.0,18.0,239,0.0,1021.4,60,0,1021.4,0,1007.1,60,0,46.2,60,0
86282,2012-03-20 00:00:00,1570,60,0,0.0,0.0,0.0,60,0,0.0,0.0,0.0,60,0,0.0,0.0,0.0,60,0,0.0,0.0,337.4,60,0,342.9,323.3,0,0,0,28.1,60,0,10.2,60,0,10.4,10.1,7.4,60,0,7.6,7.1,3.9,60,0,4.6,3.0,64.6,60,0,69.0,60.0,28.1,60,0,39.0,18.0,239,0.0,1021.4,60,0,1021.4,0,1007.1,60,0,46.2,60,0
86282,2012-03-20 12:00:00,1580,60,0,0.0,0.0,0.0,60,0,0.0,0.0,0.0,60,0,0.0,0.0,0.0,60,0,0.0,0.0,337.4,60,0,342.9,323.3,0,0,0,28.1,60,0,10.2,60,0,10.4,10.1,7.4,60,0,7.6,7.1,3.9,60,0,4.6,3.0,64.6,60,0,69.0,60.0,28.1,60,0,39.0,18.0,239,0.0,1021.4,60,0,1021.4,0,1007.1,60,0,46.2,60,0
86282,2012-03-21 00:00:00,1590,60,0,0.0,0.0,0.0,60,0,0.0,0.0,0.0,60,0,0.0,0.0,0.0,60,0,0.0,0.0,337.4,60,0,342.9,323.3,0,0,0,28.1,60,0,10.2,60,0,10.4,10.1,7.4,60,0,7.6,7.1,3.9,60,0,4.6,3.0,64.6,60,0,69.0,60.0,28.1,60,0,39.0,18.0,239,0.0,1021.4,60,0,1021.4,0,1007.1,60,0,46.2,60,0
86282,2012-03-21 12:00:00,1600,60,0,0.0,0.0,0.0,60,0,0.0,0.0,0.0,60,0,0.0,0.0,0.0,60,0,0.0,0.0,337.4,60,0,342.9,323.3,0,0,0,28.1,60,0,10.2,60,0,10.4,10.1,7.4,60,0,7.6,7.1,3.9,60,0,4.6,3.0,64.6,60,0,69.0,60.0,28.1,60,0,39.0,18.0,239,0.0,1021.4,60,0,1021.4,0,1007.1,60,0,46.2,60,0
86282,2012-03-22 00:00:00,1610,60,0,0.0,0.0,0.0,60,0,0.0,0.0,0.0,60,0,0.0,0.0,0.0,60,0,0.0,0.0,337.4,60,0,342.9,323.3,0,0,0,28.1,60,0,10.2,60,0,10.4,10.1,7.4,60,0,7.6,7.1,3.9,60,0,4.6,3.0,64.6,60,0,69.0,60.0,28.1,60,0,39.0,18.0,239,0.0,1021.4,60,0,1021.4,0,1007.1,60,0,46.2,60,0
86282,2012-03-22 12:00:00,1620,60,0,0.0,0.0,0.0,60,0,0.0,0.0,0.0,60,0,0.0,0.0,0.0,60,0,0.0,0.0,337.4,60,0,342.9,323.3,0,0,0,28.1,60,0,10.2,60,0,10.4,10.1,7.4,60,0,7.6,7.1,3.9,60,0,4.6,3.0,64.6,60,0,69.0,60.0,28.1,60,0,39.0,18.0,239,0.0,1021.4,60,0,1021.4,0,1007.1,60,0,46.2,60,0
86282,2012-03-23 00:00:00,1630,60,0,0.0,0.0,0.0,60,0,0.0,0.0,0.0,60,0,0.0,0.0,0.0,60,0,0.0,0.0,337.4,60,0,342.9,323.3,0,0,0,28.1,60,0,10.2,60,0,10.4,10.1,7.4,60,0,7.6,7.1,3.9,60,0,4.6,3.0,64.6,60,0,69.0,60.0,28.1,60,0,39.0,18.0,239,0.0,1021.4,60,0,1021.4,0,1007.1,60,0,46.2,60,0
86282,2012-03-23 12:00:00,1640,60,0,0.0,0.0,0.0,60,0,0.0,0.0,0.0,60,0,0.0,0.0,0.0,60,0,0.0,0.0,337.4,60,0,342.9,323.3,0,0,0,28.1,60,0,10.2,60,0,10.4,10.1,7.4,60,0,7.6,7.1,3.9,60,0,4.6,3.0,64.6,60,0,69.0,60.0,28.1,60,0,39.0,18.0,239,0.0,1021.4,60,0,1021.4,0,1007.1,60,0,46.2,60,0
86282,2012-03-24 00:00:00,1650,60,0,0.0,0.0,0.0,60,0,0.0,0.0,0.0,60,0,0.0,0.0,0.0,60,0,0.0,0.0,337.4,60,0,342.9,323.3,0,0,0,28.1,60,0,10.2,60,0,10.4,10.1,7.4,60,0,7.6,7.1,3.9,60,0,4.6,3.0,64.6,60,0,69.0,60.0,28.1,60,0,39.0,18.0,239,0.0,1021.4,60,0,1021.4,0,1007.1,60,0,46.2,60,0
86282,2012-03-24 12:00:00,1660,60,0,0.0,0.0,0.0,60,0,0.0,0.0,0.0,60,0,0.0,0.0,0.0,60,0,0.0,0.0,337.4,60,0,342.9,323.3,0,0,0,28.1,60,0,10.2,60,0,10.4,10.1,7.4,60,0,7.6,7.1,3.9,60,0,4.6,3.0,64.6,60,0,69.0,60.0,28.1,60,0,39.0,18.0,239,0.0,1021.4,60,0,1021.4,0,1007.1,60,0,46.2,60,0
86282,2012-03-25 00:00:00,1670,60,0,0.0,0.0,0.0,60,0,0.0,0.0,0.0,60,0,0.0,0.0,0.0,60,0,0.0,0.0,337.4,60,0,342.9,323.3,0,0,0,28.1,60,0,10.2,60,0,10.4,10.1,7.4,60,0,7.6,7.1,3.9,60,0,4.6,3.0,64.6,60,0,69.0,60.0,28.1,60,0,39.0,18.0,239,0.0,1021.4,60,0,1021.4,0,1007.1,60,0,46.2,60,0
86282,2012-03-25 12:00:00,1680,60,0,0.0,0.0,0.0,60,0,0.0,0.0,0.0,60,0,0.0,0.0,0.0,60,0,0.0,0.0,337.4,60,0,342.9,323.3,0,0,0,28.1,60,0,10.2,60,0,10.4,10.1,7.4,60,0,7.6,7.1,3.9,60,0,4.6,3.0,64.6,60,0,69.0,60.0,28.1,60,0,39.0,18.0,239,0.0,1021.4,60,0,1021.4,0,1007.1,60,0,46.2,60,0
86282,2012-03-26 00:00:00,1690,60,0,0.0,0.0,0.0,60,0,0.0,0.0,0.0,60,0,0.0,0.0,0.0,60,0,0.0,0.0,337.4,60,0,342.9,323.3,0,0,0,28.1,60,0,10.2,60,0,10.4,10.1,7.4,60,0,7.6,7.1,3.9,60,0,4.6,3.0,64.6,60,0,69.0,60.0,28.1,60,0,39.0,18.0,239,0.0,1021.4,60,0,1021.4,0,1007.1,60,0,46.2,60,0
86282,2012-03-26 12:00:00,1700,60,0,0.0,0.0,0.0,60,0,0.0,0.0,0.0,60,0,0.0,0.0,0.0,60,0,0.0,0.0,337.4,60,0,342.9,323.3,0,0,0,28.1,60,0,10.2,60,0,10.4,10.1,7.4,60,0,7.6,7.1,3.9,60,0,4.6,3.0,64.6,60,0,69.0,60.0,28.1,60,0,39.0,18.0,239,0.0,1021.4,60,0,1021.4,0,1007.1,60,0,46.2,60,0
86282,2012-03-27 00:00:00,1710,60,0,0.0,0.0,0.0,60,0,0.0,0.0,0.0,60,0,0.0,0.0,0.0,60,0,0.0,0.0,337.4,60,0,342.9,323.3,0,0,0,28.1,60,0,10.2,60,0,10.4,10.1,7.4,60,0,7.6,7.1,3.9,60,0,4.6,3.0,64.6,60,0,69.0,60.0,28.1,60,0,39.0,18.0,239,0.0,1021.4,60,0,1021.4,0,1007.1,60,0,46.2,60,0
86282,2012-03-27 12:00:00,1720,60,0,0.0,0.0,0.0,60,0,0.0,0.0,0.0,60,0,0.0,0.0,0.0,60,0,0.0,0.0,337.4,60,0,342.9,323.3,0,0,0,28.1,60,0,10.2,60,0,10.4,10.1,7.4,60,0,7.6,7.1,3.9,60,0,4.6,3.0,64.6,60,0,69.0,60.0,28.1,60,0,39.0,18.0,239,0.0,1021.4,60,0,1021.4,0,1007.1,60,0,46.2,60,0
86282,2012-03-28 00:00:00,1730,60,0,0.0,0.0,0.0,60,0,0.0,0.0,0.0,60,0,0.0,0.0,0.0,60,0,0.0,0.0,337.4,60,0,342.9,323.3,0,0,0,28.1,60,0,10.2,60,0,10.4,10.1,7.4,60,0,7.6,7.1,3.9,60,0,4.6,3.0,64.6,60,0,69.0,60.0,28.1,60,0,39.0,18.0,239,0.0,1021.4,60,0,1021.4,0,1007.1,60,0,46.2,60,0
86282,2012-03-28 12:00:00,1740,60,0,0.0,0.0,0.0,60,0,0.0,0.0,0.0,60,0,0.0,0.0,0.0,60,0,0.0,0.0,337.4,60,0,342.9,323.3,0,0,0,28.1,60,0,10.2,60,0,10.4,10.1,7.4,60,0,7.6,7.1,3.9,60,0,4.6,3.0,64.6,60,0,69.0,60.0,28.1,60,0,39.0,18.0,239,0.0,1021.4,60,0,1021.4,0,1007.1,60,0,46.2,60,0
86282,2012-03-29 00:00:00,1750,60,0,0.0,0.0,0.0,60,0,0.0,0.0,0.0,60,0,0.0,0.0,0.0,60,0,0.0,0.0,337.4,60,0,342.9,323.3,0,0,0,28.1,60,0,10.2,60,0,10.4,10.1,7.4,60,0,7.6,7.1,3.9,60,0,4.6,3.0,64.6,60,0,69.0,60.0,28.1,60,0,39.0,18.0,239,0.0,1021.4,60,0,1021.4,0,1007.1,60,0,46.2,60,0
86282,2012-03-29 12:00:00,1760,60,0,0.0,0.0,0.0,60,0,0.0,0.0,0.0,60,0,0.0,0.0,0.0,60,0,0.0,0.0,337.4,60,0,342.9,323.3,0,0,0,28.1,60,0,10.2,60,0,10.4,10.1,7.4,60,0,7.6,7.1,3.9,60,0,4.6,3.0,64.6,60,0,69.0,60.0,28.1,60,0,39.0,18.0,239,0.0,1021.4,60,0,1021.4,0,1007.1,60,0,46.2,60,0
86282,2012-03-30 00:00:00,1770,60,0,0.0,0.0,0.0,60,0,0.0,0.0,0.0,60,0,0.0,0.0,0.0,60,0,0.0,0.0,337.4,60,0,342.9,323.3,0,0,0,28.1,60,0,10.2,60,0,10.4,10.1,7.4,60,0,7.6,7.1,3.9,60,0,4.6,3.0,64.6,60,0,69.0,60.0,28.1,60,0,39.0,18.0,239,0.0,1021.4,60,0,1021.4,0,1007.1,60,0,46.2,60,0
86282,2012-03-30 12:00:00,1780,60,0,0.0,0.0,0.0,60,0,0.0,0.0,0.0,60,0,0.0,0.0,0.0,60,0,0.0,0.0,337.4,60,0,342.9,323.3,0,0,0,28.1,60,0,10.2,60,0,10.4,10.1,7.4,60,0,7.6,7.1,3.9,60,0,4.6,3.0,64.6,60,0,69.0,60.0,28.1,60,0,39.0,18.0,239,0.0,1021.4,60,0,1021.4,0,1007.1,60,0,46.2,60,0
86282,2012-03-31 00:00:00,1790,60,0,0.0,0.0,0.0,60,0,0.0,0.0,0.0,60,0,0.0,0.0,0.0,60,0,0.0,0.0,337.4,60,0,342.9,323.3,0,0,0,28.1,60,0,10.2,60,0,10.4,10.1,7.4,60,0,7.6,7.1,3.9,60,0,4.6,3.0,64.6,60,0,69.0,60.0,28.1,60,0,39.0,18.0,239,0.0,1021.4,60,0,1021.4,0,1007.1,60,0,46.2,60,0
86282,2012-03-31 12:00:00,1800,60,0,0.0,0.0,0.0,60,0,0.0,0.0,0.0,60,0,0.0,0.0,0.0,60,0,0.0,0.0,337.4,60,0,342.9,323.3,0,0,0,28.1,60,0,10.2,60,0,10.4,10.1,7.4,60,0,7.6,7.1,3.9,60,0,4.6,3.0,64.6,60,0,69.0,60.0,28.1,60,0,39.0,18.0,239,0.0,1021.4,60,0,1021.4,0,1007.1,60,0,46.2,60,0
86282,2012-04-01 00:00:00,1810,60,0,0.0,0.0,0.0,60,0,0.0,0.0,0.0,60,0,0.0,0.0,0.0,60,0,0.0,0.0,337.4,60,0,342.9,323.3,0,0,0,28.1,60,0,10.2,60,0,10.4,10.1,7.4,60,0,7.6,7.1,3.9,60,0,4.6,3.0,64.6,60,0,69.0,60.0,28.1,60,0,39.0,18.0,239,0.0,1021.4,60,0,1021.4,0,1007.1,60,0,46.2,60,0
86282,2012-04-01 12:00:00,1820,60,0,0.0,0.0,0.0,60,0,0.0,0.0,0.0,60,0,0.0,0.0,0.0,60,0,0.0,0.0,337.4,60,0,342.9,323.3,0,0,0,28.1,60,0,10.2,60,0,10.4,10.1,7.4,60,0,7.6,7.1,3.9,60,0,4.6,3.0,64.6,60,0,69.0,60.0,28.1,60,0,39.0,18.0,239,0.0,1021.4,60,0,1021.4,0,1007.1,60,0,46.2,60,0
86282,2012-04-02 00:00:00,1830,60,0,0.0,0.0,0.0,60,0,0.0,0.0,0.0,60,0,0.0,0.0,0.0,60,0,0.0,0.0,337.4,60,0,342.9,323.3,0,0,0,28.1,60,0,10.2,60,0,10.4,10.1,7.4,60,0,7.6,7.1,3.9,60,0,4.6,3.0,64.6,60,0,69.0,60.0,28.1,60,0,39.0,18.0,239,0.0,1021.4,60,0,1021.4,0,1007.1,60,0,46.2,60,0
86282,2012-04-02 12:00:00,1840,60,0,0.0,0.0,0.0,60,0,0.0,0.0,0.0,60,0,0.0,0.0,0.0,60,0,0.0,0.0,337.4,60,0,342.9,323.3,0,0,0,28.1,60,0,10.2,60,0,10.4,10.1,7.4,60,0,7.6,7.1,3.9,60,0,4.6,3.0,64.6,60,0,69.0,60.0,28.1,60,0,39.0,18.0,239,0.0,1021.4,60,0,1021.4,0,1007.1,60,0,46.2,60,0
86282,2012-04-03 00:00:00,1850,60,0,0.0,0.0,0.0,60,0,0.0,0.0,0.0,60,0,0.0,0.0,0.0,60,0,0.0,0.0,337.4,60,0,342.9,323.3,0,0,0,28.1,60,0,10.2,60,0,10.4,10.1,7.4,60,0,7.6,7.1,3.9,60,0,4.6,3.0,64.6,60,0,69.0,60.0,28.1,60,0,39.0,18.0,239,0.0,1021.4,60,0,1021.4,0,1007.1,60,0,46.2,60,0
86282,2012-04-03 12:00:00,1860,60,0,0.0,0.0,0.0,60,0,0.0,0.0,0.0,60,0,0.0,0.0,0.0,60,0,0.0,0.0,337.4,60,0,342.9,323.3,0,0,0,28.1,60,0,10.2,60,0,10.4,10.1,7.4,60,0,7.6,7.1,3.9,60,0,4.6,3.0,64.6,60,0,69.0,60.0,28.1,60,0,39.0,18.0,239,0.0,1021.4,60,0,1021.4,0,1007.1,60,0,46.2,60,0
86282,2012-04-04 00:00:00,1870,60,0,0.0,0.0,0.0,60,0,0.0,0.0,0.0,60,0,0.0,0.0,0.0,60,0,0.0,0.0,337.4,60,0,342.9,323.3,0,0,0,28.1,60,0,10.2,60,0,10.4,10.1,7.4,60,0,7.6,7.1,3.9,60,0,4.6,3.0,64.6,60,0,69.0,60.0,28.1,60,0,39.0,18.0,239,0.0,1021.4,60,0,1021.4,0,1007.1,60,0,46.2,60,0
86282,2012-04-04 12:00:00,1880,60,0,0.0,0.0,0.0,60,0,0.0,0.0,0.0,60,0,0.0,0.0,0.0,60,0,0.0,0.0,337.4,60,0,342.9,323.3,0,0,0,28.1,60,0,10.2,60,0,10.4,10.1,7.4,60,0,7.6,7.1,3.9,60,0,4.6,3.0,64.6,60,0,69.0,60.0,28.1,60,0,39.0,18.0,239,0.0,1021.4,60,0,1021.4,0,1007.1,60,0,46.2,60,0
86282,2012-04-05 00:00:00,1890,60,0,0.0,0.0,0.0,60,0,0.0,0.0,0.0,60,0,0.0,0.0,0.0,60,0,0.0,0.0,337.4,60,0,342.9,323.3,0,0,0,28.1,60,0,10.2,60,0,10.4,10.1,7.4,60,0,7.6,7.1,3.9,60,0,4.6,3.0,64.6,60,0,69.0,60.0,28.1,60,0,39.0,18.0,239,0.0,1021.4,60,0,1021.4,0,1007.1,60,0,46.2,60,0
86282,2012-04-05 12:00:00,1900,60,0,0.0,0.0,0.0,60,0,0.0,0.0,0.0,60,0,0.0,0.0,0.0,60,0,0.0,0.0,337.4,60,0,342.9,323.3,0,0,0,28.1,60,0,10.2,60,0,10.4,10.1,7.4,60,0,7.6,7.1,3.9,60,0,4.6,3.0,64.6,60,0,69.0,60.0,28.1,60,0,39.0,18.0,239,0.0,1021.4,60,0,1021.4,0,1007.1,60,0,46.2,60,0
86282,2012-04-06 00:00:00,1910,60,0,0.0,0.0,0.0,60,0,0.0,0.0,0.0,60,0,0.0,0.0,0.0,60,0,0.0,0.0,337.4,60,0,342.9,323.3,0,0,0,28.1,60,0,10.2,60,0,10.4,10.1,7.4,60,0,7.6,7.1,3.9,60,0,4.6,3.0,64.6,60,0,69.0,60.0,28.1,60,0,39.0,18.0,239,0.0,1021.4,60,0,1021.4,0,1007.1,60,0,46.2,60,0
86282,2012-04-06 12:00:00,1920,60,0,0.0,0.0,0.0,60,0,0.0,0.0,0.0,60,0,0.0,0.0,0.0,60,0,0.0,0.0,337.4,60,0,342.9,323.3,0,0,0,28.1,60,0,10.2,60,0,10.4,10.1,7.4,60,0,7.6,7.1,3.9,60,0,4.6,3.0,64.6,60,0,69.0,60.0,28.1,60,0,39.0,18.0,239,0.0,1021.4,60,0,1021.4,0,1007.1,60,0,46.2,60,0
86282,2012-04-07 00:00:00,1930,60,0,0.0,0.0,0.0,60,0,0.0,0.0,0.0,60,0,0.0,0.0,0.0,60,0,0.0,0.0,337.4,60,0,342.9,323.3,0,0,0,28.1,60,0,10.2,60,0,10.4,10.1,7.4,60,0,7.6,7.1,3.9,60,0,4.6,3.0,64.6,60,0,69.0,60.0,28.1,60,0,39.0,18.0,239,0.0,1021.4,60,0,1021.4,0,1007.1,60,0,46.2,60,0
86282,2012-04-07 12:00:00,1940,60,0,0.0,0.0,0.0,60,0,0.0,0.0,0.0,60,0,0.0,0.0,0.0,60,0,0.0,0.0,337.4,60,0,342.9,323.3,0,0,0,28.1,60,0,10.2,60,0,10.4,10.1,7.4,60,0,7.6,7.1,3.9,60,0,4.6,3.0,64.6,60,0,69.0,60.0,28.1,60,0,39.0,18.0,239,0.0,1021.4,60,0,1021.4,0,1007.1,60,0,46.2,60,0
86282,2012-04-08 00:00:00,1950,60,0,0.0,0.0,0.0,60,0,0.0,0.0,0.0,60,0,0.0,0.0,0.0,60,0,0.0,0.0,337.4,60,0,342.9,323.3,0,0,0,28.1,60,0,10.2,60,0,10.4,10.1,7.4,60,0,7.6,7.1,3.9,60,0,4.6,3.0,64.6,60,0,69.0,60.0,28.1,60,0,39.0,18.0,239,0.0,1021.4,60,0,1021.4,0,1007.1,60,0,46.2,60,0
86282,2012-04-08 12:00:00,1960,60,0,0.0,0.0,0.0,60,0,0.0,0.0,0.0,60,0,0.0,0.0,0.0,60,0,0.0,0.0,337.4,60,0,342.9,323.3,0,0,0,28.1,60,0,10.2,60,0,10.4,10.1,7.4,60,0,7.6,7.1,3.9,60,0,4.6,3.0,64.6,60,0,69.0,60.0,28.1,60,0,39.0,18.0,239,0.0,1021.4,60,0,1021.4,0,1007.1,60,0,46.2,60,0
86282,2012-04-09 00:00:00,1970,60,0,0.0,0.0,0.0,60,0,0.0,0.0,0.0,60,0,0.0,0.0,0.0,60,0,0.0,0.0,337.4,60,0,342.9,323.3,0,0,0,28.1,60,0,10.2,60,0,10.4,10.1,7.4,60,0,7.6,7.1,3.9,60,0,4.6,3.0,64.6,60,0,69.0,60.0,28.1,60,0,39.0,18.0,239,0.0,1021.4,60,0,1021.4,0,1007.1,60,0,46.2,60,0
86282,2012-04-09 12:00:00,1980,60,0,0.0,0.0,0.0,60,0,0.0,0.0,0.0,60,0,0.0,0.0,0.0,60,0,0.0,0.0,337.4,60,0,342.9,323.3,0,0,0,28.1,60,0,10.2,60,0,10.4,10.1,7.4,60,0,7.6,7.1,3.9,60,0,4.6,3.0,64.6,60,0,69.0,60.0,28.1,60,0,39.0,18.0,239,0.0,1021.4,60,0,1021.4,0,1007.1,60,0,46.2,60,0
86282,2012-04-10 00:00:00,1990,60,0,0.0,0.0,0.0,60,0,0.0,0.0,0.0,60,0,0.0,0.0,0.0,60,0,0.0,0.0,337.4,60,0,342.9,323.3,0,0,0,28.1,60,0,10.2,60,0,10.4,10.1,7.4,60,0,7.6,7.1,3.9,60,0,4.6,3.0,64.6,60,0,69.0,60.0,28.1,60,0,39.0,18.0,239,0.0,1021.4,60,0,1021.4,0,1007.1,60,0,46.2,60,0
86282,2012-04-10 12:00:00,2000,60,0,0.0,0.0,0.0,60,0,0.0,0.0,0.0,60,0,0.0,0.0,0.0,60,0,0.0,0.0,337.4,60,0,342.9,323.3,0,0,0,28.1,60,0,10.2,60,0,10.4,10.1,7.4,60,0,7.6,7.1,3.9,60,0,4.6,3.0,64.6,60,0,69.0,60.0,28.1,60,0,39.0,18.0,239,0.0,1021.4,60,0,1021.4,0,1007.1,60,0,46.2,60,0
86282,2012-04-11 00:00:00,2010,60,0,0.0,0.0,0.0,60,0,0.0,0.0,0.0,60,0,0.0,0.0,0.0,60,0,0.0,0.0,337.4,60,0,342.9,323.3,0,0,0,28.1,60,0,10.2,60,0,10.4,10.1,7.4,60,0,7.6,7.1,3.9,60,0,4.6,3.0,64.6,60,0,69.0,60.0,28.1,60,0,39.0,18.0,239,0.0,1021.4,60,0,1021.4,0,1007.1,60,0,46.2,60,0
86282,2012-04-11 12:00:00,2020,60,0,0.0,0.0,0.0,60,0,0.0,0.0,0.0,60,0,0.0,0.0,0.0,60,0,0.0,0.0,337.4,60,0,342.9,323.3,0,0,0,28.1,60,0,10.2,60,0,10.4,10.1,7.4,60,0,7.6,7.1,3.9,60,0,4.6,3.0,64.6,60,0,69.0,60.0,28.1,60,0,39.0,18.0,239,0.0,1021.4,60,0,1021.4,0,1007.1,60,0,46.2,60,0
86282,2012-04-12 00:00:00,2030,60,0,0.0,0.0,0.0,60,0,0.0,0.0,0.0,60,0,0.0,0.0,0.0,60,0,0.0,0.0,337.4,60,0,342.9,323.3,0,0,0,28.1,60,0,10.2,60,0,10.4,10.1,7.4,60,0,7.6,7.1,3.9,60,0,4.6,3.0,64.6,60,0,69.0,60.0,28.1,60,0,39.0,18.0,239,0.0,1021.4,60,0,1021.4,0,1007.1,60,0,46.2,60,0
86282,2012-04-12 12:00:00,2040,60,0,0.0,0.0,0.0,60,0,0.0,0.0,0.0,60,0,0.0,0.0,0.0,60,0,0.0,0.0,337.4,60,0,342.9,323.3,0,0,0,28.1,60,0,10.2,60,0,10.4,10.1,7.4,60,0,7.6,7.1,3.9,60,0,4.6,3.0,64.6,60,0,69.0,60.0,28.1,60,0,39.0,18.0,239,0.0,1021.4,60,0,1021.4,0,1007.1,60,0,46.2,60,0
86282,2012-04-13 00:00:00,2050,60,0,0.0,0.0,0.0,60,0,0.0,0.0,0.0,60,0,0.0,0.0,0.0,60,0,0.0,0.0,337.4,60,0,342.9,323.3,0,0,0,28.1,60,0,10.2,60,0,10.4,10.1,7.4,60,0,7.6,7.1,3.9,60,0,4.6,3.0,64.6,60,0,69.0,60.0,28.1,60,0,39.0,18.0,239,0.0,1021.4,60,0,1021.4,0,1007.1,60,0,46.2,60,0
86282,2012-04-13 12:00:00,2060,60,0,0.0,0.0,0.0,60,0,0.0,0.0,0.0,60,0,0.0,0.0,0.0,60,0,0.0,0.0,337.4,60,0,342.9,323.3,0,0,0,28.1,60,0,10.2,60,0,10.4,10.1,7.4,60,0,7.6,7.1,3.9,60,0,4.6,3.0,64.6,60,0,69.0,60.0,28.1,60,0,39.0,18.0,239,0.0,1021.4,60,0,1021.4,0,1007.1,60,0,46.2,60,0
86282,2012-04-14 00:00:00,2070,60,0,0.0,0.0,0.0,60,0,0.0,0.0,0.0,60,0,0.0,0.0,0.0,60,0,0.0,0.0,337.4,60,0,342.9,323.3,0,0,0,28.1,60,0,10.2,60,0,10.4,10.1,7.4,60,0,7.6,7.1,3.9,60,0,4.6,3.0,64.6,60,0,69.0,60.0,28.1,60,0,39.0,18.0,239,0.0,1021.4,60,0,1021.4,0,1007.1,60,0,46.2,60,0
86282,2012-04-14 12:00:00,2080,60,0,0.0,0.0,0.0,60,0,0.0,0.0,0.0,60,0,0.0,0.0,0.0,60,0,0.0,0.0,337.4,60,0,342.9,323.3,0,0,0,28.1,60,0,10.2,60,0,10.4,10.1,7.4,60,0,7.6,7.1,3.9,60,0,4.6,3.0,64.6,60,0,69.0,60.0,28.1,60,0,39.0,18.0,239,0.0,1021.4,60,0,1021.4,0,1007.1,60,0,46.2,60,0
86282,2012-04-15 00:00:00,2090,60,0,0.0,0.0,0.0,60,0,0.0,0.0,0.0,60,0,0.0,0.0,0.0,60,0,0.0,0.0,337.4,60,0,342.9,323.3,0,0,0,28.1,60,0,10.2,60,0,10.4,10.1,7.4,60,0,7.6,7.1,3.9,60,0,4.6,3.0,64.6,60,0,69.0,60.0,28.1,60,0,39.0,18.0,239,0.0,1021.4,60,0,1021.4,0,1007.1,60,0,46.2,60,0
86282,2012-04-15 12:00:00,2100,60,0,0.0,0.0,0.0,60,0,0.0,0.0,0.0,60,0,0.0,0.0,0.0,60,0,0.0,0.0,337.4,60,0,342.9,323.3,0,0,0,28.1,60,0,10.2,60,0,10.4,10.1,7.4,60,0,7.6,7.1,3.9,60,0,4.6,3.0,64.6,60,0,69.0,60.0,28.1,60,0,39.0,18.0,239,0.0,1021.4,60,0,1021.4,0,1007.1,60,0,46.2,60,0
86282,2012-04-16 00:00:00,2110,60,0,0.0,0.0,0.0,60,0,0.0,0.0,0.0,60,0,0.0,0.0,0.0,60,0,0.0,0.0,337.4,60,0,342.9,323.3,0,0,0,28.1,60,0,10.2,60,0,10.4,10.1,7.4,60,0,7.6,7.1,3.9,60,0,4.6,3.0,64.6,60,0,69.0,60.0,28.1,60,0,39.0,18.0,239,0.0,1021.4,60,0,1021.4,0,1007.1,60,0,46.2,60,0
86282,2012-04-16 12:00:00,2120,60,0,0.0,0.0,0.0,60,0,0.0,0.0,0.0,60,0,0.0,0.0,0.0,60,0,0.0,0.0,337.4,60,0,342.9,323.3,0,0,0,28.1,60,0,10.2,60,0,10.4,10.1,7.4,60,0,7.6,7.1,3.9,60,0,4.6,3.0,64.6,60,0,69.0,60.0,28.1,60,0,39.0,18.0,239,0.0,1021.4,60,0,1021.4,0,1007.1,60,0,46.2,60,0
86282,2012-04-17 00:00:00,2130,60,0,0.0,0.0,0.0,60,0,0.0,0.0,0.0,60,0,0.0,0.0,0.0,60,0,0.0,0.0,337.4,60,0,342.9,323.3,0,0,0,28.1,60,0,10.2,60,0,10.4,10.1,7.4,60,0,7.6,7.1,3.9,60,0,4.6,3.0,64.6,60,0,69.0,60.0,28.1,60,0,39.0,18.0,239,0.0,1021.4,60,0,1021.4,0,1007.1,60,0,46.2,60,0
86282,2012-04-17 12:00:00,2140,60,0,0.0,0.0,0.0,60,0,0.0,0.0,0.0,60,0,0.0,0.0,0.0,60,0,0.0,0.0,337.4,60,0,342.9,323.3,0,0,0,28.1,60,0,10.2,60,0,10.4,10.1,7.4,60,0,7.6,7.1,3.9,60,0,4.6,3.0,64.6,60,0,69.0,60.0,28.1,60,0,39.0,18.0,239,0.0,1021.4,60,0,1021.4,0,1007.1,60,0,46.2,60,0
86282,2012-04-18 00:00:00,2150,60,0,0.0,0.0,0.0,60,0,0.0,0.0,0.0,60,0,0.0,0.0,0.0,60,0,0.0,0.0,337.4,60,0,342.9,323.3,0,0,0,28.1,60,0,10.2,60,0,10.4,10.1,7.4,60,0,7.6,7.1,3.9,60,0,4.6,3.0,64.6,60,0,69.0,60.0,28.1,60,0,39.0,18.0,239,0.0,1021.4,60,0,1021.4,0,1007.1,60,0,46.2,60,0
86282,2012-04-18 12:00:00,2160,60,0,0.0,0.0,0.0,60,0,0.0,0.0,0.0,60,0,0.0,0.0,0.0,60,0,0.0,0.0,337.4,60,0,342.9,323.3,0,0,0,28.1,60,0,10.2,60,0,10.4,10.1,7.4,60,0,7.6,7.1,3.9,60,0,4.6,3.0,64.6,60,0,69.0,60.0,28.1,60,0,39.0,18.0,239,0.0,1021.4,60,0,1021.4,0,1007.1,60,0,46.2,60,0
86282,2012-04-19 00:00:00,2170,60,0,0.0,0.0,0.0,60,0,0.0,0.0,0.0,60,0,0.0,0.0,0.0,60,0,0.0,0.0,337.4,60,0,342.9,323.3,0,0,0,28.1,60,0,10.2,60,0,10.4,10.1,7.4,60,0,7.6,7.1,3.9,60,0,4.6,3.0,64.6,60,0,69.0,60.0,28.1,60,0,39.0,18.0,239,0.0,1021.4,60,0,1021.4,0,1007.1,60,0,46.2,60,0
86282,2012-04-19 12:00:00,2180,60,0,0.0,0.0,0.0,60,0,0.0,0.0,0.0,60,0,0.0,0.0,0.0,60,0,0.0,0.0,337.4,60,0,342.9,323.3,0,0,0,28.1,60,0,10.2,60,0,10.4,10.1,7.4,60,0,7.6,7.1,3.9,60,0,4.6,3.0,64.6,60,0,69.0,60.0,28.1,60,0,39.0,18.0,239,0.0,1021.4,60,0,1021.4,0,1007.1,60,0,46.2,60,0
86282,2012-04-20 00:00:00,2190,60,0,0.0,0.0,0.0,60,0,0.0,0.0,0.0,60,0,0.0,0.0,0.0,60,0,0.0,0.0,337.4,60,0,342.9,323.3,0,0,0,28.1,60,0,10.2,60,0,10.4,10.1,7.4,60,0,7.6,7.1,3.9,60,0,4.6,3.0,64.6,60,0,69.0,60.0,28.1,60,0,39.0,18.0,239,0.0,1021.4,60,0,1021.4,0,1007.1,60,0,46.2,60,0
86282,2012-04-20 12:00:00,2200,60,0,0.0,0.0,0.0,60,0,0.0,0.0,0.0,60,0,0.0,0.0,0.0,60,0,0.0,0.0,337.4,60,0,342.9,323.3,0,0,0,28.1,60,0,10.2,60,0,10.4,10.1,7.4,60,0,7.6,7.1,3.9,60,0,4.6,3.0,64.6,60,0,69.0,60.0,28.1,60,0,39.0,18.0,239,0.0,1021.4,60,0,1021.4,0,1007.1,60,0,46.2,60,0
86282,2012-04-21 00:00:00,2210,60,0,0.0,0.0,0.0,60,0,0.0,0.0,0.0,60,0,0.0,0.0,0.0,60,0,0.0,0.0,337.4,60,0,342.9,323.3,0,0,0,28.1,60,0,10.2,60,0,10.4,10.1,7.4,60,0,7.6,7.1,3.9,60,0,4.6,3.0,64.6,60,0,69.0,60.0,28.1,60,0,39.0,18.0,239,0.0,1021.4,60,0,1021.4,0,1007.1,60,0,46.2,60,0
86282,2012-04-21 12:00:00,2220,60,0,0.0,0.0,0.0,60,0,0.0,0.0,0.0,60,0,0.0,0.0,0.0,60,0,0.0,0.0,337.4,60,0,342.9,323.3,0,0,0,28.1,60,0,10.2,60,0,10.4,10.1,7.4,60,0,7.6,7.1,3.9,60,0,4.6,3.0,64.6,60,0,69.0,60.0,28.1,60,0,39.0,18.0,239,0.0,1021.4,60,0,1021.4,0,1007.1,60,0,46.2,60,0
86282,2012-04-22 00:00:00,2230,60,0,0.0,0.0,0.0,60,0,0.0,0.0,0.0,60,0,0.0,0.0,0.0,60,0,0.0,0.0,337.4,60,0,342.9,323.3,0,0,0,28.1,60,0,10.2,60,0,10.4,10.1,7.4,60,0,7.6,7.1,3.9,60,0,4.6,3.0,64.6,60,0,69.0,60.0,28.1,60,0,39.0,18.0,239,0.0,1021.4,60,0,1021.4,0,1007.1,60,0,46.2,60,0
86282,2012-04-22 12:00:00,2240,60,0,0.0,0.0,0.0,60,0,0.0,0.0,0.0,60,0,0.0,0.0,0.0,60,0,0.0,0.0,337.4,60,0,342.9,323.3,0,0,0,28.1,60,0,10.2,60,0,10.4,10.1,7.4,60,0,7.6,7.1,3.9,60,0,4.6,3.0,64.6,60,0,69.0,60.0,28.1,60,0,39.0,18.0,239,0.0,1021.4,60,0,1021.4,0,1007.1,60,0,46.2,60,0
86282,2012-04-23 00:00:00,2250,60,0,0.0,0.0,0.0,60,0,0.0,0.0,0.0,60,0,0.0,0.0,0.0,60,0,0.0,0.0,337.4,60,0,342.9,323.3,0,0,0,28.1,60,0,10.2,60,0,10.4,10.1,7.4,60,0,7.6,7.1,3.9,60,0,4.6,3.0,64.6,60,0,69.0,60.0,28.1,60,0,39.0,18.0,239,0.0,1021.4,60,0,1021.4,0,1007.1,60,0,46.2,60,0
86282,2012-04-23 12:00:00,2260,60,0,0.0,0.0,0.0,60,0,0.0,0.0,0.0,60,0,0.0,0.0,0.0,60,0,0.0,0.0,337.4,60,0,342.9,323.3,0,0,0,28.1,60,0,10.2,60,0,10.4,10.1,7.4,60,0,7.6,7.1,3.9,60,0,4.6,3.0,64.6,60,0,69.0,60.0,28.1,60,0,39.0,18.0,239,0.0,1021.4,60,0,1021.4,0,1007.1,60,0,46.2,60,0
86282,2012-04-24 00:00:00,2270,60,0,0.0,0.0,0.0,60,0,0.0,0.0,0.0,60,0,0.0,0.0,0.0,60,0,0.0,0.0,337.4,60,0,342.9,323.3,0,0,0,28.1,60,0,10.2,60,0,10.4,10.1,7.4,60,0,7.6,7.1,3.9,60,0,4.6,3.0,64.6,60,0,69.0,60.0,28.1,60,0,39.0,18.0,239,0.0,1021.4,60,0,1021.4,0,1007.1,60,0,46.2,60,0
86282,2012-04-24 12:00:00,2280,60,0,0.0,0.0,0.0,60,0,0.0,0.0,0.0,60,0,0.0,0.0,0.0,60,0,0.0,0.0,337.4,60,0,342.9,323.3,0,0,0,28.1,60,0,10.2,60,0,10.4,10.1,7.4,60,0,7.6,7.1,3.9,60,0,4.6,3.0,64.6,60,0,69.0,60.0,28.1,60,0,39.0,18.0,239,0.0,1021.4,60,0,1021.4,0,1007.1,60,0,46.2,60,0
86282,2012-04-25 00:00:00,2290,60,0,0.0,0.0,0.0,60,0,0.0,0.0,0.0,60,0,0.0,0.0,0.0,60,0,0.0,0.0,337.4,60,0,342.9,323.3,0,0,0,28.1,60,0,10.2,60,0,10.4,10.1,7.4,60,0,7.6,7.1,3.9,60,0,4.6,3.0,64.6,60,0,69.0,60.0,28.1,60,0,39.0,18.0,239,0.0,1021.4,60,0,1021.4,0,1007.1,60,0,46.2,60,0
86282,2012-04-25 12:00:00,2300,60,0,0.0,0.0,0.0,60,0,0.0,0.0,0.0,60,0,0.0,0.0,0.0,60,0,0.0,0.0,337.4,60,0,342.9,323.3,0,0,0,28.1,60,0,10.2,60,0,10.4,10.1,7.4,60,0,7.6,7.1,3.9,60,0,4.6,3.0,64.6,60,0,69.0,60.0,28.1,60,0,39.0,18.0,239,0.0,1021.4,60,0,1021.4,0,1007.1,60,0,46.2,60,0
86282,2012-04-26 00:00:00,2310,60,0,0.0,0.0,0.0,60,0,0.0,0.0,0.0,60,0,0.0,0.0,0.0,60,0,0.0,0.0,337.4,60,0,342.9,323.3,0,0,0,28.1,60,0,10.2,60,0,10.4,10.1,7.4,60,0,7.6,7.1,3.9,60,0,4.6,3.0,64.6,60,0,69.0,60.0,28.1,60,0,39.0,18.0,239,0.0,1021.4,60,0,1021.4,0,1007.1,60,0,46.2,60,0
86282,2012-04-26 12:00:00,2320,60,0,0.0,0.0,0.0,60,0,0.0,0.0,0.0,60,0,0.0,0.0,0.0,60,0,0.0,0.0,337.4,60,0,342.9,323.3,0,0,0,28.1,60,0,10.2,60,0,10.4,10.1,7.4,60,0,7.6,7.1,3.9,60,0,4.6,3.0,64.6,60,0,69.0,60.0,28.1,60,0,39.0,18.0,239,0.0,1021.4,60,0,1021.4,0,1007.1,60,0,46.2,60,0
86282,2012-04-27 00:00:00,2330,60,0,0.0,0.0,0.0,60,0,0.0,0.0,0.0,60,0,0.0,0.0,0.0,60,0,0.0,0.0,337.4,60,0,342.9,323.3,0,0,0,28.1,60,0,10.2,60,0,10.4,10.1,7.4,60,0,7.6,7.1,3.9,60,0,4.6,3.0,64.6,60,0,69.0,60.0,28.1,60,0,39.0,18.0,239,0.0,1021.4,60,0,1021.4,0,1007.1,60,0,46.2,60,0
86282,2012-04-27 12:00:00,2340,60,0,0.0,0.0,0.0,60,0,0.0,0.0,0.0,60,0,0.0,0.0,0.0,60,0,0.0,0.0,337.4,60,0,342.9,323.3,0,0,0,28.1,60,0,10.2,60,0,10.4,10.1,7.4,60,0,7.6,7.1,3.9,60,0,4.6,3.0,64.6,60,0,69.0,60.0,28.1,60,0,39.0,18.0,239,0.0,1021.4,60,0,1021.4,0,1007.1,60,0,46.2,60,0
86282,2012-04-28 00:00:00,2350,60,0,0.0,0.0,0.0,60,0,0.0,0.0,0.0,60,0,0.0,0.0,0.0,60,0,0.0,0.0,337.4,60,0,342.9,323.3,0,0,0,28.1,60,0,10.2,60,0,10.4,10.1,7.4,60,0,7.6,7.1,3.9,60,0,4.6,3.0,64.6,60,0,69.0,60.0,28.1,60,0,39.0,18.0,239,0.0,1021.4,60,0,1021.4,0,1007.1,60,0,46.2,60,0
86282,2012-04-28 12:00:00,2360,60,0,0.0,0.0,0.0,60,0,0.0,0.0,0.0,60,0,0.0,0.0,0.0,60,0,0.0,0.0,337.4,60,0,342.9,323.3,0,0,0,28.1,60,0,10.2,60,0,10.4,10.1,7.4,60,0,7.6,7.1,3.9,60,0,4.6,3.0,64.6,60,0,69.0,60.0,28.1,60,0,39.0,18.0,239,0.0,1021.4,60,0,1021.4,0,1007.1,60,0,46.2,60,0
86282,2012-04-29 00:00:00,2370,60,0,0.0,0.0,0.0,60,0,0.0,0.0,0.0,60,0,0.0,0.0,0.0,60,0,0.0,0.0,337.4,60,0,342.9,323.3,0,0,0,28.1,60,0,10.2,60,0,10.4,10.1,7.4,60,0,7.6,7.1,3.9,60,0,4.6,3.0,64.6,60,0,69.0,60.0,28.1,60,0,39.0,18.0,239,0.0,1021.4,60,0,1021.4,0,1007.1,60,0,46.2,60,0
86282,2012-04-29 12:00:00,2380,60,0,0.0,0.0,0.0,60,0,0.0,0.0,0.0,60,0,0.0,0.0,0.0,60,0,0.0,0.0,337.4,60,0,342.9,323.3,0,0,0,28.1,60,0,10.2,60,0,10.4,10.1,7.4,60,0,7.6,7.1,3.9,60,0,4.6,3.0,64.6,60,0,69.0,60.0,28.1,60,0,39.0,18.0,239,0.0,1021.4,60,0,1021.4,0,1007.1,60,0,46.2,60,0
86282,2012-04-30 00:00:00,2390,60,0,0.0,0.0,0.0,60,0,0.0,0.0,0.0,60,0,0.0,0.0,0.0,60,0,0.0,0.0,337.4,60,0,342.9,323.3,0,0,0,28.1,60,0,10.2,60,0,10.4,10.1,7.4,60,0,7.6,7.1,3.9,60,0,4.6,3.0,64.6,60,0,69.0,60.0,28.1,60,0,39.0,18.0,239,0.0,1021.4,60,0,1021.4,0,1007.1,60,0,46.2,60,0
86282,2012-04-30 12:00:00,2400,60,0,0.0,0.0,0.0,60,0,0.0,0.0,0.0,60,0,0.0,0.0,0.0,60,0,0.0,0.0,337.4,60,0,342.9,323.3,0,0,0,28.1,60,0,10.2,60,0,10.4,10.1,7.4,60,0,7.6,7.1,3.9,60,0,4.6,3.0,64.6,60,0,69.0,60.0,28.1,60,0,39.0,18.0,239,0.0,1021.4,60,0,1021.4,0,1007.1,60,0,46.2,60,0
86282,2012-05-01 00:00:00,2410,60,0,0.0,0.0,0.0,60,0,0.0,0.0,0.0,60,0,0.0,0.0,0.0,60,0,0.0,0.0,337.4,60,0,342.9,323.3,0,0,0,28.1,60,0,10.2,60,0,10.4,10.1,7.4,60,0,7.6,7.1,3.9,60,0,4.6,3.0,64.6,60,0,69.0,60.0,28.1,60,0,39.0,18.0,239,0.0,1021.4,60,0,1021.4,0,1007.1,60,0,46.2,60,0
86282,2012-05-01 12:00:00,2420,60,0,0.0,0.0,0.0,60,0,0.0,0.0,0.0,60,0,0.0,0.0,0.0,60,0,0.0,0.0,337.4,60,0,342.9,323.3,0,0,0,28.1,60,0,10.2,60,0,10.4,10.1,7.4,60,0,7.6,7.1,3.9,60,0,4.6,3.0,64.6,60,0,69.0,60.0,28.1,60,0,39.0,18.0,239,0.0,1021.4,60,0,1021.4,0,1007.1,60,0,46.2,60,0
86282,2012-05-02 00:00:00,2430,60,0,0.0,0.0,0.0,60,0,0.0,0.0,0.0,60,0,0.0,0.0,0.0,60,0,0.0,0.0,337.4,60,0,342.9,323.3,0,0,0,28.1,60,0,10.2,60,0,10.4,10.1,7.4,60,0,7.6,7.1,3.9,60,0,4.6,3.0,64.6,60,0,69.0,60.0,28.1,60,0,39.0,18.0,239,0.0,1021.4,60,0,1021.4,0,1007.1,60,0,46.2,60,0
86282,2012-05-02 12:00:00,2440,60,0,0.0,0.0,0.0,60,0,0.0,0.0,0.0,60,0,0.0,0.0,0.0,60,0,0.0,0.0,337.4,60,0,342.9,323.3,0,0,0,28.1,60,0,10.2,60,0,10.4,10.1,7.4,60,0,7.6,7.1,3.9,60,0,4.6,3.0,64.6,60,0,69.0,60.0,28.1,60,0,39.0,18.0,239,0.0,1021.4,60,0,1021.4,0,1007.1,60,0,46.2,60,0
86282,2012-05-03 00:00:00,2450,60,0,0.0,0.0,0.0,60,0,0.0,0.0,0.0,60,0,0.0,0.0,0.0,60,0,0.0,0.0,337.4,60,0,342.9,323.3,0,0,0,28.1,60,0,10.2,60,0,10.4,10.1,7.4,60,0,7.6,7.1,3.9,60,0,4.6,3.0,64.6,60,0,69.0,60.0,28.1,60,0,39.0,18.0,239,0.0,1021.4,60,0,1021.4,0,1007.1,60,0,46.2,60,0
86282,2012-05-03 12:00:00,2460,60,0,0.0,0.0,0.0,60,0,0.0,0.0,0.0,60,0,0.0,0.0,0.0,60,0,0.0,0.0,337.4,60,0,342.9,323.3,0,0,0,28.1,60,0,10.2,60,0,10.4,10.1,7.4,60,0,7.6,7.1,3.9,60,0,4.6,3.0,64.6,60,0,69.0,60.0,28.1,60,0,39.0,18.0,239,0.0,1021.4,60,0,1021.4,0,1007.1,60,0,46.2,60,0
86282,2012-05-04 00:00:00,2470,60,0,0.0,0.0,0.0,60,0,0.0,0.0,0.0,60,0,0.0,0.0,0.0,60,0,0.0,0.0,337.4,60,0,342.9,323.3,0,0,0,28.1,60,0,10.2,60,0,10.4,10.1,7.4,60,0,7.6,7.1,3.9,60,0,4.6,3.0,64.6,60,0,69.0,60.0,28.1,60,0,39.0,18.0,239,0.0,1021.4,60,0,1021.4,0,1007.1,60,0,46.2,60,0
86282,2012-05-04 12:00:00,2480,60,0,0.0,0.0,0.0,60,0,0.0,0.0,0.0,60,0,0.0,0.0,0.0,60,0,0.0,0.0,337.4,60,0,342.9,323.3,0,0,0,28.1,60,0,10.2,60,0,10.4,10.1,7.4,60,0,7.6,7.1,3.9,60,0,4.6,3.0,64.6,60,0,69.0,60.0,28.1,60,0,39.0,18.0,239,0.0,1021.4,60,0,1021.4,0,1007.1,60,0,46.2,60,0
86282,2012-05-05 00:00:00,2490,60,0,0.0,0.0,0.0,60,0,0.0,0.0,0.0,60,0,0.0,0.0,0.0,60,0,0.0,0.0,337.4,60,0,342.9,323.3,0,0,0,28.1,60,0,10.2,60,0,10.4,10.1,7.4,60,0,7.6,7.1,3.9,60,0,4.6,3.0,64.6,60,0,69.0,60.0,28.1,60,0,39.0,18.0,239,0.0,1021.4,60,0,1021.4,0,1007.1,60,0,46.2,60,0
86282,2012-05-05 12:00:00,2500,60,0,0.0,0.0,0.0,60,0,0.0,0.0,0.0,60,0,0.0,0.0,0.0,60,0,0.0,0.0,337.4,60,0,342.9,323.3,0,0,0,28.1,60,0,10.2,60,0,10.4,10.1,7.4,60,0,7.6,7.1,3.9,60,0,4.6,3.0,64.6,60,0,69.0,60.0,28.1,60,0,39.0,18.0,239,0.0,1021.4,60,0,1021.4,0,1007.1,60,0,46.2,60,0
86282,2012-05-06 00:00:00,2510,60,0,0.0,0.0,0.0,60,0,0.0,0.0,0.0,60,0,0.0,0.0,0.0,60,0,0.0,0.0,337.4,60,0,342.9,323.3,0,0,0,28.1,60,0,10.2,60,0,10.4,10.1,7.4,60,0,7.6,7.1,3.9,60,0,4.6,3.0,64.6,60,0,69.0,60.0,28.1,60,0,39.0,18.0,239,0.0,1021.4,60,0,1021.4,0,1007.1,60,0,46.2,60,0
86282,2012-05-06 12:00:00,2520,60,0,0.0,0.0,0.0,60,0,0.0,0.0,0.0,60,0,0.0,0.0,0.0,60,0,0.0,0.0,337.4,60,0,342.9,323.3,0,0,0,28.1,60,0,10.2,60,0,10.4,10.1,7.4,60,0,7.6,7.1,3.9,60,0,4.6,3.0,64.6,60,0,69.0,60.0,28.1,60,0,39.0,18.0,239,0.0,1021.4,60,0,1021.4,0,1007.1,60,0,46.2,60,0
86282,2012-05-07 00:00:00,2530,60,0,0.0,0.0,0.0,60,0,0.0,0.0,0.0,60,0,0.0,0.0,0.0,60,0,0.0,0.0,337.4,60,0,342.9,323.3,0,0,0,28.1,60,0,10.2,60,0,10.4,10.1,7.4,60,0,7.6,7.1,3.9,60,0,4.6,3.0,64.6,60,0,69.0,60.0,28.1,60,0,39.0,18.0,239,0.0,1021.4,60,0,1021.4,0,1007.1,60,0,46.2,60,0
86282,2012-05-07 12:00:00,2540,60,0,0.0,0.0,0.0,60,0,0.0,0.0,0.0,60,0,0.0,0.0,0.0,60,0,0.0,0.0,337.4,60,0,342.9,323.3,0,0,0,28.1,60,0,10.2,60,0,10.4,10.1,7.4,60,0,7.6,7.1,3.9,60,0,4.6,3.0,64.6,60,0,69.0,60.0,28.1,60,0,39.0,18.0,239,0.0,1021.4,60,0,1021.4,0,1007.1,60,0,46.2,60,0
86282,2012-05-08 00:00:00,2550,60,0,0.0,0.0,0.0,60,0,0.0,0.0,0.0,60,0,0.0,0.0,0.0,60,0,0.0,0.0,337.4,60,0,342.9,323.3,0,0,0,28.1,60,0,10.2,60,0,10.4,10.1,7.4,60,0,7.6,7.1,3.9,60,0,4.6,3.0,64.6,60,0,69.0,60.0,28.1,60,0,39.0,18.0,239,0.0,1021.4,60,0,1021.4,0,1007.1,60,0,46.2,60,0
86282,2012-05-08 12:00:00,2560,60,0,0.0,0.0,0.0,60,0,0.0,0.0,0.0,60,0,0.0,0.0,0.0,60,0,0.0,0.0,337.4,60,0,342.9,323.3,0,0,0,28.1,60,0,10.2,60,0,10.4,10.1,7.4,60,0,7.6,7.1,3.9,60,0,4.6,3.0,64.6,60,0,69.0,60.0,28.1,60,0,39.0,18.0,239,0.0,1021.4,60,0,1021.4,0,1007.1,60,0,46.2,60,0
86282,2012-05-09 00:00:00,2570,60,0,0.0,0.0,0.0,60,0,0.0,0.0,0.0,60,0,0.0,0.0,0.0,60,0,0.0,0.0,337.4,60,0,342.9,323.3,0,0,0,28.1,60,0,10.2,60,0,10.4,10.1,7.4,60,0,7.6,7.1,3.9,60,0,4.6,3.0,64.6,60,0,69.0,60.0,28.1,60,0,39.0,18.0,239,0.0,1021.4,60,0,1021.4,0,1007.1,60,0,46.2,60,0
86282,2012-05-09 12:00:00,2580,60,0,0.0,0.0,0.0,60,0,0.0,0.0,0.0,60,0,0.0,0.0,0.0,60,0,0.0,0.0,337.4,60,0,342.9,323.3,0,0,0,28.1,60,0,10.2,60,0,10.4,10.1,7.4,60,0,7.6,7.1,3.9,60,0,4.6,3.0,64.6,60,0,69.0,60.0,28.1,60,0,39.0,18.0,239,0.0,1021.4,60,0,1021.4,0,1007.1,60,0,46.2,60,0
86282,2012-05-10 00:00:00,2590,60,0,0.0,0.0,0.0,60,0,0.0,0.0,0.0,60,0,0.0,0.0,0.0,60,0,0.0,0.0,337.4,60,0,342.9,323.3,0,0,0,28.1,60,0,10.2,60,0,10.4,10.1,7.4,60,0,7.6,7.1,3.9,60,0,4.6,3.0,64.6,60,0,69.0,60.0,28.1,60,0,39.0,18.0,239,0.0,1021.4,60,0,1021.4,0,1007.1,60,0,46.2,60,0
86282,2012-05-10 12:00:00,2600,60,0,0.0,0.0,0.0,60,0,0.0,0.0,0.0,60,0,0.0,0.0,0.0,60,0,0.0,0.0,337.4,60,0,342.9,323.3,0,0,0,28.1,60,0,10.2,60,0,10.4,10.1,7.4,60,0,7.6,7.1,3.9,60,0,4.6,3.0,64.6,60,0,69.0,60.0,28.1,60,0,39.0,18.0,239,0.0,1021.4,60,0,1021.4,0,1007.1,60,0,46.2,60,0
86282,2012-05-11 00:00:00,2610,60,0,0.0,0.0,0.0,60,0,0.0,0.0,0.0,60,0,0.0,0.0,0.0,60,0,0.0,0.0,337.4,60,0,342.9,323.3,0,0,0,28.1,60,0,10.2,60,0,10.4,10.1,7.4,60,0,7.6,7.1,3.9,60,0,4.6,3.0,64.6,60,0,69.0,60.0,28.1,60,0,39.0,18.0,239,0.0,1021.4,60,0,1021.4,0,1007.1,60,0,46.2,60,0
86282,2012-05-11 12:00:00,2620,60,0,0.0,0.0,0.0,60,0,0.0,0.0,0.0,60,0,0.0,0.0,0.0,60,0,0.0,0.0,337.4,60,0,342.9,323.3,0,0,0,28.1,60,0,10.2,60,0,10.4,10.1,7.4,60,0,7.6,7.1,3.9,60,0,4.6,3.0,64.6,60,0,69.0,60.0,28.1,60,0,39.0,18.0,239,0.0,1021.4,60,0,1021.4,0,1007.1,60,0,46.2,60,0
86282,2012-05-12 00:00:00,2630,60,0,0.0,0.0,0.0,60,0,0.0,0.0,0.0,60,0,0.0,0.0,0.0,60,0,0.0,0.0,337.4,60,0,342.9,323.3,0,0,0,28.1,60,0,10.2,60,0,10.4,10.1,7.4,60,0,7.6,7.1,3.9,60,0,4.6,3.0,64.6,60,0,69.0,60.0,28.1,60,0,39.0,18.0,239,0.0,1021.4,60,0,1021.4,0,1007.1,60,0,46.2,60,0
86282,2012-05-12 12:00:00,2640,60,0,0.0,0.0,0.0,60,0,0.0,0.0,0.0,60,0,0.0,0.0,0.0,60,0,0.0,0.0,337.4,60,0,342.9,323.3,0,0,0,28.1,60,0,10.2,60,0,10.4,10.1,7.4,60,0,7.6,7.1,3.9,60,0,4.6,3.0,64.6,60,0,69.0,60.0,28.1,60,0,39.0,18.0,239,0.0,1021.4,60,0,1021.4,0,1007.1,60,0,46.2,60,0
86282,2012-05-13 00:00:00,2650,60,0,0.0,0.0,0.0,60,0,0.0,0.0,0.0,60,0,0.0,0.0,0.0,60,0,0.0,0.0,337.4,60,0,342.9,323.3,0,0,0,28.1,60,0,10.2,60,0,10.4,10.1,7.4,60,0,7.6,7.1,3.9,60,0,4.6,3.0,64.6,60,0,69.0,60.0,28.1,60,0,39.0,18.0,239,0.0,1021.4,60,0,1021.4,0,1007.1,60,0,46.2,60,0
86282,2012-05-13 12:00:00,2660,60,0,0.0,0.0,0.0,60,0,0.0,0.0,0.0,60,0,0.0,0.0,0.0,60,0,0.0,0.0,337.4,60,0,342.9,323.3,0,0,0,28.1,60,0,10.2,60,0,10.4,10.1,7.4,60,0,7.6,7.1,3.9,60,0,4.6,3.0,64.6,60,0,69.0,60.0,28.1,60,0,39.0,18.0,239,0.0,1021.4,60,0,1021.4,0,1007.1,60,0,46.2,60,0
86282,2012-05-14 00:00:00,2670,60,0,0.0,0.0,0.0,60,0,0.0,0.0,0.0,60,0,0.0,0.0,0.0,60,0,0.0,0.0,337.4,60,0,342.9,323.3,0,0,0,28.1,60,0,10.2,60,0,10.4,10.1,7.4,60,0,7.6,7.1,3.9,60,0,4.6,3.0,64.6,60,0,69.0,60.0,28.1,60,0,39.0,18.0,239,0.0,1021.4,60,0,1021.4,0,1007.1,60,0,46.2,60,0
86282,2012-05-14 12:00:00,2680,60,0,0.0,0.0,0.0,60,0,0.0,0.0,0.0,60,0,0.0,0.0,0.0,60,0,0.0,0.0,337.4,60,0,342.9,323.3,0,0,0,28.1,60,0,10.2,60,0,10.4,10.1,7.4,60,0,7.6,7.1,3.9,60,0,4.6,3.0,64.6,60,0,69.0,60.0,28.1,60,0,39.0,18.0,239,0.0,1021.4,60,0,1021.4,0,1007.1,60,0,46.2,60,0
86282,2012-05-15 00:00:00,2690,60,0,0.0,0.0,0.0,60,0,0.0,0.0,0.0,60,0,0.0,0.0,0.0,60,0,0.0,0.0,337.4,60,0,342.9,323.3,0,0,0,28.1,60,0,10.2,60,0,10.4,10.1,7.4,60,0,7.6,7.1,3.9,60,0,4.6,3.0,64.6,60,0,69.0,60.0,28.1,60,0,39.0,18.0,239,0.0,1021.4,60,0,1021.4,0,1007.1,60,0,46.2,60,0
86282,2012-05-15 12:00:00,2700,60,0,0.0,0.0,0.0,60,0,0.0,0.0,0.0,60,0,0.0,0.0,0.0,60,0,0.0,0.0,337.4,60,0,342.9,323.3,0,0,0,28.1,60,0,10.2,60,0,10.4,10.1,7.4,60,0,7.6,7.1,3.9,60,0,4.6,3.0,64.6,60,0,69.0,60.0,28.1,60,0,39.0,18.0,239,0.0,1021.4,60,0,1021.4,0,1007.1,60,0,46.2,60,0
86282,2012-05-16 00:00:00,2710,60,0,0.0,0.0,0.0,60,0,0.0,0.0,0.0,60,0,0.0,0.0,0.0,60,0,0.0,0.0,337.4,60,0,342.9,323.3,0,0,0,28.1,60,0,10.2,60,0,10.4,10.1,7.4,60,0,7.6,7.1,3.9,60,0,4.6,3.0,64.6,60,0,69.0,60.0,28.1,60,0,39.0,18.0,239,0.0,1021.4,60,0,1021.4,0,1007.1,60,0,46.2,60,0
86282,2012-05-16 12:00:00,2720,60,0,0.0,0.0,0.0,60,0,0.0,0.0,0.0,60,0,0.0,0.0,0.0,60,0,0.0,0.0,337.4,60,0,342.9,323.3,0,0,0,28.1,60,0,10.2,60,0,10.4,10.1,7.4,60,0,7.6,7.1,3.9,60,0,4.6,3.0,64.6,60,0,69.0,60.0,28.1,60,0,39.0,18.0,239,0.0,1021.4,60,0,1021.4,0,1007.1,60,0,46.2,60,0
86282,2012-05-17 00:00:00,2730,60,0,0.0,0.0,0.0,60,0,0.0,0.0,0.0,60,0,0.0,0.0,0.0,60,0,0.0,0.0,337.4,60,0,342.9,323.3,0,0,0,28.1,60,0,10.2,60,0,10.4,10.1,7.4,60,0,7.6,7.1,3.9,60,0,4.6,3.0,64.6,60,0,69.0,60.0,28.1,60,0,39.0,18.0,239,0.0,1021.4,60,0,1021.4,0,1007.1,60,0,46.2,60,0
86282,2012-05-17 12:00:00,2740,60,0,0.0,0.0,0.0,60,0,0.0,0.0,0.0,60,0,0.0,0.0,0.0,60,0,0.0,0.0,337.4,60,0,342.9,323.3,0,0,0,28.1,60,0,10.2,60,0,10.4,10.1,7.4,60,0,7.6,7.1,3.9,60,0,4.6,3.0,64.6,60,0,69.0,60.0,28.1,60,0,39.0,18.0,239,0.0,1021.4,60,0,1021.4,0,1007.1,60,0,46.2,60,0
86282,2012-05-18 00:00:00,2750,60,0,0.0,0.0,0.0,60,0,0.0,0.0,0.0,60,0,0.0,0.0,0.0,60,0,0.0,0.0,337.4,60,0,342.9,323.3,0,0,0,28.1,60,0,10.2,60,0,10.4,10.1,7.4,60,0,7.6,7.1,3.9,60,0,4.6,3.0,64.6,60,0,69.0,60.0,28.1,60,0,39.0,18.0,239,0.0,1021.4,60,0,1021.4,0,1007.1,60,0,46.2,60,0
86282,2012-05-18 12:00:00,2760,60,0,0.0,0.0,0.0,60,0,0.0,0.0,0.0,60,0,0.0,0.0,0.0,60,0,0.0,0.0,337.4,60,0,342.9,323.3,0,0,0,28.1,60,0,10.2,60,0,10.4,10.1,7.4,60,0,7.6,7.1,3.9,60,0,4.6,3.0,64.6,60,0,69.0,60.0,28.1,60,0,39.0,18.0,239,0.0,1021.4,60,0,1021.4,0,1007.1,60,0,46.2,60,0
86282,2012-05-19 00:00:00,2770,60,0,0.0,0.0,0.0,60,0,0.0,0.0,0.0,60,0,0.0,0.0,0.0,60,0,0.0,0.0,337.4,60,0,342.9,323.3,0,0,0,28.1,60,0,10.2,60,0,10.4,10.1,7.4,60,0,7.6,7.1,3.9,60,0,4.6,3.0,64.6,60,0,69.0,60.0,28.1,60,0,39.0,18.0,239,0.0,1021.4,60,0,1021.4,0,1007.1,60,0,46.2,60,0
86282,2012-05-19 12:00:00,2780,60,0,0.0,0.0,0.0,60,0,0.0,0.0,0.0,60,0,0.0,0.0,0.0,60,0,0.0,0.0,337.4,60,0,342.9,323.3,0,0,0,28.1,60,0,10.2,60,0,10.4,10.1,7.4,60,0,7.6,7.1,3.9,60,0,4.6,3.0,64.6,60,0,69.0,60.0,28.1,60,0,39.0,18.0,239,0.0,1021.4,60,0,1021.4,0,1007.1,60,0,46.2,60,0
86282,2012-05-20 00:00:00,2790,60,0,0.0,0.0,0.0,60,0,0.0,0.0,0.0,60,0,0.0,0.0,0.0,60,0,0.0,0.0,337.4,60,0,342.9,323.3,0,0,0,28.1,60,0,10.2,60,0,10.4,10.1,7.4,60,0,7.6,7.1,3.9,60,0,4.6,3.0,64.6,60,0,69.0,60.0,28.1,60,0,39.0,18.0,239,0.0,1021.4,60,0,1021.4,0,1007.1,60,0,46.2,60,0
86282,2012-05-20 12:00:00,2800,60,0,0.0,0.0,0.0,60,0,0.0,0.0,0.0,60,0,0.0,0.0,0.0,60,0,0.0,0.0,337.4,60,0,342.9,323.3,0,0,0,28.1,60,0,10.2,60,0,10.4,10.1,7.4,60,0,7.6,7.1,3.9,60,0,4.6,3.0,64.6,60,0,69.0,60.0,28.1,60,0,39.0,18.0,239,0.0,1021.4,60,0,1021.4,0,1007.1,60,0,46.2,60,0
86282,2012-05-21 00:00:00,2810,60,0,0.0,0.0,0.0,60,0,0.0,0.0,0.0,60,0,0.0,0.0,0.0,60,0,0.0,0.0,337.4,60,0,342.9,323.3,0,0,0,28.1,60,0,10.2,60,0,10.4,10.1,7.4,60,0,7.6,7.1,3.9,60,0,4.6,3.0,64.6,60,0,69.0,60.0,28.1,60,0,39.0,18.0,239,0.0,1021.4,60,0,1021.4,0,1007.1,60,0,46.2,60,0
86282,2012-05-21 12:00:00,2820,60,0,0.0,0.0,0.0,60,0,0.0,0.0,0.0,60,0,0.0,0.0,0.0,60,0,0.0,0.0,337.4,60,0,342.9,323.3,0,0,0,28.1,60,0,10.2,60,0,10.4,10.1,7.4,60,0,7.6,7.1,3.9,60,0,4.6,3.0,64.6,60,0,69.0,60.0,28.1,60,0,39.0,18.0,239,0.0,1021.4,60,0,1021.4,0,1007.1,60,0,46.2,60,0
86282,2012-05-22 00:00:00,2830,60,0,0.0,0.0,0.0,60,0,0.0,0.0,0.0,60,0,0.0,0.0,0.0,60,0,0.0,0.0,337.4,60,0,342.9,323.3,0,0,0,28.1,60,0,10.2,60,0,10.4,10.1,7.4,60,0,7.6,7.1,3.9,60,0,4.6,3.0,64.6,60,0,69.0,60.0,28.1,60,0,39.0,18.0,239,0.0,1021.4,60,0,1021.4,0,1007.1,60,0,46.2,60,0
86282,2012-05-22 12:00:00,2840,60,0,0.0,0.0,0.0,60,0,0.0,0.0,0.0,60,0,0.0,0.0,0.0,60,0,0.0,0.0,337.4,60,0,342.9,323.3,0,0,0,28.1,60,0,10.2,60,0,10.4,10.1,7.4,60,0,7.6,7.1,3.9,60,0,4.6,3.0,64.6,60,0,69.0,60.0,28.1,60,0,39.0,18.0,239,0.0,1021.4,60,0,1021.4,0,1007.1,60,0,46.2,60,0
86282,2012-05-23 00:00:00,2850,60,0,0.0,0.0,0.0,60,0,0.0,0.0,0.0,60,0,0.0,0.0,0.0,60,0,0.0,0.0,337.4,60,0,342.9,323.3,0,0,0,28.1,60,0,10.2,60,0,10.4,10.1,7.4,60,0,7.6,7.1,3.9,60,0,4.6,3.0,64.6,60,0,69.0,60.0,28.1,60,0,39.0,18.0,239,0.0,1021.4,60,0,1021.4,0,1007.1,60,0,46.2,60,0
86282,2012-05-23 12:00:00,2860,60,0,0.0,0.0,0.0,60,0,0.0,0.0,0.0,60,0,0.0,0.0,0.0,60,0,0.0,0.0,337.4,60,0,342.9,323.3,0,0,0,28.1,60,0,10.2,60,0,10.4,10.1,7.4,60,0,7.6,7.1,3.9,60,0,4.6,3.0,64.6,60,0,69.0,60.0,28.1,60,0,39.0,18.0,239,0.0,1021.4,60,0,1021.4,0,1007.1,60,0,46.2,60,0
86282,2012-05-24 00:00:00,2870,60,0,0.0,0.0,0.0,60,0,0.0,0.0,0.0,60,0,0.0,0.0,0.0,60,0,0.0,0.0,337.4,60,0,342.9,323.3,0,0,0,28.1,60,0,10.2,60,0,10.4,10.1,7.4,60,0,7.6,7.1,3.9,60,0,4.6,3.0,64.6,60,0,69.0,60.0,28.1,60,0,39.0,18.0,239,0.0,1021.4,60,0,1021.4,0,1007.1,60,0,46.2,60,0
86282,2012-05-24 12:00:00,2880,60,0,0.0,0.0,0.0,60,0,0.0,0.0,0.0,60,0,0.0,0.0,0.0,60,0,0.0,0.0,337.4,60,0,342.9,323.3,0,0,0,28.1,60,0,10.2,60,0,10.4,10.1,7.4,60,0,7.6,7.1,3.9,60,0,4.6,3.0,64.6,60,0,69.0,60.0,28.1,60,0,39.0,18.0,239,0.0,1021.4,60,0,1021.4,0,1007.1,60,0,46.2,60,0
86282,2012-05-25 00:00:00,2890,60,0,0.0,0.0,0.0,60,0,0.0,0.0,0.0,60,0,0.0,0.0,0.0,60,0,0.0,0.0,337.4,60,0,342.9,323.3,0,0,0,28.1,60,0,10.2,60,0,10.4,10.1,7.4,60,0,7.6,7.1,3.9,60,0,4.6,3.0,64.6,60,0,69.0,60.0,28.1,60,0,39.0,18.0,239,0.0,1021.4,60,0,1021.4,0,1007.1,60,0,46.2,60,0
86282,2012-05-25 12:00:00,2900,60,0,0.0,0.0,0.0,60,0,0.0,0.0,0.0,60,0,0.0,0.0,0.0,60,0,0.0,0.0,337.4,60,0,342.9,323.3,0,0,0,28.1,60,0,10.2,60,0,10.4,10.1,7.4,60,0,7.6,7.1,3.9,60,0,4.6,3.0,64.6,60,0,69.0,60.0,28.1,60,0,39.0,18.0,239,0.0,1021.4,60,0,1021.4,0,1007.1,60,0,46.2,60,0
86282,2012-05-26 00:00:00,2910,60,0,0.0,0.0,0.0,60,0,0.0,0.0,0.0,60,0,0.0,0.0,0.0,60,0,0.0,0.0,337.4,60,0,342.9,323.3,0,0,0,28.1,60,0,10.2,60,0,10.4,10.1,7.4,60,0,7.6,7.1,3.9,60,0,4.6,3.0,64.6,60,0,69.0,60.0,28.1,60,0,39.0,18.0,239,0.0,1021.4,60,0,1021.4,0,1007.1,60,0,46.2,60,0
86282,2012-05-26 12:00:00,2920,60,0,0.0,0.0,0.0,60,0,0.0,0.0,0.0,60,0,0.0,0.0,0.0,60,0,0.0,0.0,337.4,60,0,342.9,323.3,0,0,0,28.1,60,0,10.2,60,0,10.4,10.1,7.4,60,0,7.6,7.1,3.9,60,0,4.6,3.0,64.6,60,0,69.0,60.0,28.1,60,0,39.0,18.0,239,0.0,1021.4,60,0,1021.4,0,1007.1,60,0,46.2,60,0
86282,2012-05-27 00:00:00,2930,60,0,0.0,0.0,0.0,60,0,0.0,0.0,0.0,60,0,0.0,0.0,0.0,60,0,0.0,0.0,337.4,60,0,342.9,323.3,0,0,0,28.1,60,0,10.2,60,0,10.4,10.1,7.4,60,0,7.6,7.1,3.9,60,0,4.6,3.0,64.6,60,0,69.0,60.0,28.1,60,0,39.0,18.0,239,0.0,1021.4,60,0,1021.4,0,1007.1,60,0,46.2,60,0
86282,2012-05-27 12:00:00,2940,60,0,0.0,0.0,0.0,60,0,0.0,0.0,0.0,60,0,0.0,0.0,0.0,60,0,0.0,0.0,337.4,60,0,342.9,323.3,0,0,0,28.1,60,0,10.2,60,0,10.4,10.1,7.4,60,0,7.6,7.1,3.9,60,0,4.6,3.0,64.6,60,0,69.0,60.0,28.1,60,0,39.0,18.0,239,0.0,1021.4,60,0,1021.4,0,1007.1,60,0,46.2,60,0
86282,2012-05-28 00:00:00,2950,60,0,0.0,0.0,0.0,60,0,0.0,0.0,0.0,60,0,0.0,0.0,0.0,60,0,0.0,0.0,337.4,60,0,342.9,323.3,0,0,0,28.1,60,0,10.2,60,0,10.4,10.1,7.4,60,0,7.6,7.1,3.9,60,0,4.6,3.0,64.6,60,0,69.0,60.0,28.1,60,0,39.0,18.0,239,0.0,1021.4,60,0,1021.4,0,1007.1,60,0,46.2,60,0
86282,2012-05-28 12:00:00,2960,60,0,0.0,0.0,0.0,60,0,0.0,0.0,0.0,60,0,0.0,0.0,0.0,60,0,0.0,0.0,337.4,60,0,342.9,323.3,0,0,0,28.1,60,0,10.2,60,0,10.4,10.1,7.4,60,0,7.6,7.1,3.9,60,0,4.6,3.0,64.6,60,0,69.0,60.0,28.1,60,0,39.0,18.0,239,0.0,1021.4,60,0,1021.4,0,1007.1,60,0,46.2,60,0
86282,2012-05-29 00:00:00,2970,60,0,0.0,0.0,0.0,60,0,0.0,0.0,0.0,60,0,0.0,0.0,0.0,60,0,0.0,0.0,337.4,60,0,342.9,323.3,0,0,0,28.1,60,0,10.2,60,0,10.4,10.1,7.4,60,0,7.6,7.1,3.9,60,0,4.6,3.0,64.6,60,0,69.0,60.0,28.1,60,0,39.0,18.0,239,0.0,1021.4,60,0,1021.4,0,1007.1,60,0,46.2,60,0
86282,2012-05-29 12:00:00,2980,60,0,0.0,0.0,0.0,60,0,0.0,0.0,0.0,60,0,0.0,0.0,0.0,60,0,0.0,0.0,337.4,60,0,342.9,323.3,0,0,0,28.1,60,0,10.2,60,0,10.4,10.1,7.4,60,0,7.6,7.1,3.9,60,0,4.6,3.0,64.6,60,0,69.0,60.0,28.1,60,0,39.0,18.0,239,0.0,1021.4,60,0,1021.4,0,1007.1,60,0,46.2,60,0
86282,2012-05-30 00:00:00,2990,60,0,0.0,0.0,0.0,60,0,0.0,0.0,0.0,60,0,0.0,0.0,0.0,60,0,0.0,0.0,337.4,60,0,342.9,323.3,0,0,0,28.1,60,0,10.2,60,0,10.4,10.1,7.4,60,0,7.6,7.1,3.9,60,0,4.6,3.0,64.6,60,0,69.0,60.0,28.1,60,0,39.0,18.0,239,0.0,1021.4,60,0,1021.4,0,1007.1,60,0,46.2,60,0
86282,2012-05-30 12:00:00,3000,60,0,0.0,0.0,0.0,60,0,0.0,0.0,0.0,60,0,0.0,0.0,0.0,60,0,0.0,0.0,337.4,60,0,342.9,323.3,0,0,0,28.1,60,0,10.2,60,0,10.4,10.1,7.4,60,0,7.6,7.1,3.9,60,0,4.6,3.0,64.6,60,0,69.0,60.0,28.1,60,0,39.0,18.0,239,0.0,1021.4,60,0,1021.4,0,1007.1,60,0,46.2,60,0
86282,2012-05-31 00:00:00,3010,60,0,0.0,0.0,0.0,60,0,0.0,0.0,0.0,60,0,0.0,0.0,0.0,60,0,0.0,0.0,337.4,60,0,342.9,323.3,0,0,0,28.1,60,0,10.2,60,0,10.4,10.1,7.4,60,0,7.6,7.1,3.9,60,0,4.6,3.0,64.6,60,0,69.0,60.0,28.1,60,0,39.0,18.0,239,0.0,1021.4,60,0,1021.4,0,1007.1,60,0,46.2,60,0
86282,2012-05-31 12:00:00,3020,60,0,0.0,0.0,0.0,60,0,0.0,0.0,0.0,60,0,0.0,0.0,0.0,60,0,0.0,0.0,337.4,60,0,342.9,323.3,0,0,0,28.1,60,0,10.2,60,0,10.4,10.1,7.4,60,0,7.6,7.1,3.9,60,0,4.6,3.0,64.6,60,0,69.0,60.0,28.1,60,0,39.0,18.0,239,0.0,1021.4,60,0,1021.4,0,1007.1,60,0,46.2,60,0
86282,2012-06-01 00:00:00,3030,60,0,0.0,0.0,0.0,60,0,0.0,0.0,0.0,60,0,0.0,0.0,0.0,60,0,0.0,0.0,337.4,60,0,342.9,323.3,0,0,0,28.1,60,0,10.2,60,0,10.4,10.1,7.4,60,0,7.6,7.1,3.9,60,0,4.6,3.0,64.6,60,0,69.0,60.0,28.1,60,0,39.0,18.0,239,0.0,1021.4,60,0,1021.4,0,1007.1,60,0,46.2,60,0
86282,2012-06-01 12:00:00,3040,60,0,0.0,0.0,0.0,60,0,0.0,0.0,0.0,60,0,0.0,0.0,0.0,60,0,0.0,0.0,337.4,60,0,342.9,323.3,0,0,0,28.1,60,0,10.2,60,0,10.4,10.1,7.4,60,0,7.6,7.1,3.9,60,0,4.6,3.0,64.6,60,0,69.0,60.0,28.1,60,0,39.0,18.0,239,0.0,1021.4,60,0,1021.4,0,1007.1,60,0,46.2,60,0
86282,2012-06-02 00:00:00,3050,60,0,0.0,0.0,0.0,60,0,0.0,0.0,0.0,60,0,0.0,0.0,0.0,60,0,0.0,0.0,337.4,60,0,342.9,323.3,0,0,0,28.1,60,0,10.2,60,0,10.4,10.1,7.4,60,0,7.6,7.1,3.9,60,0,4.6,3.0,64.6,60,0,69.0,60.0,28.1,60,0,39.0,18.0,239,0.0,1021.4,60,0,1021.4,0,1007.1,60,0,46.2,60,0
86282,2012-06-02 12:00:00,3060,60,0,0.0,0.0,0.0,60,0,0.0,0.0,0.0,60,0,0.0,0.0,0.0,60,0,0.0,0.0,337.4,60,0,342.9,323.3,0,0,0,28.1,60,0,10.2,60,0,10.4,10.1,7.4,60,0,7.6,7.1,3.9,60,0,4.6,3.0,64.6,60,0,69.0,60.0,28.1,60,0,39.0,18.0,239,0.0,1021.4,60,0,1021.4,0,1007.1,60,0,46.2,60,0
86282,2012-06-03 00:00:00,3070,60,0,0.0,0.0,0.0,60,0,0.0,0.0,0.0,60,0,0.0,0.0,0.0,60,0,0.0,0.0,337.4,60,0,342.9,323.3,0,0,0,28.1,60,0,10.2,60,0,10.4,10.1,7.4,60,0,7.6,7.1,3.9,60,0,4.6,3.0,64.6,60,0,69.0,60.0,28.1,60,0,39.0,18.0,239,0.0,1021.4,60,0,1021.4,0,1007.1,60,0,46.2,60,0
86282,2012-06-03 12:00:00,3080,60,0,0.0,0.0,0.0,60,0,0.0,0.0,0.0,60,0,0.0,0.0,0.0,60,0,0.0,0.0,337.4,60,0,342.9,323.3,0,0,0,28.1,60,0,10.2,60,0,10.4,10.1,7.4,60,0,7.6,7.1,3.9,60,0,4.6,3.0,64.6,60,0,69.0,60.0,28.1,60,0,39.0,18.0,239,0.0,1021.4,60,0,1021.4,0,1007.1,60,0,46.2,60,0
86282,2012-06-04 00:00:00,3090,60,0,0.0,0.0,0.0,60,0,0.0,0.0,0.0,60,0,0.0,0.0,0.0,60,0,0.0,0.0,337.4,60,0,342.9,323.3,0,0,0,28.1,60,0,10.2,60,0,10.4,10.1,7.4,60,0,7.6,7.1,3.9,60,0,4.6,3.0,64.6,60,0,69.0,60.0,28.1,60,0,39.0,18.0,239,0.0,1021.4,60,0,1021.4,0,1007.1,60,0,46.2,60,0
86282,2012-06-04 12:00:00,3100,60,0,0.0,0.0,0.0,60,0,0.0,0.0,0.0,60,0,0.0,0.0,0.0,60,0,0.0,0.0,337.4,60,0,342.9,323.3,0,0,0,28.1,60,0,10.2,60,0,10.4,10.1,7.4,60,0,7.6,7.1,3.9,60,0,4.6,3.0,64.6,60,0,69.0,60.0,28.1,60,0,39.0,18.0,239,0.0,1021.4,60,0,1021.4,0,1007.1,60,0,46.2,60,0
86282,2012-06-05 00:00:00,3110,60,0,0.0,0.0,0.0,60,0,0.0,0.0,0.0,60,0,0.0,0.0,0.0,60,0,0.0,0.0,337.4,60,0,342.9,323.3,0,0,0,28.1,60,0,10.2,60,0,10.4,10.1,7.4,60,0,7.6,7.1,3.9,60,0,4.6,3.0,64.6,60,0,69.0,60.0,28.1,60,0,39.0,18.0,239,0.0,1021.4,60,0,1021.4,0,1007.1,60,0,46.2,60,0
86282,2012-06-05 12:00:00,3120,60,0,0.0,0.0,0.0,60,0,0.0,0.0,0.0,60,0,0.0,0.0,0.0,60,0,0.0,0.0,337.4,60,0,342.9,323.3,0,0,0,28.1,60,0,10.2,60,0,10.4,10.1,7.4,60,0,7.6,7.1,3.9,60,0,4.6,3.0,64.6,60,0,69.0,60.0,28.1,60,0,39.0,18.0,239,0.0,1021.4,60,0,1021.4,0,1007.1,60,0,46.2,60,0
86282,2012-06-06 00:00:00,3130,60,0,0.0,0.0,0.0,60,0,0.0,0.0,0.0,60,0,0.0,0.0,0.0,60,0,0.0,0.0,337.4,60,0,342.9,323.3,0,0,0,28.1,60,0,10.2,60,0,10.4,10.1,7.4,60,0,7.6,7.1,3.9,60,0,4.6,3.0,64.6,60,0,69.0,60.0,28.1,60,0,39.0,18.0,239,0.0,1021.4,60,0,1021.4,0,1007.1,60,0,46.2,60,0
86282,2012-06-06 12:00:00,3140,60,0,0.0,0.0,0.0,60,0,0.0,0.0,0.0,60,0,0.0,0.0,0.0,60,0,0.0,0.0,337.4,60,0,342.9,323.3,0,0,0,28.1,60,0,10.2,60,0,10.4,10.1,7.4,60,0,7.6,7.1,3.9,60,0,4.6,3.0,64.6,60,0,69.0,60.0,28.1,60,0,39.0,18.0,239,0.0,1021.4,60,0,1021.4,0,1007.1,60,0,46.2,60,0
86282,2012-06-07 00:00:00,3150,60,0,0.0,0.0,0.0,60,0,0.0,0.0,0.0,60,0,0.0,0.0,0.0,60,0,0.0,0.0,337.4,60,0,342.9,323.3,0,0,0,28.1,60,0,10.2,60,0,10.4,10.1,7.4,60,0,7.6,7.1,3.9,60,0,4.6,3.0,64.6,60,0,69.0,60.0,28.1,60,0,39.0,18.0,239,0.0,1021.4,60,0,1021.4,0,1007.1,60,0,46.2,60,0
86282,2012-06-07 12:00:00,3160,60,0,0.0,0.0,0.0,60,0,0.0,0.0,0.0,60,0,0.0,0.0,0.0,60,0,0.0,0.0,337.4,60,0,342.9,323.3,0,0,0,28.1,60,0,10.2,60,0,10.4,10.1,7.4,60,0,7.6,7.1,3.9,60,0,4.6,3.0,64.6,60,0,69.0,60.0,28.1,60,0,39.0,18.0,239,0.0,1021.4,60,0,1021.4,0,1007.1,60,0,46.2,60,0
86282,2012-06-08 00:00:00,3170,60,0,0.0,0.0,0.0,60,0,0.0,0.0,0.0,60,0,0.0,0.0,0.0,60,0,0.0,0.0,337.4,60,0,342.9,323.3,0,0,0,28.1,60,0,10.2,60,0,10.4,10.1,7.4,60,0,7.6,7.1,3.9,60,0,4.6,3.0,64.6,60,0,69.0,60.0,28.1,60,0,39.0,18.0,239,0.0,1021.4,60,0,1021.4,0,1007.1,60,0,46.2,60,0
86282,2012-06-08 12:00:00,3180,60,0,0.0,0.0,0.0,60,0,0.0,0.0,0.0,60,0,0.0,0.0,0.0,60,0,0.0,0.0,337.4,60,0,342.9,323.3,0,0,0,28.1,60,0,10.2,60,0,10.4,10.1,7.4,60,0,7.6,7.1,3.9,60,0,4.6,3.0,64.6,60,0,69.0,60.0,28.1,60,0,39.0,18.0,239,0.0,1021.4,60,0,1021.4,0,1007.1,60,0,46.2,60,0
86282,2012-06-09 00:00:00,3190,60,0,0.0,0.0,0.0,60,0,0.0,0.0,0.0,60,0,0.0,0.0,0.0,60,0,0.0,0.0,337.4,60,0,342.9,323.3,0,0,0,28.1,60,0,10.2,60,0,10.4,10.1,7.4,60,0,7.6,7.1,3.9,60,0,4.6,3.0,64.6,60,0,69.0,60.0,28.1,60,0,39.0,18.0,239,0.0,1021.4,60,0,1021.4,0,1007.1,60,0,46.2,60,0
86282,2012-06-09 12:00:00,3200,60,0,0.0,0.0,0.0,60,0,0.0,0.0,0.0,60,0,0.0,0.0,0.0,60,0,0.0,0.0,337.4,60,0,342.9,323.3,0,0,0,28.1,60,0,10.2,60,0,10.4,10.1,7.4,60,0,7.6,7.1,3.9,60,0,4.6,3.0,64.6,60,0,69.0,60.0,28.1,60,0,39.0,18.0,239,0.0,1021.4,60,0,1021.4,0,1007.1,60,0,46.2,60,0
86282,2012-06-10 00:00:00,3210,60,0,0.0,0.0,0.0,60,0,0.0,0.0,0.0,60,0,0.0,0.0,0.0,60,0,0.0,0.0,337.4,60,0,342.9,323.3,0,0,0,28.1,60,0,10.2,60,0,10.4,10.1,7.4,60,0,7.6,7.1,3.9,60,0,4.6,3.0,64.6,60,0,69.0,60.0,28.1,60,0,39.0,18.0,239,0.0,1021.4,60,0,1021.4,0,1007.1,60,0,46.2,60,0
86282,2012-06-10 12:00:00,3220,60,0,0.0,0.0,0.0,60,0,0.0,0.0,0.0,60,0,0.0,0.0,0.0,60,0,0.0,0.0,337.4,60,0,342.9,323.3,0,0,0,28.1,60,0,10.2,60,0,10.4,10.1,7.4,60,0,7.6,7.1,3.9,60,0,4.6,3.0,64.6,60,0,69.0,60.0,28.1,60,0,39.0,18.0,239,0.0,1021.4,60,0,1021.4,0,1007.1,60,0,46.2,60,0
86282,2012-06-11 00:00:00,3230,60,0,0.0,0.0,0.0,60,0,0.0,0.0,0.0,60,0,0.0,0.0,0.0,60,0,0.0,0.0,337.4,60,0,342.9,323.3,0,0,0,28.1,60,0,10.2,60,0,10.4,10.1,7.4,60,0,7.6,7.1,3.9,60,0,4.6,3.0,64.6,60,0,69.0,60.0,28.1,60,0,39.0,18.0,239,0.0,1021.4,60,0,1021.4,0,1007.1,60,0,46.2,60,0
86282,2012-06-11 12:00:00,3240,60,0,0.0,0.0,0.0,60,0,0.0,0.0,0.0,60,0,0.0,0.0,0.0,60,0,0.0,0.0,337.4,60,0,342.9,323.3,0,0,0,28.1,60,0,10.2,60,0,10.4,10.1,7.4,60,0,7.6,7.1,3.9,60,0,4.6,3.0,64.6,60,0,69.0,60.0,28.1,60,0,39.0,18.0,239,0.0,1021.4,60,0,1021.4,0,1007.1,60,0,46.2,60,0
86282,2012-06-12 00:00:00,3250,60,0,0.0,0.0,0.0,60,0,0.0,0.0,0.0,60,0,0.0,0.0,0.0,60,0,0.0,0.0,337.4,60,0,342.9,323.3,0,0,0,28.1,60,0,10.2,60,0,10.4,10.1,7.4,60,0,7.6,7.1,3.9,60,0,4.6,3.0,64.6,60,0,69.0,60.0,28.1,60,0,39.0,18.0,239,0.0,1021.4,60,0,1021.4,0,1007.1,60,0,46.2,60,0
86282,2012-06-12 12:00:00,3260,60,0,0.0,0.0,0.0,60,0,0.0,0.0,0.0,60,0,0.0,0.0,0.0,60,0,0.0,0.0,337.4,60,0,342.9,323.3,0,0,0,28.1,60,0,10.2,60,0,10.4,10.1,7.4,60,0,7.6,7.1,3.9,60,0,4.6,3.0,64.6,60,0,69.0,60.0,28.1,60,0,39.0,18.0,239,0.0,1021.4,60,0,1021.4,0,1007.1,60,0,46.2,60,0
86282,2012-06-13 00:00:00,3270,60,0,0.0,0.0,0.0,60,0,0.0,0.0,0.0,60,0,0.0,0.0,0.0,60,0,0.0,0.0,337.4,60,0,342.9,323.3,0,0,0,28.1,60,0,10.2,60,0,10.4,10.1,7.4,60,0,7.6,7.1,3.9,60,0,4.6,3.0,64.6,60,0,69.0,60.0,28.1,60,0,39.0,18.0,239,0.0,1021.4,60,0,1021.4,0,1007.1,60,0,46.2,60,0
86282,2012-06-13 12:00:00,3280,60,0,0.0,0.0,0.0,60,0,0.0,0.0,0.0,60,0,0.0,0.0,0.0,60,0,0.0,0.0,337.4,60,0,342.9,323.3,0,0,0,28.1,60,0,10.2,60,0,10.4,10.1,7.4,60,0,7.6,7.1,3.9,60,0,4.6,3.0,64.6,60,0,69.0,60.0,28.1,60,0,39.0,18.0,239,0.0,1021.4,60,0,1021.4,0,1007.1,60,0,46.2,60,0
86282,2012-06-14 00:00:00,3290,60,0,0.0,0.0,0.0,60,0,0.0,0.0,0.0,60,0,0.0,0.0,0.0,60,0,0.0,0.0,337.4,60,0,342.9,323.3,0,0,0,28.1,60,0,10.2,60,0,10.4,10.1,7.4,60,0,7.6,7.1,3.9,60,0,4.6,3.0,64.6,60,0,69.0,60.0,28.1,60,0,39.0,18.0,239,0.0,1021.4,60,0,1021.4,0,1007.1,60,0,46.2,60,0
86282,2012-06-14 12:00:00,3300,60,0,0.0,0.0,0.0,60,0,0.0,0.0,0.0,60,0,0.0,0.0,0.0,60,0,0.0,0.0,337.4,60,0,342.9,323.3,0,0,0,28.1,60,0,10.2,60,0,10.4,10.1,7.4,60,0,7.6,7.1,3.9,60,0,4.6,3.0,64.6,60,0,69.0,60.0,28.1,60,0,39.0,18.0,239,0.0,1021.4,60,0,1021.4,0,1007.1,60,0,46.2,60,0
86282,2012-06-15 00:00:00,3310,60,0,0.0,0.0,0.0,60,0,0.0,0.0,0.0,60,0,0.0,0.0,0.0,60,0,0.0,0.0,337.4,60,0,342.9,323.3,0,0,0,28.1,60,0,10.2,60,0,10.4,10.1,7.4,60,0,7.6,7.1,3.9,60,0,4.6,3.0,64.6,60,0,69.0,60.0,28.1,60,0,39.0,18.0,239,0.0,1021.4,60,0,1021.4,0,1007.1,60,0,46.2,60,0
86282,2012-06-15 12:00:00,3320,60,0,0.0,0.0,0.0,60,0,0.0,0.0,0.0,60,0,0.0,0.0,0.0,60,0,0.0,0.0,337.4,60,0,342.9,323.3,0,0,0,28.1,60,0,10.2,60,0,10.4,10.1,7.4,60,0,7.6,7.1,3.9,60,0,4.6,3.0,64.6,60,0,69.0,60.0,28.1,60,0,39.0,18.0,239,0.0,1021.4,60,0,1021.4,0,1007.1,60,0,46.2,60,0
86282,2012-06-16 00:00:00,3330,60,0,0.0,0.0,0.0,60,0,0.0,0.0,0.0,60,0,0.0,0.0,0.0,60,0,0.0,0.0,337.4,60,0,342.9,323.3,0,0,0,28.1,60,0,10.2,60,0,10.4,10.1,7.4,60,0,7.6,7.1,3.9,60,0,4.6,3.0,64.6,60,0,69.0,60.0,28.1,60,0,39.0,18.0,239,0.0,1021.4,60,0,1021.4,0,1007.1,60,0,46.2,60,0
86282,2012-06-16 12:00:00,3340,60,0,0.0,0.0,0.0,60,0,0.0,0.0,0.0,60,0,0.0,0.0,0.0,60,0,0.0,0.0,337.4,60,0,342.9,323.3,0,0,0,28.1,60,0,10.2,60,0,10.4,10.1,7.4,60,0,7.6,7.1,3.9,60,0,4.6,3.0,64.6,60,0,69.0,60.0,28.1,60,0,39.0,18.0,239,0.0,1021.4,60,0,1021.4,0,1007.1,60,0,46.2,60,0
86282,2012-06-17 00:00:00,3350,60,0,0.0,0.0,0.0,60,0,0.0,0.0,0.0,60,0,0.0,0.0,0.0,60,0,0.0,0.0,337.4,60,0,342.9,323.3,0,0,0,28.1,60,0,10.2,60,0,10.4,10.1,7.4,60,0,7.6,7.1,3.9,60,0,4.6,3.0,64.6,60,0,69.0,60.0,28.1,60,0,39.0,18.0,239,0.0,1021.4,60,0,1021.4,0,1007.1,60,0,46.2,60,0
86282,2012-06-17 12:00:00,3360,60,0,0.0,0.0,0.0,60,0,0.0,0.0,0.0,60,0,0.0,0.0,0.0,60,0,0.0,0.0,337.4,60,0,342.9,323.3,0,0,0,28.1,60,0,10.2,60,0,10.4,10.1,7.4,60,0,7.6,7.1,3.9,60,0,4.6,3.0,64.6,60,0,69.0,60.0,28.1,60,0,39.0,18.0,239,0.0,1021.4,60,0,1021.4,0,1007.1,60,0,46.2,60,0
86282,2012-06-18 00:00:00,3370,60,0,0.0,0.0,0.0,60,0,0.0,0.0,0.0,60,0,0.0,0.0,0.0,60,0,0.0,0.0,337.4,60,0,342.9,323.3,0,0,0,28.1,60,0,10.2,60,0,10.4,10.1,7.4,60,0,7.6,7.1,3.9,60,0,4.6,3.0,64.6,60,0,69.0,60.0,28.1,60,0,39.0,18.0,239,0.0,1021.4,60,0,1021.4,0,1007.1,60,0,46.2,60,0
86282,2012-06-18 12:00:00,3380,60,0,0.0,0.0,0.0,60,0,0.0,0.0,0.0,60,0,0.0,0.0,0.0,60,0,0.0,0.0,337.4,60,0,342.9,323.3,0,0,0,28.1,60,0,10.2,60,0,10.4,10.1,7.4,60,0,7.6,7.1,3.9,60,0,4.6,3.0,64.6,60,0,69.0,60.0,28.1,60,0,39.0,18.0,239,0.0,1021.4,60,0,1021.4,0,1007.1,60,0,46.2,60,0
86282,2012-06-19 00:00:00,3390,60,0,0.0,0.0,0.0,60,0,0.0,0.0,0.0,60,0,0.0,0.0,0.0,60,0,0.0,0.0,337.4,60,0,342.9,323.3,0,0,0,28.1,60,0,10.2,60,0,10.4,10.1,7.4,60,0,7.6,7.1,3.9,60,0,4.6,3.0,64.6,60,0,69.0,60.0,28.1,60,0,39.0,18.0,239,0.0,1021.4,60,0,1021.4,0,1007.1,60,0,46.2,60,0
86282,2012-06-19 12:00:00,3400,60,0,0.0,0.0,0.0,60,0,0.0,0.0,0.0,60,0,0.0,0.0,0.0,60,0,0.0,0.0,337.4,60,0,342.9,323.3,0,0,0,28.1,60,0,10.2,60,0,10.4,10.1,7.4,60,0,7.6,7.1,3.9,60,0,4.6,3.0,64.6,60,0,69.0,60.0,28.1,60,0,39.0,18.0,239,0.0,1021.4,60,0,1021.4,0,1007.1,60,0,46.2,60,0
86282,2012-06-20 00:00:00,3410,60,0,0.0,0.0,0.0,60,0,0.0,0.0,0.0,60,0,0.0,0.0,0.0,60,0,0.0,0.0,337.4,60,0,342.9,323.3,0,0,0,28.1,60,0,10.2,60,0,10.4,10.1,7.4,60,0,7.6,7.1,3.9,60,0,4.6,3.0,64.6,60,0,69.0,60.0,28.1,60,0,39.0,18.0,239,0.0,1021.4,60,0,1021.4,0,1007.1,60,0,46.2,60,0
86282,2012-06-20 12:00:00,3420,60,0,0.0,0.0,0.0,60,0,0.0,0.0,0.0,60,0,0.0,0.0,0.0,60,0,0.0,0.0,337.4,60,0,342.9,323.3,0,0,0,28.1,60,0,10.2,60,0,10.4,10.1,7.4,60,0,7.6,7.1,3.9,60,0,4.6,3.0,64.6,60,0,69.0,60.0,28.1,60,0,39.0,18.0,239,0.0,1021.4,60,0,1021.4,0,1007.1,60,0,46.2,60,0
86282,2012-06-21 00:00:00,3430,60,0,0.0,0.0,0.0,60,0,0.0,0.0,0.0,60,0,0.0,0.0,0.0,60,0,0.0,0.0,337.4,60,0,342.9,323.3,0,0,0,28.1,60,0,10.2,60,0,10.4,10.1,7.4,60,0,7.6,7.1,3.9,60,0,4.6,3.0,64.6,60,0,69.0,60.0,28.1,60,0,39.0,18.0,239,0.0,1021.4,60,0,1021.4,0,1007.1,60,0,46.2,60,0
86282,2012-06-21 12:00:00,3440,60,0,0.0,0.0,0.0,60,0,0.0,0.0,0.0,60,0,0.0,0.0,0.0,60,0,0.0,0.0,337.4,60,0,342.9,323.3,0,0,0,28.1,60,0,10.2,60,0,10.4,10.1,7.4,60,0,7.6,7.1,3.9,60,0,4.6,3.0,64.6,60,0,69.0,60.0,28.1,60,0,39.0,18.0,239,0.0,1021.4,60,0,1021.4,0,1007.1,60,0,46.2,60,0
86282,2012-06-22 00:00:00,3450,60,0,0.0,0.0,0.0,60,0,0.0,0.0,0.0,60,0,0.0,0.0,0.0,60,0,0.0,0.0,337.4,60,0,342.9,323.3,0,0,0,28.1,60,0,10.2,60,0,10.4,10.1,7.4,60,0,7.6,7.1,3.9,60,0,4.6,3.0,64.6,60,0,69.0,60.0,28.1,60,0,39.0,18.0,239,0.0,1021.4,60,0,1021.4,0,1007.1,60,0,46.2,60,0
86282,2012-06-22 12:00:00,3460,60,0,0.0,0.0,0.0,60,0,0.0,0.0,0.0,60,0,0.0,0.0,0.0,60,0,0.0,0.0,337.4,60,0,342.9,323.3,0,0,0,28.1,60,0,10.2,60,0,10.4,10.1,7.4,60,0,7.6,7.1,3.9,60,0,4.6,3.0,64.6,60,0,69.0,60.0,28.1,60,0,39.0,18.0,239,0.0,1021.4,60,0,1021.4,0,1007.1,60,0,46.2,60,0
86282,2012-06-23 00:00:00,3470,60,0,0.0,0.0,0.0,60,0,0.0,0.0,0.0,60,0,0.0,0.0,0.0,60,0,0.0,0.0,337.4,60,0,342.9,323.3,0,0,0,28.1,60,0,10.2,60,0,10.4,10.1,7.4,60,0,7.6,7.1,3.9,60,0,4.6,3.0,64.6,60,0,69.0,60.0,28.1,60,0,39.0,18.0,239,0.0,1021.4,60,0,1021.4,0,1007.1,60,0,46.2,60,0
86282,2012-06-23 12:00:00,3480,60,0,0.0,0.0,0.0,60,0,0.0,0.0,0.0,60,0,0.0,0.0,0.0,60,0,0.0,0.0,337.4,60,0,342.9,323.3,0,0,0,28.1,60,0,10.2,60,0,10.4,10.1,7.4,60,0,7.6,7.1,3.9,60,0,4.6,3.0,64.6,60,0,69.0,60.0,28.1,60,0,39.0,18.0,239,0.0,1021.4,60,0,1021.4,0,1007.1,60,0,46.2,60,0
86282,2012-06-24 00:00:00,3490,60,0,0.0,0.0,0.0,60,0,0.0,0.0,0.0,60,0,0.0,0.0,0.0,60,0,0.0,0.0,337.4,60,0,342.9,323.3,0,0,0,28.1,60,0,10.2,60,0,10.4,10.1,7.4,60,0,7.6,7.1,3.9,60,0,4.6,3.0,64.6,60,0,69.0,60.0,28.1,60,0,39.0,18.0,239,0.0,1021.4,60,0,1021.4,0,1007.1,60,0,46.2,60,0
86282,2012-06-24 12:00:00,3500,60,0,0.0,0.0,0.0,60,0,0.0,0.0,0.0,60,0,0.0,0.0,0.0,60,0,0.0,0.0,337.4,60,0,342.9,323.3,0,0,0,28.1,60,0,10.2,60,0,10.4,10.1,7.4,60,0,7.6,7.1,3.9,60,0,4.6,3.0,64.6,60,0,69.0,60.0,28.1,60,0,39.0,18.0,239,0.0,1021.4,60,0,1021.4,0,1007.1,60,0,46.2,60,0
86282,2012-06-25 00:00:00,3510,60,0,0.0,0.0,0.0,60,0,0.0,0.0,0.0,60,0,0.0,0.0,0.0,60,0,0.0,0.0,337.4,60,0,342.9,323.3,0,0,0,28.1,60,0,10.2,60,0,10.4,10.1,7.4,60,0,7.6,7.1,3.9,60,0,4.6,3.0,64.6,60,0,69.0,60.0,28.1,60,0,39.0,18.0,239,0.0,1021.4,60,0,1021.4,0,1007.1,60,0,46.2,60,0
86282,2012-06-25 12:00:00,3520,60,0,0.0,0.0,0.0,60,0,0.0,0.0,0.0,60,0,0.0,0.0,0.0,60,0,0.0,0.0,337.4,60,0,342.9,323.3,0,0,0,28.1,60,0,10.2,60,0,10.4,10.1,7.4,60,0,7.6,7.1,3.9,60,0,4.6,3.0,64.6,60,0,69.0,60.0,28.1,60,0,39.0,18.0,239,0.0,1021.4,60,0,1021.4,0,1007.1,60,0,46.2,60,0
86282,2012-06-26 00:00:00,3530,60,0,0.0,0.0,0.0,60,0,0.0,0.0,0.0,60,0,0.0,0.0,0.0,60,0,0.0,0.0,337.4,60,0,342.9,323.3,0,0,0,28.1,60,0,10.2,60,0,10.4,10.1,7.4,60,0,7.6,7.1,3.9,60,0,4.6,3.0,64.6,60,0,69.0,60.0,28.1,60,0,39.0,18.0,239,0.0,1021.4,60,0,1021.4,0,1007.1,60,0,46.2,60,0
86282,2012-06-26 12:00:00,3540,60,0,0.0,0.0,0.0,60,0,0.0,0.0,0.0,60,0,0.0,0.0,0.0,60,0,0.0,0.0,337.4,60,0,342.9,323.3,0,0,0,28.1,60,0,10.2,60,0,10.4,10.1,7.4,60,0,7.6,7.1,3.9,60,0,4.6,3.0,64.6,60,0,69.0,60.0,28.1,60,0,39.0,18.0,239,0.0,1021.4,60,0,1021.4,0,1007.1,60,0,46.2,60,0
86282,2012-06-27 00:00:00,3550,60,0,0.0,0.0,0.0,60,0,0.0,0.0,0.0,60,0,0.0,0.0,0.0,60,0,0.0,0.0,337.4,60,0,342.9,323.3,0,0,0,28.1,60,0,10.2,60,0,10.4,10.1,7.4,60,0,7.6,7.1,3.9,60,0,4.6,3.0,64.6,60,0,69.0,60.0,28.1,60,0,39.0,18.0,239,0.0,1021.4,60,0,1021.4,0,1007.1,60,0,46.2,60,0
86282,2012-06-27 12:00:00,3560,60,0,0.0,0.0,0.0,60,0,0.0,0.0,0.0,60,0,0.0,0.0,0.0,60,0,0.0,0.0,337.4,60,0,342.9,323.3,0,0,0,28.1,60,0,10.2,60,0,10.4,10.1,7.4,60,0,7.6,7.1,3.9,60,0,4.6,3.0,64.6,60,0,69.0,60.0,28.1,60,0,39.0,18.0,239,0.0,1021.4,60,0,1021.4,0,1007.1,60,0,46.2,60,0
86282,2012-06-28 00:00:00,3570,60,0,0.0,0.0,0.0,60,0,0.0,0.0,0.0,60,0,0.0,0.0,0.0,60,0,0.0,0.0,337.4,60,0,342.9,323.3,0,0,0,28.1,60,0,10.2,60,0,10.4,10.1,7.4,60,0,7.6,7.1,3.9,60,0,4.6,3.0,64.6,60,0,69.0,60.0,28.1,60,0,39.0,18.0,239,0.0,1021.4,60,0,1021.4,0,1007.1,60,0,46.2,60,0
86282,2012-06-28 12:00:00,3580,60,0,0.0,0.0,0.0,60,0,0.0,0.0,0.0,60,0,0.0,0.0,0.0,60,0,0.0,0.0,337.4,60,0,342.9,323.3,0,0,0,28.1,60,0,10.2,60,0,10.4,10.1,7.4,60,0,7.6,7.1,3.9,60,0,4.6,3.0,64.6,60,0,69.0,60.0,28.1,60,0,39.0,18.0,239,0.0,1021.4,60,0,1021.4,0,1007.1,60,0,46.2,60,0
86282,2012-06-29 00:00:00,3590,60,0,0.0,0.0,0.0,60,0,0.0,0.0,0.0,60,0,0.0,0.0,0.0,60,0,0.0,0.0,337.4,60,0,342.9,323.3,0,0,0,28.1,60,0,10.2,60,0,10.4,10.1,7.4,60,0,7.6,7.1,3.9,60,0,4.6,3.0,64.6,60,0,69.0,60.0,28.1,60,0,39.0,18.0,239,0.0,1021.4,60,0,1021.4,0,1007.1,60,0,46.2,60,0
86282,2012-06-29 12:00:00,3600,60,0,0.0,0.0,0.0,60,0,0.0,0.0,0.0,60,0,0.0,0.0,0.0,60,0,0.0,0.0,337.4,60,0,342.9,323.3,0,0,0,28.1,60,0,10.2,60,0,10.4,10.1,7.4,60,0,7.6,7.1,3.9,60,0,4.6,3.0,64.6,60,0,69.0,60.0,28.1,60,0,39.0,18.0,239,0.0,1021.4,60,0,1021.4,0,1007.1,60,0,46.2,60,0
86282,2012-06-30 00:00:00,3610,60,0,0.0,0.0,0.0,60,0,0.0,0.0,0.0,60,0,0.0,0.0,0.0,60,0,0.0,0.0,337.4,60,0,342.9,323.3,0,0,0,28.1,60,0,10.2,60,0,10.4,10.1,7.4,60,0,7.6,7.1,3.9,60,0,4.6,3.0,64.6,60,0,69.0,60.0,28.1,60,0,39.0,18.0,239,0.0,1021.4,60,0,1021.4,0,1007.1,60,0,46.2,60,0
86282,2012-06-30 12:00:00,3620,60,0,0.0,0.0,0.0,60,0,0.0,0.0,0.0,60,0,0.0,0.0,0.0,60,0,0.0,0.0,337.4,60,0,342.9,323.3,0,0,0,28.1,60,0,10.2,60,0,10.4,10.1,7.4,60,0,7.6,7.1,3.9,60,0,4.6,3.0,64.6,60,0,69.0,60.0,28.1,60,0,39.0,18.0,239,0.0,1021.4,60,0,1021.4,0,1007.1,60,0,46.2,60,0
86282,2012-07-01 00:00:00,3630,60,0,0.0,0.0,0.0,60,0,0.0,0.0,0.0,60,0,0.0,0.0,0.0,60,0,0.0,0.0,337.4,60,0,342.9,323.3,0,0,0,28.1,60,0,10.2,60,0,10.4,10.1,7.4,60,0,7.6,7.1,3.9,60,0,4.6,3.0,64.6,60,0,69.0,60.0,28.1,60,0,39.0,18.0,239,0.0,1021.4,60,0,1021.4,0,1007.1,60,0,46.2,60,0
86282,2012-07-01 12:00:00,3640,60,0,0.0,0.0,0.0,60,0,0.0,0.0,0.0,60,0,0.0,0.0,0.0,60,0,0.0,0.0,337.4,60,0,342.9,323.3,0,0,0,28.1,60,0,10.2,60,0,10.4,10.1,7.4,60,0,7.6,7.1,3.9,60,0,4.6,3.0,64.6,60,0,69.0,60.0,28.1,60,0,39.0,18.0,239,0.0,1021.4,60,0,1021.4,0,1007.1,60,0,46.2,60,0
86282,2012-07-02 00:00:00,3650,60,0,0.0,0.0,0.0,60,0,0.0,0.0,0.0,60,0,0.0,0.0,0.0,60,0,0.0,0.0,337.4,60,0,342.9,323.3,0,0,0,28.1,60,0,10.2,60,0,10.4,10.1,7.4,60,0,7.6,7.1,3.9,60,0,4.6,3.0,64.6,60,0,69.0,60.0,28.1,60,0,39.0,18.0,239,0.0,1021.4,60,0,1021.4,0,1007.1,60,0,46.2,60,0
86282,2012-07-02 12:00:00,3660,60,0,0.0,0.0,0.0,60,0,0.0,0.0,0.0,60,0,0.0,0.0,0.0,60,0,0.0,0.0,337.4,60,0,342.9,323.3,0,0,0,28.1,60,0,10.2,60,0,10.4,10.1,7.4,60,0,7.6,7.1,3.9,60,0,4.6,3.0,64.6,60,0,69.0,60.0,28.1,60,0,39.0,18.0,239,0.0,1021.4,60,0,1021.4,0,1007.1,60,0,46.2,60,0
86282,2012-07-03 00:00:00,3670,60,0,0.0,0.0,0.0,60,0,0.0,0.0,0.0,60,0,0.0,0.0,0.0,60,0,0.0,0.0,337.4,60,0,342.9,323.3,0,0,0,28.1,60,0,10.2,60,0,10.4,10.1,7.4,60,0,7.6,7.1,3.9,60,0,4.6,3.0,64.6,60,0,69.0,60.0,28.1,60,0,39.0,18.0,239,0.0,1021.4,60,0,1021.4,0,1007.1,60,0,46.2,60,0
86282,2012-07-03 12:00:00,3680,60,0,0.0,0.0,0.0,60,0,0.0,0.0,0.0,60,0,0.0,0.0,0.0,60,0,0.0,0.0,337.4,60,0,342.9,323.3,0,0,0,28.1,60,0,10.2,60,0,10.4,10.1,7.4,60,0,7.6,7.1,3.9,60,0,4.6,3.0,64.6,60,0,69.0,60.0,28.1,60,0,39.0,18.0,239,0.0,1021.4,60,0,1021.4,0,1007.1,60,0,46.2,60,0
86282,2012-07-04 00:00:00,3690,60,0,0.0,0.0,0.0,60,0,0.0,0.0,0.0,60,0,0.0,0.0,0.0,60,0,0.0,0.0,337.4,60,0,342.9,323.3,0,0,0,28.1,60,0,10.2,60,0,10.4,10.1,7.4,60,0,7.6,7.1,3.9,60,0,4.6,3.0,64.6,60,0,69.0,60.0,28.1,60,0,39.0,18.0,239,0.0,1021.4,60,0,1021.4,0,1007.1,60,0,46.2,60,0
86282,2012-07-04 12:00:00,3700,60,0,0.0,0.0,0.0,60,0,0.0,0.0,0.0,60,0,0.0,0.0,0.0,60,0,0.0,0.0,337.4,60,0,342.9,323.3,0,0,0,28.1,60,0,10.2,60,0,10.4,10.1,7.4,60,0,7.6,7.1,3.9,60,0,4.6,3.0,64.6,60,0,69.0,60.0,28.1,60,0,39.0,18.0,239,0.0,1021.4,60,0,1021.4,0,1007.1,60,0,46.2,60,0
86282,2012-07-05 00:00:00,3710,60,0,0.0,0.0,0.0,60,0,0.0,0.0,0.0,60,0,0.0,0.0,0.0,60,0,0.0,0.0,337.4,60,0,342.9,323.3,0,0,0,28.1,60,0,10.2,60,0,10.4,10.1,7.4,60,0,7.6,7.1,3.9,60,0,4.6,3.0,64.6,60,0,69.0,60.0,28.1,60,0,39.0,18.0,239,0.0,1021.4,60,0,1021.4,0,1007.1,60,0,46.2,60,0
86282,2012-07-05 12:00:00,3720,60,0,0.0,0.0,0.0,60,0,0.0,0.0,0.0,60,0,0.0,0.0,0.0,60,0,0.0,0.0,337.4,60,0,342.9,323.3,0,0,0,28.1,60,0,10.2,60,0,10.4,10.1,7.4,60,0,7.6,7.1,3.9,60,0,4.6,3.0,64.6,60,0,69.0,60.0,28.1,60,0,39.0,18.0,239,0.0,1021.4,60,0,1021.4,0,1007.1,60,0,46.2,60,0
86282,2012-07-06 00:00:00,3730,60,0,0.0,0.0,0.0,60,0,0.0,0.0,0.0,60,0,0.0,0.0,0.0,60,0,0.0,0.0,337.4,60,0,342.9,323.3,0,0,0,28.1,60,0,10.2,60,0,10.4,10.1,7.4,60,0,7.6,7.1,3.9,60,0,4.6,3.0,64.6,60,0,69.0,60.0,28.1,60,0,39.0,18.0,239,0.0,1021.4,60,0,1021.4,0,1007.1,60,0,46.2,60,0
86282,2012-07-06 12:00:00,3740,60,0,0.0,0.0,0.0,60,0,0.0,0.0,0.0,60,0,0.0,0.0,0.0,60,0,0.0,0.0,337.4,60,0,342.9,323.3,0,0,0,28.1,60,0,10.2,60,0,10.4,10.1,7.4,60,0,7.6,7.1,3.9,60,0,4.6,3.0,64.6,60,0,69.0,60.0,28.1,60,0,39.0,18.0,239,0.0,1021.4,60,0,1021.4,0,1007.1,60,0,46.2,60,0
86282,2012-07-07 00:00:00,3750,60,0,0.0,0.0,0.0,60,0,0.0,0.0,0.0,60,0,0.0,0.0,0.0,60,0,0.0,0.0,337.4,60,0,342.9,323.3,0,0,0,28.1,60,0,10.2,60,0,10.4,10.1,7.4,60,0,7.6,7.1,3.9,60,0,4.6,3.0,64.6,60,0,69.0,60.0,28.1,60,0,39.0,18.0,239,0.0,1021.4,60,0,1021.4,0,1007.1,60,0,46.2,60,0
86282,2012-07-07 12:00:00,3760,60,0,0.0,0.0,0.0,60,0,0.0,0.0,0.0,60,0,0.0,0.0,0.0,60,0,0.0,0.0,337.4,60,0,342.9,323.3,0,0,0,28.1,60,0,10.2,60,0,10.4,10.1,7.4,60,0,7.6,7.1,3.9,60,0,4.6,3.0,64.6,60,0,69.0,60.0,28.1,60,0,39.0,18.0,239,0.0,1021.4,60,0,1021.4,0,1007.1,60,0,46.2,60,0
86282,2012-07-08 00:00:00,3770,60,0,0.0,0.0,0.0,60,0,0.0,0.0,0.0,60,0,0.0,0.0,0.0,60,0,0.0,0.0,337.4,60,0,342.9,323.3,0,0,0,28.1,60,0,10.2,60,0,10.4,10.1,7.4,60,0,7.6,7.1,3.9,60,0,4.6,3.0,64.6,60,0,69.0,60.0,28.1,60,0,39.0,18.0,239,0.0,1021.4,60,0,1021.4,0,1007.1,60,0,46.2,60,0
86282,2012-07-08 12:00:00,3780,60,0,0.0,0.0,0.0,60,0,0.0,0.0,0.0,60,0,0.0,0.0,0.0,60,0,0.0,0.0,337.4,60,0,342.9,323.3,0,0,0,28.1,60,0,10.2,60,0,10.4,10.1,7.4,60,0,7.6,7.1,3.9,60,0,4.6,3.0,64.6,60,0,69.0,60.0,28.1,60,0,39.0,18.0,239,0.0,1021.4,60,0,1021.4,0,1007.1,60,0,46.2,60,0
86282,2012-07-09 00:00:00,3790,60,0,0.0,0.0,0.0,60,0,0.0,0.0,0.0,60,0,0.0,0.0,0.0,60,0,0.0,0.0,337.4,60,0,342.9,323.3,0,0,0,28.1,60,0,10.2,60,0,10.4,10.1,7.4,60,0,7.6,7.1,3.9,60,0,4.6,3.0,64.6,60,0,69.0,60.0,28.1,60,0,39.0,18.0,239,0.0,1021.4,60,0,1021.4,0,1007.1,60,0,46.2,60,0
86282,2012-07-09 12:00:00,3800,60,0,0.0,0.0,0.0,60,0,0.0,0.0,0.0,60,0,0.0,0.0,0.0,60,0,0.0,0.0,337.4,60,0,342.9,323.3,0,0,0,28.1,60,0,10.2,60,0,10.4,10.1,7.4,60,0,7.6,7.1,3.9,60,0,4.6,3.0,64.6,60,0,69.0,60.0,28.1,60,0,39.0,18.0,239,0.0,1021.4,60,0,1021.4,0,1007.1,60,0,46.2,60,0
86282,2012-07-10 00:00:00,3810,60,0,0.0,0.0,0.0,60,0,0.0,0.0,0.0,60,0,0.0,0.0,0.0,60,0,0.0,0.0,337.4,60,0,342.9,323.3,0,0,0,28.1,60,0,10.2,60,0,10.4,10.1,7.4,60,0,7.6,7.1,3.9,60,0,4.6,3.0,64.6,60,0,69.0,60.0,28.1,60,0,39.0,18.0,239,0.0,1021.4,60,0,1021.4,0,1007.1,60,0,46.2,60,0
86282,2012-07-10 12:00:00,3820,60,0,0.0,0.0,0.0,60,0,0.0,0.0,0.0,60,0,0.0,0.0,0.0,60,0,0.0,0.0,337.4,60,0,342.9,323.3,0,0,0,28.1,60,0,10.2,60,0,10.4,10.1,7.4,60,0,7.6,7.1,3.9,60,0,4.6,3.0,64.6,60,0,69.0,60.0,28.1,60,0,39.0,18.0,239,0.0,1021.4,60,0,1021.4,0,1007.1,60,0,46.2,60,0
86282,2012-07-11 00:00:00,3830,60,0,0.0,0.0,0.0,60,0,0.0,0.0,0.0,60,0,0.0,0.0,0.0,60,0,0.0,0.0,337.4,60,0,342.9,323.3,0,0,0,28.1,60,0,10.2,60,0,10.4,10.1,7.4,60,0,7.6,7.1,3.9,60,0,4.6,3.0,64.6,60,0,69.0,60.0,28.1,60,0,39.0,18.0,239,0.0,1021.4,60,0,1021.4,0,1007.1,60,0,46.2,60,0
86282,2012-07-11 12:00:00,3840,60,0,0.0,0.0,0.0,60,0,0.0,0.0,0.0,60,0,0.0,0.0,0.0,60,0,0.0,0.0,337.4,60,0,342.9,323.3,0,0,0,28.1,60,0,10.2,60,0,10.4,10.1,7.4,60,0,7.6,7.1,3.9,60,0,4.6,3.0,64.6,60,0,69.0,60.0,28.1,60,0,39.0,18.0,239,0.0,1021.4,60,0,1021.4,0,1007.1,60,0,46.2,60,0
86282,2012-07-12 00:00:00,3850,60,0,0.0,0.0,0.0,60,0,0.0,0.0,0.0,60,0,0.0,0.0,0.0,60,0,0.0,0.0,337.4,60,0,342.9,323.3,0,0,0,28.1,60,0,10.2,60,0,10.4,10.1,7.4,60,0,7.6,7.1,3.9,60,0,4.6,3.0,64.6,60,0,69.0,60.0,28.1,60,0,39.0,18.0,239,0.0,1021.4,60,0,1021.4,0,1007.1,60,0,46.2,60,0
86282,2012-07-12 12:00:00,3860,60,0,0.0,0.0,0.0,60,0,0.0,0.0,0.0,60,0,0.0,0.0,0.0,60,0,0.0,0.0,337.4,60,0,342.9,323.3,0,0,0,28.1,60,0,10.2,60,0,10.4,10.1,7.4,60,0,7.6,7.1,3.9,60,0,4.6,3.0,64.6,60,0,69.0,60.0,28.1,60,0,39.0,18.0,239,0.0,1021.4,60,0,1021.4,0,1007.1,60,0,46.2,60,0
86282,2012-07-13 00:00:00,3870,60,0,0.0,0.0,0.0,60,0,0.0,0.0,0.0,60,0,0.0,0.0,0.0,60,0,0.0,0.0,337.4,60,0,342.9,323.3,0,0,0,28.1,60,0,10.2,60,0,10.4,10.1,7.4,60,0,7.6,7.1,3.9,60,0,4.6,3.0,64.6,60,0,69.0,60.0,28.1,60,0,39.0,18.0,239,0.0,1021.4,60,0,1021.4,0,1007.1,60,0,46.2,60,0
86282,2012-07-13 12:00:00,3880,60,0,0.0,0.0,0.0,60,0,0.0,0.0,0.0,60,0,0.0,0.0,0.0,60,0,0.0,0.0,337.4,60,0,342.9,323.3,0,0,0,28.1,60,0,10.2,60,0,10.4,10.1,7.4,60,0,7.6,7.1,3.9,60,0,4.6,3.0,64.6,60,0,69.0,60.0,28.1,60,0,39.0,18.0,239,0.0,1021.4,60,0,1021.4,0,1007.1,60,0,46.2,60,0
86282,2012-07-14 00:00:00,3890,60,0,0.0,0.0,0.0,60,0,0.0,0.0,0.0,60,0,0.0,0.0,0.0,60,0,0.0,0.0,337.4,60,0,342.9,323.3,0,0,0,28.1,60,0,10.2,60,0,10.4,10.1,7.4,60,0,7.6,7.1,3.9,60,0,4.6,3.0,64.6,60,0,69.0,60.0,28.1,60,0,39.0,18.0,239,0.0,1021.4,60,0,1021.4,0,1007.1,60,0,46.2,60,0
86282,2012-07-14 12:00:00,3900,60,0,0.0,0.0,0.0,60,0,0.0,0.0,0.0,60,0,0.0,0.0,0.0,60,0,0.0,0.0,337.4,60,0,342.9,323.3,0,0,0,28.1,60,0,10.2,60,0,10.4,10.1,7.4,60,0,7.6,7.1,3.9,60,0,4.6,3.0,64.6,60,0,69.0,60.0,28.1,60,0,39.0,18.0,239,0.0,1021.4,60,0,1021.4,0,1007.1,60,0,46.2,60,0
86282,2012-07-15 00:00:00,3910,60,0,0.0,0.0,0.0,60,0,0.0,0.0,0.0,60,0,0.0,0.0,0.0,60,0,0.0,0.0,337.4,60,0,342.9,323.3,0,0,0,28.1,60,0,10.2,60,0,10.4,10.1,7.4,60,0,7.6,7.1,3.9,60,0,4.6,3.0,64.6,60,0,69.0,60.0,28.1,60,0,39.0,18.0,239,0.0,1021.4,60,0,1021.4,0,1007.1,60,0,46.2,60,0
86282,2012-07-15 12:00:00,3920,60,0,0.0,0.0,0.0,60,0,0.0,0.0,0.0,60,0,0.0,0.0,0.0,60,0,0.0,0.0,337.4,60,0,342.9,323.3,0,0,0,28.1,60,0,10.2,60,0,10.4,10.1,7.4,60,0,7.6,7.1,3.9,60,0,4.6,3.0,64.6,60,0,69.0,60.0,28.1,60,0,39.0,18.0,239,0.0,1021.4,60,0,1021.4,0,1007.1,60,0,46.2,60,0
86282,2012-07-16 00:00:00,3930,60,0,0.0,0.0,0.0,60,0,0.0,0.0,0.0,60,0,0.0,0.0,0.0,60,0,0.0,0.0,337.4,60,0,342.9,323.3,0,0,0,28.1,60,0,10.2,60,0,10.4,10.1,7.4,60,0,7.6,7.1,3.9,60,0,4.6,3.0,64.6,60,0,69.0,60.0,28.1,60,0,39.0,18.0,239,0.0,1021.4,60,0,1021.4,0,1007.1,60,0,46.2,60,0
86282,2012-07-16 12:00:00,3940,60,0,0.0,0.0,0.0,60,0,0.0,0.0,0.0,60,0,0.0,0.0,0.0,60,0,0.0,0.0,337.4,60,0,342.9,323.3,0,0,0,28.1,60,0,10.2,60,0,10.4,10.1,7.4,60,0,7.6,7.1,3.9,60,0,4.6,3.0,64.6,60,0,69.0,60.0,28.1,60,0,39.0,18.0,239,0.0,1021.4,60,0,1021.4,0,1007.1,60,0,46.2,60,0
86282,2012-07-17 00:00:00,3950,60,0,0.0,0.0,0.0,60,0,0.0,0.0,0.0,60,0,0.0,0.0,0.0,60,0,0.0,0.0,337.4,60,0,342.9,323.3,0,0,0,28.1,60,0,10.2,60,0,10.4,10.1,7.4,60,0,7.6,7.1,3.9,60,0,4.6,3.0,64.6,60,0,69.0,60.0,28.1,60,0,39.0,18.0,239,0.0,1021.4,60,0,1021.4,0,1007.1,60,0,46.2,60,0
86282,2012-07-17 12:00:00,3960,60,0,0.0,0.0,0.0,60,0,0.0,0.0,0.0,60,0,0.0,0.0,0.0,60,0,0.0,0.0,337.4,60,0,342.9,323.3,0,0,0,28.1,60,0,10.2,60,0,10.4,10.1,7.4,60,0,7.6,7.1,3.9,60,0,4.6,3.0,64.6,60,0,69.0,60.0,28.1,60,0,39.0,18.0,239,0.0,1021.4,60,0,1021.4,0,1007.1,60,0,46.2,60,0
86282,2012-07-18 00:00:00,3970,60,0,0.0,0.0,0.0,60,0,0.0,0.0,0.0,60,0,0.0,0.0,0.0,60,0,0.0,0.0,337.4,60,0,342.9,323.3,0,0,0,28.1,60,0,10.2,60,0,10.4,10.1,7.4,60,0,7.6,7.1,3.9,60,0,4.6,3.0,64.6,60,0,69.0,60.0,28.1,60,0,39.0,18.0,239,0.0,1021.4,60,0,1021.4,0,1007.1,60,0,46.2,60,0
86282,2012-07-18 12:00:00,3980,60,0,0.0,0.0,0.0,60,0,0.0,0.0,0.0,60,0,0.0,0.0,0.0,60,0,0.0,0.0,337.4,60,0,342.9,323.3,0,0,0,28.1,60,0,10.2,60,0,10.4,10.1,7.4,60,0,7.6,7.1,3.9,60,0,4.6,3.0,64.6,60,0,69.0,60.0,28.1,60,0,39.0,18.0,239,0.0,1021.4,60,0,1021.4,0,1007.1,60,0,46.2,60,0
86282,2012-07-19 00:00:00,3990,60,0,0.0,0.0,0.0,60,0,0.0,0.0,0.0,60,0,0.0,0.0,0.0,60,0,0.0,0.0,337.4,60,0,342.9,323.3,0,0,0,28.1,60,0,10.2,60,0,10.4,10.1,7.4,60,0,7.6,7.1,3.9,60,0,4.6,3.0,64.6,60,0,69.0,60.0,28.1,60,0,39.0,18.0,239,0.0,1021.4,60,0,1021.4,0,1007.1,60,0,46.2,60,0
86282,2012-07-19 12:00:00,4000,60,0,0.0,0.0,0.0,60,0,0.0,0.0,0.0,60,0,0.0,0.0,0.0,60,0,0.0,0.0,337.4,60,0,342.9,323.3,0,0,0,28.1,60,0,10.2,60,0,10.4,10.1,7.4,60,0,7.6,7.1,3.9,60,0,4.6,3.0,64.6,60,0,69.0,60.0,28.1,60,0,39.0,18.0,239,0.0,1021.4,60,0,1021.4,0,1007.1,60,0,46.2,60,0
86282,2012-07-20 00:00:00,4010,60,0,0.0,0.0,0.0,60,0,0.0,0.0,0.0,60,0,0.0,0.0,0.0,60,0,0.0,0.0,337.4,60,0,342.9,323.3,0,0,0,28.1,60,0,10.2,60,0,10.4,10.1,7.4,60,0,7.6,7.1,3.9,60,0,4.6,3.0,64.6,60,0,69.0,60.0,28.1,60,0,39.0,18.0,239,0.0,1021.4,60,0,1021.4,0,1007.1,60,0,46.2,60,0
86282,2012-07-20 12:00:00,4020,60,0,0.0,0.0,0.0,60,0,0.0,0.0,0.0,60,0,0.0,0.0,0.0,60,0,0.0,0.0,337.4,60,0,342.9,323.3,0,0,0,28.1,60,0,10.2,60,0,10.4,10.1,7.4,60,0,7.6,7.1,3.9,60,0,4.6,3.0,64.6,60,0,69.0,60.0,28.1,60,0,39.0,18.0,239,0.0,1021.4,60,0,1021.4,0,1007.1,60,0,46.2,60,0
86282,2012-07-21 00:00:00,4030,60,0,0.0,0.0,0.0,60,0,0.0,0.0,0.0,60,0,0.0,0.0,0.0,60,0,0.0,0.0,337.4,60,0,342.9,323.3,0,0,0,28.1,60,0,10.2,60,0,10.4,10.1,7.4,60,0,7.6,7.1,3.9,60,0,4.6,3.0,64.6,60,0,69.0,60.0,28.1,60,0,39.0,18.0,239,0.0,1021.4,60,0,1021.4,0,1007.1,60,0,46.2,60,0
86282,2012-07-21 12:00:00,4040,60,0,0.0,0.0,0.0,60,0,0.0,0.0,0.0,60,0,0.0,0.0,0.0,60,0,0.0,0.0,337.4,60,0,342.9,323.3,0,0,0,28.1,60,0,10.2,60,0,10.4,10.1,7.4,60,0,7.6,7.1,3.9,60,0,4.6,3.0,64.6,60,0,69.0,60.0,28.1,60,0,39.0,18.0,239,0.0,1021.4,60,0,1021.4,0,1007.1,60,0,46.2,60,0
86282,2012-07-22 00:00:00,4050,60,0,0.0,0.0,0.0,60,0,0.0,0.0,0.0,60,0,0.0,0.0,0.0,60,0,0.0,0.0,337.4,60,0,342.9,323.3,0,0,0,28.1,60,0,10.2,60,0,10.4,10.1,7.4,60,0,7.6,7.1,3.9,60,0,4.6,3.0,64.6,60,0,69.0,60.0,28.1,60,0,39.0,18.0,239,0.0,1021.4,60,0,1021.4,0,1007.1,60,0,46.2,60,0
86282,2012-07-22 12:00:00,4060,60,0,0.0,0.0,0.0,60,0,0.0,0.0,0.0,60,0,0.0,0.0,0.0,60,0,0.0,0.0,337.4,60,0,342.9,323.3,0,0,0,28.1,60,0,10.2,60,0,10.4,10.1,7.4,60,0,7.6,7.1,3.9,60,0,4.6,3.0,64.6,60,0,69.0,60.0,28.1,60,0,39.0,18.0,239,0.0,1021.4,60,0,1021.4,0,1007.1,60,0,46.2,60,0
86282,2012-07-23 00:00:00,4070,60,0,0.0,0.0,0.0,60,0,0.0,0.0,0.0,60,0,0.0,0.0,0.0,60,0,0.0,0.0,337.4,60,0,342.9,323.3,0,0,0,28.1,60,0,10.2,60,0,10.4,10.1,7.4,60,0,7.6,7.1,3.9,60,0,4.6,3.0,64.6,60,0,69.0,60.0,28.1,60,0,39.0,18.0,239,0.0,1021.4,60,0,1021.4,0,1007.1,60,0,46.2,60,0
86282,2012-07-23 12:00:00,4080,60,0,0.0,0.0,0.0,60,0,0.0,0.0,0.0,60,0,0.0,0.0,0.0,60,0,0.0,0.0,337.4,60,0,342.9,323.3,0,0,0,28.1,60,0,10.2,60,0,10.4,10.1,7.4,60,0,7.6,7.1,3.9,60,0,4.6,3.0,64.6,60,0,69.0,60.0,28.1,60,0,39.0,18.0,239,0.0,1021.4,60,0,1021.4,0,1007.1,60,0,46.2,60,0
86282,2012-07-24 00:00:00,4090,60,0,0.0,0.0,0.0,60,0,0.0,0.0,0.0,60,0,0.0,0.0,0.0,60,0,0.0,0.0,337.4,60,0,342.9,323.3,0,0,0,28.1,60,0,10.2,60,0,10.4,10.1,7.4,60,0,7.6,7.1,3.9,60,0,4.6,3.0,64.6,60,0,69.0,60.0,28.1,60,0,39.0,18.0,239,0.0,1021.4,60,0,1021.4,0,1007.1,60,0,46.2,60,0
86282,2012-07-24 12:00:00,4100,60,0,0.0,0.0,0.0,60,0,0.0,0.0,0.0,60,0,0.0,0.0,0.0,60,0,0.0,0.0,337.4,60,0,342.9,323.3,0,0,0,28.1,60,0,10.2,60,0,10.4,10.1,7.4,60,0,7.6,7.1,3.9,60,0,4.6,3.0,64.6,60,0,69.0,60.0,28.1,60,0,39.0,18.0,239,0.0,1021.4,60,0,1021.4,0,1007.1,60,0,46.2,60,0
86282,2012-07-25 00:00:00,4110,60,0,0.0,0.0,0.0,60,0,0.0,0.0,0.0,60,0,0.0,0.0,0.0,60,0,0.0,0.0,337.4,60,0,342.9,323.3,0,0,0,28.1,60,0,10.2,60,0,10.4,10.1,7.4,60,0,7.6,7.1,3.9,60,0,4.6,3.0,64.6,60,0,69.0,60.0,28.1,60,0,39.0,18.0,239,0.0,1021.4,60,0,1021.4,0,1007.1,60,0,46.2,60,0
86282,2012-07-25 12:00:00,4120,60,0,0.0,0.0,0.0,60,0,0.0,0.0,0.0,60,0,0.0,0.0,0.0,60,0,0.0,0.0,337.4,60,0,342.9,323.3,0,0,0,28.1,60,0,10.2,60,0,10.4,10.1,7.4,60,0,7.6,7.1,3.9,60,0,4.6,3.0,64.6,60,0,69.0,60.0,28.1,60,0,39.0,18.0,239,0.0,1021.4,60,0,1021.4,0,1007.1,60,0,46.2,60,0
86282,2012-07-26 00:00:00,4130,60,0,0.0,0.0,0.0,60,0,0.0,0.0,0.0,60,0,0.0,0.0,0.0,60,0,0.0,0.0,337.4,60,0,342.9,323.3,0,0,0,28.1,60,0,10.2,60,0,10.4,10.1,7.4,60,0,7.6,7.1,3.9,60,0,4.6,3.0,64.6,60,0,69.0,60.0,28.1,60,0,39.0,18.0,239,0.0,1021.4,60,0,1021.4,0,1007.1,60,0,46.2,60,0
86282,2012-07-26 12:00:00,4140,60,0,0.0,0.0,0.0,60,0,0.0,0.0,0.0,60,0,0.0,0.0,0.0,60,0,0.0,0.0,337.4,60,0,342.9,323.3,0,0,0,28.1,60,0,10.2,60,0,10.4,10.1,7.4,60,0,7.6,7.1,3.9,60,0,4.6,3.0,64.6,60,0,69.0,60.0,28.1,60,0,39.0,18.0,239,0.0,1021.4,60,0,1021.4,0,1007.1,60,0,46.2,60,0
86282,2012-07-27 00:00:00,4150,60,0,0.0,0.0,0.0,60,0,0.0,0.0,0.0,60,0,0.0,0.0,0.0,60,0,0.0,0.0,337.4,60,0,342.9,323.3,0,0,0,28.1,60,0,10.2,60,0,10.4,10.1,7.4,60,0,7.6,7.1,3.9,60,0,4.6,3.0,64.6,60,0,69.0,60.0,28.1,60,0,39.0,18.0,239,0.0,1021.4,60,0,1021.4,0,1007.1,60,0,46.2,60,0
86282,2012-07-27 12:00:00,4160,60,0,0.0,0.0,0.0,60,0,0.0,0.0,0.0,60,0,0.0,0.0,0.0,60,0,0.0,0.0,337.4,60,0,342.9,323.3,0,0,0,28.1,60,0,10.2,60,0,10.4,10.1,7.4,60,0,7.6,7.1,3.9,60,0,4.6,3.0,64.6,60,0,69.0,60.0,28.1,60,0,39.0,18.0,239,0.0,1021.4,60,0,1021.4,0,1007.1,60,0,46.2,60,0
86282,2012-07-28 00:00:00,4170,60,0,0.0,0.0,0.0,60,0,0.0,0.0,0.0,60,0,0.0,0.0,0.0,60,0,0.0,0.0,337.4,60,0,342.9,323.3,0,0,0,28.1,60,0,10.2,60,0,10.4,10.1,7.4,60,0,7.6,7.1,3.9,60,0,4.6,3.0,64.6,60,0,69.0,60.0,28.1,60,0,39.0,18.0,239,0.0,1021.4,60,0,1021.4,0,1007.1,60,0,46.2,60,0
86282,2012-07-28 12:00:00,4180,60,0,0.0,0.0,0.0,60,0,0.0,0.0,0.0,60,0,0.0,0.0,0.0,60,0,0.0,0.0,337.4,60,0,342.9,323.3,0,0,0,28.1,60,0,10.2,60,0,10.4,10.1,7.4,60,0,7.6,7.1,3.9,60,0,4.6,3.0,64.6,60,0,69.0,60.0,28.1,60,0,39.0,18.0,239,0.0,1021.4,60,0,1021.4,0,1007.1,60,0,46.2,60,0
86282,2012-07-29 00:00:00,4190,60,0,0.0,0.0,0.0,60,0,0.0,0.0,0.0,60,0,0.0,0.0,0.0,60,0,0.0,0.0,337.4,60,0,342.9,323.3,0,0,0,28.1,60,0,10.2,60,0,10.4,10.1,7.4,60,0,7.6,7.1,3.9,60,0,4.6,3.0,64.6,60,0,69.0,60.0,28.1,60,0,39.0,18.0,239,0.0,1021.4,60,0,1021.4,0,1007.1,60,0,46.2,60,0
86282,2012-07-29 12:00:00,4200,60,0,0.0,0.0,0.0,60,0,0.0,0.0,0.0,60,0,0.0,0.0,0.0,60,0,0.0,0.0,337.4,60,0,342.9,323.3,0,0,0,28.1,60,0,10.2,60,0,10.4,10.1,7.4,60,0,7.6,7.1,3.9,60,0,4.6,3.0,64.6,60,0,69.0,60.0,28.1,60,0,39.0,18.0,239,0.0,1021.4,60,0,1021.4,0,1007.1,60,0,46.2,60,0
86282,2012-07-30 00:00:00,4210,60,0,0.0,0.0,0.0,60,0,0.0,0.0,0.0,60,0,0.0,0.0,0.0,60,0,0.0,0.0,337.4,60,0,342.9,323.3,0,0,0,28.1,60,0,10.2,60,0,10.4,10.1,7.4,60,0,7.6,7.1,3.9,60,0,4.6,3.0,64.6,60,0,69.0,60.0,28.1,60,0,39.0,18.0,239,0.0,1021.4,60,0,1021.4,0,1007.1,60,0,46.2,60,0
86282,2012-07-30 12:00:00,4220,60,0,0.0,0.0,0.0,60,0,0.0,0.0,0.0,60,0,0.0,0.0,0.0,60,0,0.0,0.0,337.4,60,0,342.9,323.3,0,0,0,28.1,60,0,10.2,60,0,10.4,10.1,7.4,60,0,7.6,7.1,3.9,60,0,4.6,3.0,64.6,60,0,69.0,60.0,28.1,60,0,39.0,18.0,239,0.0,1021.4,60,0,1021.4,0,1007.1,60,0,46.2,60,0
86282,2012-07-31 00:00:00,4230,60,0,0.0,0.0,0.0,60,0,0.0,0.0,0.0,60,0,0.0,0.0,0.0,60,0,0.0,0.0,337.4,60,0,342.9,323.3,0,0,0,28.1,60,0,10.2,60,0,10.4,10.1,7.4,60,0,7.6,7.1,3.9,60,0,4.6,3.0,64.6,60,0,69.0,60.0,28.1,60,0,39.0,18.0,239,0.0,1021.4,60,0,1021.4,0,1007.1,60,0,46.2,60,0
86282,2012-07-31 12:00:00,4240,60,0,0.0,0.0,0.0,60,0,0.0,0.0,0.0,60,0,0.0,0.0,0.0,60,0,0.0,0.0,337.4,60,0,342.9,323.3,0,0,0,28.1,60,0,10.2,60,0,10.4,10.1,7.4,60,0,7.6,7.1,3.9,60,0,4.6,3.0,64.6,60,0,69.0,60.0,28.1,60,0,39.0,18.0,239,0.0,1021.4,60,0,1021.4,0,1007.1,60,0,46.2,60,0
86282,2012-08-01 00:00:00,4250,60,0,0.0,0.0,0.0,60,0,0.0,0.0,0.0,60,0,0.0,0.0,0.0,60,0,0.0,0.0,337.4,60,0,342.9,323.3,0,0,0,28.1,60,0,10.2,60,0,10.4,10.1,7.4,60,0,7.6,7.1,3.9,60,0,4.6,3.0,64.6,60,0,69.0,60.0,28.1,60,0,39.0,18.0,239,0.0,1021.4,60,0,1021.4,0,1007.1,60,0,46.2,60,0
86282,2012-08-01 12:00:00,4260,60,0,0.0,0.0,0.0,60,0,0.0,0.0,0.0,60,0,0.0,0.0,0.0,60,0,0.0,0.0,337.4,60,0,342.9,323.3,0,0,0,28.1,60,0,10.2,60,0,10.4,10.1,7.4,60,0,7.6,7.1,3.9,60,0,4.6,3.0,64.6,60,0,69.0,60.0,28.1,60,0,39.0,18.0,239,0.0,1021.4,60,0,1021.4,0,1007.1,60,0,46.2,60,0
86282,2012-08-02 00:00:00,4270,60,0,0.0,0.0,0.0,60,0,0.0,0.0,0.0,60,0,0.0,0.0,0.0,60,0,0.0,0.0,337.4,60,0,342.9,323.3,0,0,0,28.1,60,0,10.2,60,0,10.4,10.1,7.4,60,0,7.6,7.1,3.9,60,0,4.6,3.0,64.6,60,0,69.0,60.0,28.1,60,0,39.0,18.0,239,0.0,1021.4,60,0,1021.4,0,1007.1,60,0,46.2,60,0
86282,2012-08-02 12:00:00,4280,60,0,0.0,0.0,0.0,60,0,0.0,0.0,0.0,60,0,0.0,0.0,0.0,60,0,0.0,0.0,337.4,60,0,342.9,323.3,0,0,0,28.1,60,0,10.2,60,0,10.4,10.1,7.4,60,0,7.6,7.1,3.9,60,0,4.6,3.0,64.6,60,0,69.0,60.0,28.1,60,0,39.0,18.0,239,0.0,1021.4,60,0,1021.4,0,1007.1,60,0,46.2,60,0
86282,2012-08-03 00:00:00,4290,60,0,0.0,0.0,0.0,60,0,0.0,0.0,0.0,60,0,0.0,0.0,0.0,60,0,0.0,0.0,337.4,60,0,342.9,323.3,0,0,0,28.1,60,0,10.2,60,0,10.4,10.1,7.4,60,0,7.6,7.1,3.9,60,0,4.6,3.0,64.6,60,0,69.0,60.0,28.1,60,0,39.0,18.0,239,0.0,1021.4,60,0,1021.4,0,1007.1,60,0,46.2,60,0
86282,2012-08-03 12:00:00,4300,60,0,0.0,0.0,0.0,60,0,0.0,0.0,0.0,60,0,0.0,0.0,0.0,60,0,0.0,0.0,337.4,60,0,342.9,323.3,0,0,0,28.1,60,0,10.2,60,0,10.4,10.1,7.4,60,0,7.6,7.1,3.9,60,0,4.6,3.0,64.6,60,0,69.0,60.0,28.1,60,0,39.0,18.0,239,0.0,1021.4,60,0,1021.4,0,1007.1,60,0,46.2,60,0
86282,2012-08-04 00:00:00,4310,60,0,0.0,0.0,0.0,60,0,0.0,0.0,0.0,60,0,0.0,0.0,0.0,60,0,0.0,0.0,337.4,60,0,342.9,323.3,0,0,0,28.1,60,0,10.2,60,0,10.4,10.1,7.4,60,0,7.6,7.1,3.9,60,0,4.6,3.0,64.6,60,0,69.0,60.0,28.1,60,0,39.0,18.0,239,0.0,1021.4,60,0,1021.4,0,1007.1,60,0,46.2,60,0
86282,2012-08-04 12:00:00,4320,60,0,0.0,0.0,0.0,60,0,0.0,0.0,0.0,60,0,0.0,0.0,0.0,60,0,0.0,0.0,337.4,60,0,342.9,323.3,0,0,0,28.1,60,0,10.2,60,0,10.4,10.1,7.4,60,0,7.6,7.1,3.9,60,0,4.6,3.0,64.6,60,0,69.0,60.0,28.1,60,0,39.0,18.0,239,0.0,1021.4,60,0,1021.4,0,1007.1,60,0,46.2,60,0
86282,2012-08-05 00:00:00,4330,60,0,0.0,0.0,0.0,60,0,0.0,0.0,0.0,60,0,0.0,0.0,0.0,60,0,0.0,0.0,337.4,60,0,342.9,323.3,0,0,0,28.1,60,0,10.2,60,0,10.4,10.1,7.4,60,0,7.6,7.1,3.9,60,0,4.6,3.0,64.6,60,0,69.0,60.0,28.1,60,0,39.0,18.0,239,0.0,1021.4,60,0,1021.4,0,1007.1,60,0,46.2,60,0
86282,2012-08-05 12:00:00,4340,60,0,0.0,0.0,0.0,60,0,0.0,0.0,0.0,60,0,0.0,0.0,0.0,60,0,0.0,0.0,337.4,60,0,342.9,323.3,0,0,0,28.1,60,0,10.2,60,0,10.4,10.1,7.4,60,0,7.6,7.1,3.9,60,0,4.6,3.0,64.6,60,0,69.0,60.0,28.1,60,0,39.0,18.0,239,0.0,1021.4,60,0,1021.4,0,1007.1,60,0,46.2,60,0
86282,2012-08-06 00:00:00,4350,60,0,0.0,0.0,0.0,60,0,0.0,0.0,0.0,60,0,0.0,0.0,0.0,60,0,0.0,0.0,337.4,60,0,342.9,323.3,0,0,0,28.1,60,0,10.2,60,0,10.4,10.1,7.4,60,0,7.6,7.1,3.9,60,0,4.6,3.0,64.6,60,0,69.0,60.0,28.1,60,0,39.0,18.0,239,0.0,1021.4,60,0,1021.4,0,1007.1,60,0,46.2,60,0
86282,2012-08-06 12:00:00,4360,60,0,0.0,0.0,0.0,60,0,0.0,0.0,0.0,60,0,0.0,0.0,0.0,60,0,0.0,0.0,337.4,60,0,342.9,323.3,0,0,0,28.1,60,0,10.2,60,0,10.4,10.1,7.4,60,0,7.6,7.1,3.9,60,0,4.6,3.0,64.6,60,0,69.0,60.0,28.1,60,0,39.0,18.0,239,0.0,1021.4,60,0,1021.4,0,1007.1,60,0,46.2,60,0
86282,2012-08-07 00:00:00,4370,60,0,0.0,0.0,0.0,60,0,0.0,0.0,0.0,60,0,0.0,0.0,0.0,60,0,0.0,0.0,337.4,60,0,342.9,323.3,0,0,0,28.1,60,0,10.2,60,0,10.4,10.1,7.4,60,0,7.6,7.1,3.9,60,0,4.6,3.0,64.6,60,0,69.0,60.0,28.1,60,0,39.0,18.0,239,0.0,1021.4,60,0,1021.4,0,1007.1,60,0,46.2,60,0
86282,2012-08-07 12:00:00,4380,60,0,0.0,0.0,0.0,60,0,0.0,0.0,0.0,60,0,0.0,0.0,0.0,60,0,0.0,0.0,337.4,60,0,342.9,323.3,0,0,0,28.1,60,0,10.2,60,0,10.4,10.1,7.4,60,0,7.6,7.1,3.9,60,0,4.6,3.0,64.6,60,0,69.0,60.0,28.1,60,0,39.0,18.0,239,0.0,1021.4,60,0,1021.4,0,1007.1,60,0,46.2,60,0
86282,2012-08-08 00:00:00,4390,60,0,0.0,0.0,0.0,60,0,0.0,0.0,0.0,60,0,0.0,0.0,0.0,60,0,0.0,0.0,337.4,60,0,342.9,323.3,0,0,0,28.1,60,0,10.2,60,0,10.4,10.1,7.4,60,0,7.6,7.1,3.9,60,0,4.6,3.0,64.6,60,0,69.0,60.0,28.1,60,0,39.0,18.0,239,0.0,1021.4,60,0,1021.4,0,1007.1,60,0,46.2,60,0
86282,2012-08-08 12:00:00,4400,60,0,0.0,0.0,0.0,60,0,0.0,0.0,0.0,60,0,0.0,0.0,0.0,60,0,0.0,0.0,337.4,60,0,342.9,323.3,0,0,0,28.1,60,0,10.2,60,0,10.4,10.1,7.4,60,0,7.6,7.1,3.9,60,0,4.6,3.0,64.6,60,0,69.0,60.0,28.1,60,0,39.0,18.0,239,0.0,1021.4,60,0,1021.4,0,1007.1,60,0,46.2,60,0
86282,2012-08-09 00:00:00,4410,60,0,0.0,0.0,0.0,60,0,0.0,0.0,0.0,60,0,0.0,0.0,0.0,60,0,0.0,0.0,337.4,60,0,342.9,323.3,0,0,0,28.1,60,0,10.2,60,0,10.4,10.1,7.4,60,0,7.6,7.1,3.9,60,0,4.6,3.0,64.6,60,0,69.0,60.0,28.1,60,0,39.0,18.0,239,0.0,1021.4,60,0,1021.4,0,1007.1,60,0,46.2,60,0
86282,2012-08-09 12:00:00,4420,60,0,0.0,0.0,0.0,60,0,0.0,0.0,0.0,60,0,0.0,0.0,0.0,60,0,0.0,0.0,337.4,60,0,342.9,323.3,0,0,0,28.1,60,0,10.2,60,0,10.4,10.1,7.4,60,0,7.6,7.1,3.9,60,0,4.6,3.0,64.6,60,0,69.0,60.0,28.1,60,0,39.0,18.0,239,0.0,1021.4,60,0,1021.4,0,1007.1,60,0,46.2,60,0
86282,2012-08-10 00:00:00,4430,60,0,0.0,0.0,0.0,60,0,0.0,0.0,0.0,60,0,0.0,0.0,0.0,60,0,0.0,0.0,337.4,60,0,342.9,323.3,0,0,0,28.1,60,0,10.2,60,0,10.4,10.1,7.4,60,0,7.6,7.1,3.9,60,0,4.6,3.0,64.6,60,0,69.0,60.0,28.1,60,0,39.0,18.0,239,0.0,1021.4,60,0,1021.4,0,1007.1,60,0,46.2,60,0
86282,2012-08-10 12:00:00,4440,60,0,0.0,0.0,0.0,60,0,0.0,0.0,0.0,60,0,0.0,0.0,0.0,60,0,0.0,0.0,337.4,60,0,342.9,323.3,0,0,0,28.1,60,0,10.2,60,0,10.4,10.1,7.4,60,0,7.6,7.1,3.9,60,0,4.6,3.0,64.6,60,0,69.0,60.0,28.1,60,0,39.0,18.0,239,0.0,1021.4,60,0,1021.4,0,1007.1,60,0,46.2,60,0
86282,2012-08-11 00:00:00,4450,60,0,0.0,0.0,0.0,60,0,0.0,0.0,0.0,60,0,0.0,0.0,0.0,60,0,0.0,0.0,337.4,60,0,342.9,323.3,0,0,0,28.1,60,0,10.2,60,0,10.4,10.1,7.4,60,0,7.6,7.1,3.9,60,0,4.6,3.0,64.6,60,0,69.0,60.0,28.1,60,0,39.0,18.0,239,0.0,1021.4,60,0,1021.4,0,1007.1,60,0,46.2,60,0
86282,2012-08-11 12:00:00,4460,60,0,0.0,0.0,0.0,60,0,0.0,0.0,0.0,60,0,0.0,0.0,0.0,60,0,0.0,0.0,337.4,60,0,342.9,323.3,0,0,0,28.1,60,0,10.2,60,0,10.4,10.1,7.4,60,0,7.6,7.1,3.9,60,0,4.6,3.0,64.6,60,0,69.0,60.0,28.1,60,0,39.0,18.0,239,0.0,1021.4,60,0,1021.4,0,1007.1,60,0,46.2,60,0
86282,2012-08-12 00:00:00,4470,60,0,0.0,0.0,0.0,60,0,0.0,0.0,0.0,60,0,0.0,0.0,0.0,60,0,0.0,0.0,337.4,60,0,342.9,323.3,0,0,0,28.1,60,0,10.2,60,0,10.4,10.1,7.4,60,0,7.6,7.1,3.9,60,0,4.6,3.0,64.6,60,0,69.0,60.0,28.1,60,0,39.0,18.0,239,0.0,1021.4,60,0,1021.4,0,1007.1,60,0,46.2,60,0
86282,2012-08-12 12:00:00,4480,60,0,0.0,0.0,0.0,60,0,0.0,0.0,0.0,60,0,0.0,0.0,0.0,60,0,0.0,0.0,337.4,60,0,342.9,323.3,0,0,0,28.1,60,0,10.2,60,0,10.4,10.1,7.4,60,0,7.6,7.1,3.9,60,0,4.6,3.0,64.6,60,0,69.0,60.0,28.1,60,0,39.0,18.0,239,0.0,1021.4,60,0,1021.4,0,1007.1,60,0,46.2,60,0
86282,2012-08-13 00:00:00,4490,60,0,0.0,0.0,0.0,60,0,0.0,0.0,0.0,60,0,0.0,0.0,0.0,60,0,0.0,0.0,337.4,60,0,342.9,323.3,0,0,0,28.1,60,0,10.2,60,0,10.4,10.1,7.4,60,0,7.6,7.1,3.9,60,0,4.6,3.0,64.6,60,0,69.0,60.0,28.1,60,0,39.0,18.0,239,0.0,1021.4,60,0,1021.4,0,1007.1,60,0,46.2,60,0
86282,2012-08-13 12:00:00,4500,60,0,0.0,0.0,0.0,60,0,0.0,0.0,0.0,60,0,0.0,0.0,0.0,60,0,0.0,0.0,337.4,60,0,342.9,323.3,0,0,0,28.1,60,0,10.2,60,0,10.4,10.1,7.4,60,0,7.6,7.1,3.9,60,0,4.6,3.0,64.6,60,0,69.0,60.0,28.1,60,0,39.0,18.0,239,0.0,1021.4,60,0,1021.4,0,1007.1,60,0,46.2,60,0
86282,2012-08-14 00:00:00,4510,60,0,0.0,0.0,0.0,60,0,0.0,0.0,0.0,60,0,0.0,0.0,0.0,60,0,0.0,0.0,337.4,60,0,342.9,323.3,0,0,0,28.1,60,0,10.2,60,0,10.4,10.1,7.4,60,0,7.6,7.1,3.9,60,0,4.6,3.0,64.6,60,0,69.0,60.0,28.1,60,0,39.0,18.0,239,0.0,1021.4,60,0,1021.4,0,1007.1,60,0,46.2,60,0
86282,2012-08-14 12:00:00,4520,60,0,0.0,0.0,0.0,60,0,0.0,0.0,0.0,60,0,0.0,0.0,0.0,60,0,0.0,0.0,337.4,60,0,342.9,323.3,0,0,0,28.1,60,0,10.2,60,0,10.4,10.1,7.4,60,0,7.6,7.1,3.9,60,0,4.6,3.0,64.6,60,0,69.0,60.0,28.1,60,0,39.0,18.0,239,0.0,1021.4,60,0,1021.4,0,1007.1,60,0,46.2,60,0
86282,2012-08-15 00:00:00,4530,60,0,0.0,0.0,0.0,60,0,0.0,0.0,0.0,60,0,0.0,0.0,0.0,60,0,0.0,0.0,337.4,60,0,342.9,323.3,0,0,0,28.1,60,0,10.2,60,0,10.4,10.1,7.4,60,0,7.6,7.1,3.9,60,0,4.6,3.0,64.6,60,0,69.0,60.0,28.1,60,0,39.0,18.0,239,0.0,1021.4,60,0,1021.4,0,1007.1,60,0,46.2,60,0
86282,2012-08-15 12:00:00,4540,60,0,0.0,0.0,0.0,60,0,0.0,0.0,0.0,60,0,0.0,0.0,0.0,60,0,0.0,0.0,337.4,60,0,342.9,323.3,0,0,0,28.1,60,0,10.2,60,0,10.4,10.1,7.4,60,0,7.6,7.1,3.9,60,0,4.6,3.0,64.6,60,0,69.0,60.0,28.1,60,0,39.0,18.0,239,0.0,1021.4,60,0,1021.4,0,1007.1,60,0,46.2,60,0
86282,2012-08-16 00:00:00,4550,60,0,0.0,0.0,0.0,60,0,0.0,0.0,0.0,60,0,0.0,0.0,0.0,60,0,0.0,0.0,337.4,60,0,342.9,323.3,0,0,0,28.1,60,0,10.2,60,0,10.4,10.1,7.4,60,0,7.6,7.1,3.9,60,0,4.6,3.0,64.6,60,0,69.0,60.0,28.1,60,0,39.0,18.0,239,0.0,1021.4,60,0,1021.4,0,1007.1,60,0,46.2,60,0
86282,2012-08-16 12:00:00,4560,60,0,0.0,0.0,0.0,60,0,0.0,0.0,0.0,60,0,0.0,0.0,0.0,60,0,0.0,0.0,337.4,60,0,342.9,323.3,0,0,0,28.1,60,0,10.2,60,0,10.4,10.1,7.4,60,0,7.6,7.1,3.9,60,0,4.6,3.0,64.6,60,0,69.0,60.0,28.1,60,0,39.0,18.0,239,0.0,1021.4,60,0,1021.4,0,1007.1,60,0,46.2,60,0
86282,2012-08-17 00:00:00,4570,60,0,0.0,0.0,0.0,60,0,0.0,0.0,0.0,60,0,0.0,0.0,0.0,60,0,0.0,0.0,337.4,60,0,342.9,323.3,0,0,0,28.1,60,0,10.2,60,0,10.4,10.1,7.4,60,0,7.6,7.1,3.9,60,0,4.6,3.0,64.6,60,0,69.0,60.0,28.1,60,0,39.0,18.0,239,0.0,1021.4,60,0,1021.4,0,1007.1,60,0,46.2,60,0
86282,2012-08-17 12:00:00,4580,60,0,0.0,0.0,0.0,60,0,0.0,0.0,0.0,60,0,0.0,0.0,0.0,60,0,0.0,0.0,337.4,60,0,342.9,323.3,0,0,0,28.1,60,0,10.2,60,0,10.4,10.1,7.4,60,0,7.6,7.1,3.9,60,0,4.6,3.0,64.6,60,0,69.0,60.0,28.1,60,0,39.0,18.0,239,0.0,1021.4,60,0,1021.4,0,1007.1,60,0,46.2,60,0
86282,2012-08-18 00:00:00,4590,60,0,0.0,0.0,0.0,60,0,0.0,0.0,0.0,60,0,0.0,0.0,0.0,60,0,0.0,0.0,337.4,60,0,342.9,323.3,0,0,0,28.1,60,0,10.2,60,0,10.4,10.1,7.4,60,0,7.6,7.1,3.9,60,0,4.6,3.0,64.6,60,0,69.0,60.0,28.1,60,0,39.0,18.0,239,0.0,1021.4,60,0,1021.4,0,1007.1,60,0,46.2,60,0
86282,2012-08-18 12:00:00,4600,60,0,0.0,0.0,0.0,60,0,0.0,0.0,0.0,60,0,0.0,0.0,0.0,60,0,0.0,0.0,337.4,60,0,342.9,323.3,0,0,0,28.1,60,0,10.2,60,0,10.4,10.1,7.4,60,0,7.6,7.1,3.9,60,0,4.6,3.0,64.6,60,0,69.0,60.0,28.1,60,0,39.0,18.0,239,0.0,1021.4,60,0,1021.4,0,1007.1,60,0,46.2,60,0
86282,2012-08-19 00:00:00,4610,60,0,0.0,0.0,0.0,60,0,0.0,0.0,0.0,60,0,0.0,0.0,0.0,60,0,0.0,0.0,337.4,60,0,342.9,323.3,0,0,0,28.1,60,0,10.2,60,0,10.4,10.1,7.4,60,0,7.6,7.1,3.9,60,0,4.6,3.0,64.6,60,0,69.0,60.0,28.1,60,0,39.0,18.0,239,0.0,1021.4,60,0,1021.4,0,1007.1,60,0,46.2,60,0
86282,2012-08-19 12:00:00,4620,60,0,0.0,0.0,0.0,60,0,0.0,0.0,0.0,60,0,0.0,0.0,0.0,60,0,0.0,0.0,337.4,60,0,342.9,323.3,0,0,0,28.1,60,0,10.2,60,0,10.4,10.1,7.4,60,0,7.6,7.1,3.9,60,0,4.6,3.0,64.6,60,0,69.0,60.0,28.1,60,0,39.0,18.0,239,0.0,1021.4,60,0,1021.4,0,1007.1,60,0,46.2,60,0
86282,2012-08-20 00:00:00,4630,60,0,0.0,0.0,0.0,60,0,0.0,0.0,0.0,60,0,0.0,0.0,0.0,60,0,0.0,0.0,337.4,60,0,342.9,323.3,0,0,0,28.1,60,0,10.2,60,0,10.4,10.1,7.4,60,0,7.6,7.1,3.9,60,0,4.6,3.0,64.6,60,0,69.0,60.0,28.1,60,0,39.0,18.0,239,0.0,1021.4,60,0,1021.4,0,1007.1,60,0,46.2,60,0
86282,2012-08-20 12:00:00,4640,60,0,0.0,0.0,0.0,60,0,0.0,0.0,0.0,60,0,0.0,0.0,0.0,60,0,0.0,0.0,337.4,60,0,342.9,323.3,0,0,0,28.1,60,0,10.2,60,0,10.4,10.1,7.4,60,0,7.6,7.1,3.9,60,0,4.6,3.0,64.6,60,0,69.0,60.0,28.1,60,0,39.0,18.0,239,0.0,1021.4,60,0,1021.4,0,1007.1,60,0,46.2,60,0
86282,2012-08-21 00:00:00,4650,60,0,0.0,0.0,0.0,60,0,0.0,0.0,0.0,60,0,0.0,0.0,0.0,60,0,0.0,0.0,337.4,60,0,342.9,323.3,0,0,0,28.1,60,0,10.2,60,0,10.4,10.1,7.4,60,0,7.6,7.1,3.9,60,0,4.6,3.0,64.6,60,0,69.0,60.0,28.1,60,0,39.0,18.0,239,0.0,1021.4,60,0,1021.4,0,1007.1,60,0,46.2,60,0
86282,2012-08-21 12:00:00,4660,60,0,0.0,0.0,0.0,60,0,0.0,0.0,0.0,60,0,0.0,0.0,0.0,60,0,0.0,0.0,337.4,60,0,342.9,323.3,0,0,0,28.1,60,0,10.2,60,0,10.4,10.1,7.4,60,0,7.6,7.1,3.9,60,0,4.6,3.0,64.6,60,0,69.0,60.0,28.1,60,0,39.0,18.0,239,0.0,1021.4,60,0,1021.4,0,1007.1,60,0,46.2,60,0
86282,2012-08-22 00:00:00,4670,60,0,0.0,0.0,0.0,60,0,0.0,0.0,0.0,60,0,0.0,0.0,0.0,60,0,0.0,0.0,337.4,60,0,342.9,323.3,0,0,0,28.1,60,0,10.2,60,0,10.4,10.1,7.4,60,0,7.6,7.1,3.9,60,0,4.6,3.0,64.6,60,0,69.0,60.0,28.1,60,0,39.0,18.0,239,0.0,1021.4,60,0,1021.4,0,1007.1,60,0,46.2,60,0
86282,2012-08-22 12:00:00,4680,60,0,0.0,0.0,0.0,60,0,0.0,0.0,0.0,60,0,0.0,0.0,0.0,60,0,0.0,0.0,337.4,60,0,342.9,323.3,0,0,0,28.1,60,0,10.2,60,0,10.4,10.1,7.4,60,0,7.6,7.1,3.9,60,0,4.6,3.0,64.6,60,0,69.0,60.0,28.1,60,0,39.0,18.0,239,0.0,1021.4,60,0,1021.4,0,1007.1,60,0,46.2,60,0
86282,2012-08-23 00:00:00,4690,60,0,0.0,0.0,0.0,60,0,0.0,0.0,0.0,60,0,0.0,0.0,0.0,60,0,0.0,0.0,337.4,60,0,342.9,323.3,0,0,0,28.1,60,0,10.2,60,0,10.4,10.1,7.4,60,0,7.6,7.1,3.9,60,0,4.6,3.0,64.6,60,0,69.0,60.0,28.1,60,0,39.0,18.0,239,0.0,1021.4,60,0,1021.4,0,1007.1,60,0,46.2,60,0
86282,2012-08-23 12:00:00,4700,60,0,0.0,0.0,0.0,60,0,0.0,0.0,0.0,60,0,0.0,0.0,0.0,60,0,0.0,0.0,337.4,60,0,342.9,323.3,0,0,0,28.1,60,0,10.2,60,0,10.4,10.1,7.4,60,0,7.6,7.1,3.9,60,0,4.6,3.0,64.6,60,0,69.0,60.0,28.1,60,0,39.0,18.0,239,0.0,1021.4,60,0,1021.4,0,1007.1,60,0,46.2,60,0
86282,2012-08-24 00:00:00,4710,60,0,0.0,0.0,0.0,60,0,0.0,0.0,0.0,60,0,0.0,0.0,0.0,60,0,0.0,0.0,337.4,60,0,342.9,323.3,0,0,0,28.1,60,0,10.2,60,0,10.4,10.1,7.4,60,0,7.6,7.1,3.9,60,0,4.6,3.0,64.6,60,0,69.0,60.0,28.1,60,0,39.0,18.0,239,0.0,1021.4,60,0,1021.4,0,1007.1,60,0,46.2,60,0
86282,2012-08-24 12:00:00,4720,60,0,0.0,0.0,0.0,60,0,0.0,0.0,0.0,60,0,0.0,0.0,0.0,60,0,0.0,0.0,337.4,60,0,342.9,323.3,0,0,0,28.1,60,0,10.2,60,0,10.4,10.1,7.4,60,0,7.6,7.1,3.9,60,0,4.6,3.0,64.6,60,0,69.0,60.0,28.1,60,0,39.0,18.0,239,0.0,1021.4,60,0,1021.4,0,1007.1,60,0,46.2,60,0
86282,2012-08-25 00:00:00,4730,60,0,0.0,0.0,0.0,60,0,0.0,0.0,0.0,60,0,0.0,0.0,0.0,60,0,0.0,0.0,337.4,60,0,342.9,323.3,0,0,0,28.1,60,0,10.2,60,0,10.4,10.1,7.4,60,0,7.6,7.1,3.9,60,0,4.6,3.0,64.6,60,0,69.0,60.0,28.1,60,0,39.0,18.0,239,0.0,1021.4,60,0,1021.4,0,1007.1,60,0,46.2,60,0
86282,2012-08-25 12:00:00,4740,60,0,0.0,0.0,0.0,60,0,0.0,0.0,0.0,60,0,0.0,0.0,0.0,60,0,0.0,0.0,337.4,60,0,342.9,323.3,0,0,0,28.1,60,0,10.2,60,0,10.4,10.1,7.4,60,0,7.6,7.1,3.9,60,0,4.6,3.0,64.6,60,0,69.0,60.0,28.1,60,0,39.0,18.0,239,0.0,1021.4,60,0,1021.4,0,1007.1,60,0,46.2,60,0
86282,2012-08-26 00:00:00,4750,60,0,0.0,0.0,0.0,60,0,0.0,0.0,0.0,60,0,0.0,0.0,0.0,60,0,0.0,0.0,337.4,60,0,342.9,323.3,0,0,0,28.1,60,0,10.2,60,0,10.4,10.1,7.4,60,0,7.6,7.1,3.9,60,0,4.6,3.0,64.6,60,0,69.0,60.0,28.1,60,0,39.0,18.0,239,0.0,1021.4,60,0,1021.4,0,1007.1,60,0,46.2,60,0
86282,2012-08-26 12:00:00,4760,60,0,0.0,0.0,0.0,60,0,0.0,0.0,0.0,60,0,0.0,0.0,0.0,60,0,0.0,0.0,337.4,60,0,342.9,323.3,0,0,0,28.1,60,0,10.2,60,0,10.4,10.1,7.4,60,0,7.6,7.1,3.9,60,0,4.6,3.0,64.6,60,0,69.0,60.0,28.1,60,0,39.0,18.0,239,0.0,1021.4,60,0,1021.4,0,1007.1,60,0,46.2,60,0
86282,2012-08-27 00:00:00,4770,60,0,0.0,0.0,0.0,60,0,0.0,0.0,0.0,60,0,0.0,0.0,0.0,60,0,0.0,0.0,337.4,60,0,342.9,323.3,0,0,0,28.1,60,0,10.2,60,0,10.4,10.1,7.4,60,0,7.6,7.1,3.9,60,0,4.6,3.0,64.6,60,0,69.0,60.0,28.1,60,0,39.0,18.0,239,0.0,1021.4,60,0,1021.4,0,1007.1,60,0,46.2,60,0
86282,2012-08-27 12:00:00,4780,60,0,0.0,0.0,0.0,60,0,0.0,0.0,0.0,60,0,0.0,0.0,0.0,60,0,0.0,0.0,337.4,60,0,342.9,323.3,0,0,0,28.1,60,0,10.2,60,0,10.4,10.1,7.4,60,0,7.6,7.1,3.9,60,0,4.6,3.0,64.6,60,0,69.0,60.0,28.1,60,0,39.0,18.0,239,0.0,1021.4,60,0,1021.4,0,1007.1,60,0,46.2,60,0
86282,2012-08-28 00:00:00,4790,60,0,0.0,0.0,0.0,60,0,0.0,0.0,0.0,60,0,0.0,0.0,0.0,60,0,0.0,0.0,337.4,60,0,342.9,323.3,0,0,0,28.1,60,0,10.2,60,0,10.4,10.1,7.4,60,0,7.6,7.1,3.9,60,0,4.6,3.0,64.6,60,0,69.0,60.0,28.1,60,0,39.0,18.0,239,0.0,1021.4,60,0,1021.4,0,1007.1,60,0,46.2,60,0
86282,2012-08-28 12:00:00,4800,60,0,0.0,0.0,0.0,60,0,0.0,0.0,0.0,60,0,0.0,0.0,0.0,60,0,0.0,0.0,337.4,60,0,342.9,323.3,0,0,0,28.1,60,0,10.2,60,0,10.4,10.1,7.4,60,0,7.6,7.1,3.9,60,0,4.6,3.0,64.6,60,0,69.0,60.0,28.1,60,0,39.0,18.0,239,0.0,1021.4,60,0,1021.4,0,1007.1,60,0,46.2,60,0
86282,2012-08-29 00:00:00,4810,60,0,0.0,0.0,0.0,60,0,0.0,0.0,0.0,60,0,0.0,0.0,0.0,60,0,0.0,0.0,337.4,60,0,342.9,323.3,0,0,0,28.1,60,0,10.2,60,0,10.4,10.1,7.4,60,0,7.6,7.1,3.9,60,0,4.6,3.0,64.6,60,0,69.0,60.0,28.1,60,0,39.0,18.0,239,0.0,1021.4,60,0,1021.4,0,1007.1,60,0,46.2,60,0
86282,2012-08-29 12:00:00,4820,60,0,0.0,0.0,0.0,60,0,0.0,0.0,0.0,60,0,0.0,0.0,0.0,60,0,0.0,0.0,337.4,60,0,342.9,323.3,0,0,0,28.1,60,0,10.2,60,0,10.4,10.1,7.4,60,0,7.6,7.1,3.9,60,0,4.6,3.0,64.6,60,0,69.0,60.0,28.1,60,0,39.0,18.0,239,0.0,1021.4,60,0,1021.4,0,1007.1,60,0,46.2,60,0
86282,2012-08-30 00:00:00,4830,60,0,0.0,0.0,0.0,60,0,0.0,0.0,0.0,60,0,0.0,0.0,0.0,60,0,0.0,0.0,337.4,60,0,342.9,323.3,0,0,0,28.1,60,0,10.2,60,0,10.4,10.1,7.4,60,0,7.6,7.1,3.9,60,0,4.6,3.0,64.6,60,0,69.0,60.0,28.1,60,0,39.0,18.0,239,0.0,1021.4,60,0,1021.4,0,1007.1,60,0,46.2,60,0
86282,2012-08-30 12:00:00,4840,60,0,0.0,0.0,0.0,60,0,0.0,0.0,0.0,60,0,0.0,0.0,0.0,60,0,0.0,0.0,337.4,60,0,342.9,323.3,0,0,0,28.1,60,0,10.2,60,0,10.4,10.1,7.4,60,0,7.6,7.1,3.9,60,0,4.6,3.0,64.6,60,0,69.0,60.0,28.1,60,0,39.0,18.0,239,0.0,1021.4,60,0,1021.4,0,1007.1,60,0,46.2,60,0
86282,2012-08-31 00:00:00,4850,60,0,0.0,0.0,0.0,60,0,0.0,0.0,0.0,60,0,0.0,0.0,0.0,60,0,0.0,0.0,337.4,60,0,342.9,323.3,0,0,0,28.1,60,0,10.2,60,0,10.4,10.1,7.4,60,0,7.6,7.1,3.9,60,0,4.6,3.0,64.6,60,0,69.0,60.0,28.1,60,0,39.0,18.0,239,0.0,1021.4,60,0,1021.4,0,1007.1,60,0,46.2,60,0
86282,2012-08-31 12:00:00,4860,60,0,0.0,0.0,0.0,60,0,0.0,0.0,0.0,60,0,0.0,0.0,0.0,60,0,0.0,0.0,337.4,60,0,342.9,323.3,0,0,0,28.1,60,0,10.2,60,0,10.4,10.1,7.4,60,0,7.6,7.1,3.9,60,0,4.6,3.0,64.6,60,0,69.0,60.0,28.1,60,0,39.0,18.0,239,0.0,1021.4,60,0,1021.4,0,1007.1,60,0,46.2,60,0
86282,2012-09-01 00:00:00,4870,60,0,0.0,0.0,0.0,60,0,0.0,0.0,0.0,60,0,0.0,0.0,0.0,60,0,0.0,0.0,337.4,60,0,342.9,323.3,0,0,0,28.1,60,0,10.2,60,0,10.4,10.1,7.4,60,0,7.6,7.1,3.9,60,0,4.6,3.0,64.6,60,0,69.0,60.0,28.1,60,0,39.0,18.0,239,0.0,1021.4,60,0,1021.4,0,1007.1,60,0,46.2,60,0
86282,2012-09-01 12:00:00,4880,60,0,0.0,0.0,0.0,60,0,0.0,0.0,0.0,60,0,0.0,0.0,0.0,60,0,0.0,0.0,337.4,60,0,342.9,323.3,0,0,0,28.1,60,0,10.2,60,0,10.4,10.1,7.4,60,0,7.6,7.1,3.9,60,0,4.6,3.0,64.6,60,0,69.0,60.0,28.1,60,0,39.0,18.0,239,0.0,1021.4,60,0,1021.4,0,1007.1,60,0,46.2,60,0
86282,2012-09-02 00:00:00,4890,60,0,0.0,0.0,0.0,60,0,0.0,0.0,0.0,60,0,0.0,0.0,0.0,60,0,0.0,0.0,337.4,60,0,342.9,323.3,0,0,0,28.1,60,0,10.2,60,0,10.4,10.1,7.4,60,0,7.6,7.1,3.9,60,0,4.6,3.0,64.6,60,0,69.0,60.0,28.1,60,0,39.0,18.0,239,0.0,1021.4,60,0,1021.4,0,1007.1,60,0,46.2,60,0
86282,2012-09-02 12:00:00,4900,60,0,0.0,0.0,0.0,60,0,0.0,0.0,0.0,60,0,0.0,0.0,0.0,60,0,0.0,0.0,337.4,60,0,342.9,323.3,0,0,0,28.1,60,0,10.2,60,0,10.4,10.1,7.4,60,0,7.6,7.1,3.9,60,0,4.6,3.0,64.6,60,0,69.0,60.0,28.1,60,0,39.0,18.0,239,0.0,1021.4,60,0,1021.4,0,1007.1,60,0,46.2,60,0
86282,2012-09-03 00:00:00,4910,60,0,0.0,0.0,0.0,60,0,0.0,0.0,0.0,60,0,0.0,0.0,0.0,60,0,0.0,0.0,337.4,60,0,342.9,323.3,0,0,0,28.1,60,0,10.2,60,0,10.4,10.1,7.4,60,0,7.6,7.1,3.9,60,0,4.6,3.0,64.6,60,0,69.0,60.0,28.1,60,0,39.0,18.0,239,0.0,1021.4,60,0,1021.4,0,1007.1,60,0,46.2,60,0
86282,2012-09-03 12:00:00,4920,60,0,0.0,0.0,0.0,60,0,0.0,0.0,0.0,60,0,0.0,0.0,0.0,60,0,0.0,0.0,337.4,60,0,342.9,323.3,0,0,0,28.1,60,0,10.2,60,0,10.4,10.1,7.4,60,0,7.6,7.1,3.9,60,0,4.6,3.0,64.6,60,0,69.0,60.0,28.1,60,0,39.0,18.0,239,0.0,1021.4,60,0,1021.4,0,1007.1,60,0,46.2,60,0
86282,2012-09-04 00:00:00,4930,60,0,0.0,0.0,0.0,60,0,0.0,0.0,0.0,60,0,0.0,0.0,0.0,60,0,0.0,0.0,337.4,60,0,342.9,323.3,0,0,0,28.1,60,0,10.2,60,0,10.4,10.1,7.4,60,0,7.6,7.1,3.9,60,0,4.6,3.0,64.6,60,0,69.0,60.0,28.1,60,0,39.0,18.0,239,0.0,1021.4,60,0,1021.4,0,1007.1,60,0,46.2,60,0
86282,2012-09-04 12:00:00,4940,60,0,0.0,0.0,0.0,60,0,0.0,0.0,0.0,60,0,0.0,0.0,0.0,60,0,0.0,0.0,337.4,60,0,342.9,323.3,0,0,0,28.1,60,0,10.2,60,0,10.4,10.1,7.4,60,0,7.6,7.1,3.9,60,0,4.6,3.0,64.6,60,0,69.0,60.0,28.1,60,0,39.0,18.0,239,0.0,1021.4,60,0,1021.4,0,1007.1,60,0,46.2,60,0
86282,2012-09-05 00:00:00,4950,60,0,0.0,0.0,0.0,60,0,0.0,0.0,0.0,60,0,0.0,0.0,0.0,60,0,0.0,0.0,337.4,60,0,342.9,323.3,0,0,0,28.1,60,0,10.2,60,0,10.4,10.1,7.4,60,0,7.6,7.1,3.9,60,0,4.6,3.0,64.6,60,0,69.0,60.0,28.1,60,0,39.0,18.0,239,0.0,1021.4,60,0,1021.4,0,1007.1,60,0,46.2,60,0
86282,2012-09-05 12:00:00,4960,60,0,0.0,0.0,0.0,60,0,0.0,0.0,0.0,60,0,0.0,0.0,0.0,60,0,0.0,0.0,337.4,60,0,342.9,323.3,0,0,0,28.1,60,0,10.2,60,0,10.4,10.1,7.4,60,0,7.6,7.1,3.9,60,0,4.6,3.0,64.6,60,0,69.0,60.0,28.1,60,0,39.0,18.0,239,0.0,1021.4,60,0,1021.4,0,1007.1,60,0,46.2,60,0
86282,2012-09-06 00:00:00,4970,60,0,0.0,0.0,0.0,60,0,0.0,0.0,0.0,60,0,0.0,0.0,0.0,60,0,0.0,0.0,337.4,60,0,342.9,323.3,0,0,0,28.1,60,0,10.2,60,0,10.4,10.1,7.4,60,0,7.6,7.1,3.9,60,0,4.6,3.0,64.6,60,0,69.0,60.0,28.1,60,0,39.0,18.0,239,0.0,1021.4,60,0,1021.4,0,1007.1,60,0,46.2,60,0
86282,2012-09-06 12:00:00,4980,60,0,0.0,0.0,0.0,60,0,0.0,0.0,0.0,60,0,0.0,0.0,0.0,60,0,0.0,0.0,337.4,60,0,342.9,323.3,0,0,0,28.1,60,0,10.2,60,0,10.4,10.1,7.4,60,0,7.6,7.1,3.9,60,0,4.6,3.0,64.6,60,0,69.0,60.0,28.1,60,0,39.0,18.0,239,0.0,1021.4,60,0,1021.4,0,1007.1,60,0,46.2,60,0
86282,2012-09-07 00:00:00,4990,60,0,0.0,0.0,0.0,60,0,0.0,0.0,0.0,60,0,0.0,0.0,0.0,60,0,0.0,0.0,337.4,60,0,342.9,323.3,0,0,0,28.1,60,0,10.2,60,0,10.4,10.1,7.4,60,0,7.6,7.1,3.9,60,0,4.6,3.0,64.6,60,0,69.0,60.0,28.1,60,0,39.0,18.0,239,0.0,1021.4,60,0,1021.4,0,1007.1,60,0,46.2,60,0
86282,2012-09-07 12:00:00,5000,60,0,0.0,0.0,0.0,60,0,0.0,0.0,0.0,60,0,0.0,0.0,0.0,60,0,0.0,0.0,337.4,60,0,342.9,323.3,0,0,0,28.1,60,0,10.2,60,0,10.4,10.1,7.4,60,0,7.6,7.1,3.9,60,0,4.6,3.0,64.6,60,0,69.0,60.0,28.1,60,0,39.0,18.0,239,0.0,1021.4,60,0,1021.4,0,1007.1,60,0,46.2,60,0
86282,2012-09-08 00:00:00,5010,60,0,0.0,0.0,0.0,60,0,0.0,0.0,0.0,60,0,0.0,0.0,0.0,60,0,0.0,0.0,337.4,60,0,342.9,323.3,0,0,0,28.1,60,0,10.2,60,0,10.4,10.1,7.4,60,0,7.6,7.1,3.9,60,0,4.6,3.0,64.6,60,0,69.0,60.0,28.1,60,0,39.0,18.0,239,0.0,1021.4,60,0,1021.4,0,1007.1,60,0,46.2,60,0
86282,2012-09-08 12:00:00,5020,60,0,0.0,0.0,0.0,60,0,0.0,0.0,0.0,60,0,0.0,0.0,0.0,60,0,0.0,0.0,337.4,60,0,342.9,323.3,0,0,0,28.1,60,0,10.2,60,0,10.4,10.1,7.4,60,0,7.6,7.1,3.9,60,0,4.6,3.0,64.6,60,0,69.0,60.0,28.1,60,0,39.0,18.0,239,0.0,1021.4,60,0,1021.4,0,1007.1,60,0,46.2,60,0
86282,2012-09-09 00:00:00,5030,60,0,0.0,0.0,0.0,60,0,0.0,0.0,0.0,60,0,0.0,0.0,0.0,60,0,0.0,0.0,337.4,60,0,342.9,323.3,0,0,0,28.1,60,0,10.2,60,0,10.4,10.1,7.4,60,0,7.6,7.1,3.9,60,0,4.6,3.0,64.6,60,0,69.0,60.0,28.1,60,0,39.0,18.0,239,0.0,1021.4,60,0,1021.4,0,1007.1,60,0,46.2,60,0
86282,2012-09-09 12:00:00,5040,60,0,0.0,0.0,0.0,60,0,0.0,0.0,0.0,60,0,0.0,0.0,0.0,60,0,0.0,0.0,337.4,60,0,342.9,323.3,0,0,0,28.1,60,0,10.2,60,0,10.4,10.1,7.4,60,0,7.6,7.1,3.9,60,0,4.6,3.0,64.6,60,0,69.0,60.0,28.1,60,0,39.0,18.0,239,0.0,1021.4,60,0,1021.4,0,1007.1,60,0,46.2,60,0
86282,2012-09-10 00:00:00,5050,60,0,0.0,0.0,0.0,60,0,0.0,0.0,0.0,60,0,0.0,0.0,0.0,60,0,0.0,0.0,337.4,60,0,342.9,323.3,0,0,0,28.1,60,0,10.2,60,0,10.4,10.1,7.4,60,0,7.6,7.1,3.9,60,0,4.6,3.0,64.6,60,0,69.0,60.0,28.1,60,0,39.0,18.0,239,0.0,1021.4,60,0,1021.4,0,1007.1,60,0,46.2,60,0
86282,2012-09-10 12:00:00,5060,60,0,0.0,0.0,0.0,60,0,0.0,0.0,0.0,60,0,0.0,0.0,0.0,60,0,0.0,0.0,337.4,60,0,342.9,323.3,0,0,0,28.1,60,0,10.2,60,0,10.4,10.1,7.4,60,0,7.6,7.1,3.9,60,0,4.6,3.0,64.6,60,0,69.0,60.0,28.1,60,0,39.0,18.0,239,0.0,1021.4,60,0,1021.4,0,1007.1,60,0,46.2,60,0
86282,2012-09-11 00:00:00,5070,60,0,0.0,0.0,0.0,60,0,0.0,0.0,0.0,60,0,0.0,0.0,0.0,60,0,0.0,0.0,337.4,60,0,342.9,323.3,0,0,0,28.1,60,0,10.2,60,0,10.4,10.1,7.4,60,0,7.6,7.1,3.9,60,0,4.6,3.0,64.6,60,0,69.0,60.0,28.1,60,0,39.0,18.0,239,0.0,1021.4,60,0,1021.4,0,1007.1,60,0,46.2,60,0
86282,2012-09-11 12:00:00,5080,60,0,0.0,0.0,0.0,60,0,0.0,0.0,0.0,60,0,0.0,0.0,0.0,60,0,0.0,0.0,337.4,60,0,342.9,323.3,0,0,0,28.1,60,0,10.2,60,0,10.4,10.1,7.4,60,0,7.6,7.1,3.9,60,0,4.6,3.0,64.6,60,0,69.0,60.0,28.1,60,0,39.0,18.0,239,0.0,1021.4,60,0,1021.4,0,1007.1,60,0,46.2,60,0
86282,2012-09-12 00:00:00,5090,60,0,0.0,0.0,0.0,60,0,0.0,0.0,0.0,60,0,0.0,0.0,0.0,60,0,0.0,0.0,337.4,60,0,342.9,323.3,0,0,0,28.1,60,0,10.2,60,0,10.4,10.1,7.4,60,0,7.6,7.1,3.9,60,0,4.6,3.0,64.6,60,0,69.0,60.0,28.1,60,0,39.0,18.0,239,0.0,1021.4,60,0,1021.4,0,1007.1,60,0,46.2,60,0
86282,2012-09-12 12:00:00,5100,60,0,0.0,0.0,0.0,60,0,0.0,0.0,0.0,60,0,0.0,0.0,0.0,60,0,0.0,0.0,337.4,60,0,342.9,323.3,0,0,0,28.1,60,0,10.2,60,0,10.4,10.1,7.4,60,0,7.6,7.1,3.9,60,0,4.6,3.0,64.6,60,0,69.0,60.0,28.1,60,0,39.0,18.0,239,0.0,1021.4,60,0,1021.4,0,1007.1,60,0,46.2,60,0
86282,2012-09-13 00:00:00,5110,60,0,0.0,0.0,0.0,60,0,0.0,0.0,0.0,60,0,0.0,0.0,0.0,60,0,0.0,0.0,337.4,60,0,342.9,323.3,0,0,0,28.1,60,0,10.2,60,0,10.4,10.1,7.4,60,0,7.6,7.1,3.9,60,0,4.6,3.0,64.6,60,0,69.0,60.0,28.1,60,0,39.0,18.0,239,0.0,1021.4,60,0,1021.4,0,1007.1,60,0,46.2,60,0
86282,2012-09-13 12:00:00,5120,60,0,0.0,0.0,0.0,60,0,0.0,0.0,0.0,60,0,0.0,0.0,0.0,60,0,0.0,0.0,337.4,60,0,342.9,323.3,0,0,0,28.1,60,0,10.2,60,0,10.4,10.1,7.4,60,0,7.6,7.1,3.9,60,0,4.6,3.0,64.6,60,0,69.0,60.0,28.1,60,0,39.0,18.0,239,0.0,1021.4,60,0,1021.4,0,1007.1,60,0,46.2,60,0
86282,2012-09-14 00:00:00,5130,60,0,0.0,0.0,0.0,60,0,0.0,0.0,0.0,60,0,0.0,0.0,0.0,60,0,0.0,0.0,337.4,60,0,342.9,323.3,0,0,0,28.1,60,0,10.2,60,0,10.4,10.1,7.4,60,0,7.6,7.1,3.9,60,0,4.6,3.0,64.6,60,0,69.0,60.0,28.1,60,0,39.0,18.0,239,0.0,1021.4,60,0,1021.4,0,1007.1,60,0,46.2,60,0
86282,2012-09-14 12:00:00,5140,60,0,0.0,0.0,0.0,60,0,0.0,0.0,0.0,60,0,0.0,0.0,0.0,60,0,0.0,0.0,337.4,60,0,342.9,323.3,0,0,0,28.1,60,0,10.2,60,0,10.4,10.1,7.4,60,0,7.6,7.1,3.9,60,0,4.6,3.0,64.6,60,0,69.0,60.0,28.1,60,0,39.0,18.0,239,0.0,1021.4,60,0,1021.4,0,1007.1,60,0,46.2,60,0
86282,2012-09-15 00:00:00,5150,60,0,0.0,0.0,0.0,60,0,0.0,0.0,0.0,60,0,0.0,0.0,0.0,60,0,0.0,0.0,337.4,60,0,342.9,323.3,0,0,0,28.1,60,0,10.2,60,0,10.4,10.1,7.4,60,0,7.6,7.1,3.9,60,0,4.6,3.0,64.6,60,0,69.0,60.0,28.1,60,0,39.0,18.0,239,0.0,1021.4,60,0,1021.4,0,1007.1,60,0,46.2,60,0
86282,2012-09-15 12:00:00,5160,60,0,0.0,0.0,0.0,60,0,0.0,0.0,0.0,60,0,0.0,0.0,0.0,60,0,0.0,0.0,337.4,60,0,342.9,323.3,0,0,0,28.1,60,0,10.2,60,0,10.4,10.1,7.4,60,0,7.6,7.1,3.9,60,0,4.6,3.0,64.6,60,0,69.0,60.0,28.1,60,0,39.0,18.0,239,0.0,1021.4,60,0,1021.4,0,1007.1,60,0,46.2,60,0
86282,2012-09-16 00:00:00,5170,60,0,0.0,0.0,0.0,60,0,0.0,0.0,0.0,60,0,0.0,0.0,0.0,60,0,0.0,0.0,337.4,60,0,342.9,323.3,0,0,0,28.1,60,0,10.2,60,0,10.4,10.1,7.4,60,0,7.6,7.1,3.9,60,0,4.6,3.0,64.6,60,0,69.0,60.0,28.1,60,0,39.0,18.0,239,0.0,1021.4,60,0,1021.4,0,1007.1,60,0,46.2,60,0
86282,2012-09-16 12:00:00,5180,60,0,0.0,0.0,0.0,60,0,0.0,0.0,0.0,60,0,0.0,0.0,0.0,60,0,0.0,0.0,337.4,60,0,342.9,323.3,0,0,0,28.1,60,0,10.2,60,0,10.4,10.1,7.4,60,0,7.6,7.1,3.9,60,0,4.6,3.0,64.6,60,0,69.0,60.0,28.1,60,0,39.0,18.0,239,0.0,1021.4,60,0,1021.4,0,1007.1,60,0,46.2,60,0
86282,2012-09-17 00:00:00,5190,60,0,0.0,0.0,0.0,60,0,0.0,0.0,0.0,60,0,0.0,0.0,0.0,60,0,0.0,0.0,337.4,60,0,342.9,323.3,0,0,0,28.1,60,0,10.2,60,0,10.4,10.1,7.4,60,0,7.6,7.1,3.9,60,0,4.6,3.0,64.6,60,0,69.0,60.0,28.1,60,0,39.0,18.0,239,0.0,1021.4,60,0,1021.4,0,1007.1,60,0,46.2,60,0
86282,2012-09-17 12:00:00,5200,60,0,0.0,0.0,0.0,60,0,0.0,0.0,0.0,60,0,0.0,0.0,0.0,60,0,0.0,0.0,337.4,60,0,342.9,323.3,0,0,0,28.1,60,0,10.2,60,0,10.4,10.1,7.4,60,0,7.6,7.1,3.9,60,0,4.6,3.0,64.6,60,0,69.0,60.0,28.1,60,0,39.0,18.0,239,0.0,1021.4,60,0,1021.4,0,1007.1,60,0,46.2,60,0
86282,2012-09-18 00:00:00,5210,60,0,0.0,0.0,0.0,60,0,0.0,0.0,0.0,60,0,0.0,0.0,0.0,60,0,0.0,0.0,337.4,60,0,342.9,323.3,0,0,0,28.1,60,0,10.2,60,0,10.4,10.1,7.4,60,0,7.6,7.1,3.9,60,0,4.6,3.0,64.6,60,0,69.0,60.0,28.1,60,0,39.0,18.0,239,0.0,1021.4,60,0,1021.4,0,1007.1,60,0,46.2,60,0
86282,2012-09-18 12:00:00,5220,60,0,0.0,0.0,0.0,60,0,0.0,0.0,0.0,60,0,0.0,0.0,0.0,60,0,0.0,0.0,337.4,60,0,342.9,323.3,0,0,0,28.1,60,0,10.2,60,0,10.4,10.1,7.4,60,0,7.6,7.1,3.9,60,0,4.6,3.0,64.6,60,0,69.0,60.0,28.1,60,0,39.0,18.0,239,0.0,1021.4,60,0,1021.4,0,1007.1,60,0,46.2,60,0
86282,2012-09-19 00:00:00,5230,60,0,0.0,0.0,0.0,60,0,0.0,0.0,0.0,60,0,0.0,0.0,0.0,60,0,0.0,0.0,337.4,60,0,342.9,323.3,0,0,0,28.1,60,0,10.2,60,0,10.4,10.1,7.4,60,0,7.6,7.1,3.9,60,0,4.6,3.0,64.6,60,0,69.0,60.0,28.1,60,0,39.0,18.0,239,0.0,1021.4,60,0,1021.4,0,1007.1,60,0,46.2,60,0
86282,2012-09-19 12:00:00,5240,60,0,0.0,0.0,0.0,60,0,0.0,0.0,0.0,60,0,0.0,0.0,0.0,60,0,0.0,0.0,337.4,60,0,342.9,323.3,0,0,0,28.1,60,0,10.2,60,0,10.4,10.1,7.4,60,0,7.6,7.1,3.9,60,0,4.6,3.0,64.6,60,0,69.0,60.0,28.1,60,0,39.0,18.0,239,0.0,1021.4,60,0,1021.4,0,1007.1,60,0,46.2,60,0
86282,2012-09-20 00:00:00,5250,60,0,0.0,0.0,0.0,60,0,0.0,0.0,0.0,60,0,0.0,0.0,0.0,60,0,0.0,0.0,337.4,60,0,342.9,323.3,0,0,0,28.1,60,0,10.2,60,0,10.4,10.1,7.4,60,0,7.6,7.1,3.9,60,0,4.6,3.0,64.6,60,0,69.0,60.0,28.1,60,0,39.0,18.0,239,0.0,1021.4,60,0,1021.4,0,1007.1,60,0,46.2,60,0
86282,2012-09-20 12:00:00,5260,60,0,0.0,0.0,0.0,60,0,0.0,0.0,0.0,60,0,0.0,0.0,0.0,60,0,0.0,0.0,337.4,60,0,342.9,323.3,0,0,0,28.1,60,0,10.2,60,0,10.4,10.1,7.4,60,0,7.6,7.1,3.9,60,0,4.6,3.0,64.6,60,0,69.0,60.0,28.1,60,0,39.0,18.0,239,0.0,1021.4,60,0,1021.4,0,1007.1,60,0,46.2,60,0
86282,2012-09-21 00:00:00,5270,60,0,0.0,0.0,0.0,60,0,0.0,0.0,0.0,60,0,0.0,0.0,0.0,60,0,0.0,0.0,337.4,60,0,342.9,323.3,0,0,0,28.1,60,0,10.2,60,0,10.4,10.1,7.4,60,0,7.6,7.1,3.9,60,0,4.6,3.0,64.6,60,0,69.0,60.0,28.1,60,0,39.0,18.0,239,0.0,1021.4,60,0,1021.4,0,1007.1,60,0,46.2,60,0
86282,2012-09-21 12:00:00,5280,60,0,0.0,0.0,0.0,60,0,0.0,0.0,0.0,60,0,0.0,0.0,0.0,60,0,0.0,0.0,337.4,60,0,342.9,323.3,0,0,0,28.1,60,0,10.2,60,0,10.4,10.1,7.4,60,0,7.6,7.1,3.9,60,0,4.6,3.0,64.6,60,0,69.0,60.0,28.1,60,0,39.0,18.0,239,0.0,1021.4,60,0,1021.4,0,1007.1,60,0,46.2,60,0
86282,2012-09-22 00:00:00,5290,60,0,0.0,0.0,0.0,60,0,0.0,0.0,0.0,60,0,0.0,0.0,0.0,60,0,0.0,0.0,337.4,60,0,342.9,323.3,0,0,0,28.1,60,0,10.2,60,0,10.4,10.1,7.4,60,0,7.6,7.1,3.9,60,0,4.6,3.0,64.6,60,0,69.0,60.0,28.1,60,0,39.0,18.0,239,0.0,1021.4,60,0,1021.4,0,1007.1,60,0,46.2,60,0
86282,2012-09-22 12:00:00,5300,60,0,0.0,0.0,0.0,60,0,0.0,0.0,0.0,60,0,0.0,0.0,0.0,60,0,0.0,0.0,337.4,60,0,342.9,323.3,0,0,0,28.1,60,0,10.2,60,0,10.4,10.1,7.4,60,0,7.6,7.1,3.9,60,0,4.6,3.0,64.6,60,0,69.0,60.0,28.1,60,0,39.0,18.0,239,0.0,1021.4,60,0,1021.4,0,1007.1,60,0,46.2,60,0
86282,2012-09-23 00:00:00,5310,60,0,0.0,0.0,0.0,60,0,0.0,0.0,0.0,60,0,0.0,0.0,0.0,60,0,0.0,0.0,337.4,60,0,342.9,323.3,0,0,0,28.1,60,0,10.2,60,0,10.4,10.1,7.4,60,0,7.6,7.1,3.9,60,0,4.6,3.0,64.6,60,0,69.0,60.0,28.1,60,0,39.0,18.0,239,0.0,1021.4,60,0,1021.4,0,1007.1,60,0,46.2,60,0
86282,2012-09-23 12:00:00,5320,60,0,0.0,0.0,0.0,60,0,0.0,0.0,0.0,60,0,0.0,0.0,0.0,60,0,0.0,0.0,337.4,60,0,342.9,323.3,0,0,0,28.1,60,0,10.2,60,0,10.4,10.1,7.4,60,0,7.6,7.1,3.9,60,0,4.6,3.0,64.6,60,0,69.0,60.0,28.1,60,0,39.0,18.0,239,0.0,1021.4,60,0,1021.4,0,1007.1,60,0,46.2,60,0
86282,2012-09-24 00:00:00,5330,60,0,0.0,0.0,0.0,60,0,0.0,0.0,0.0,60,0,0.0,0.0,0.0,60,0,0.0,0.0,337.4,60,0,342.9,323.3,0,0,0,28.1,60,0,10.2,60,0,10.4,10.1,7.4,60,0,7.6,7.1,3.9,60,0,4.6,3.0,64.6,60,0,69.0,60.0,28.1,60,0,39.0,18.0,239,0.0,1021.4,60,0,1021.4,0,1007.1,60,0,46.2,60,0
86282,2012-09-24 12:00:00,5340,60,0,0.0,0.0,0.0,60,0,0.0,0.0,0.0,60,0,0.0,0.0,0.0,60,0,0.0,0.0,337.4,60,0,342.9,323.3,0,0,0,28.1,60,0,10.2,60,0,10.4,10.1,7.4,60,0,7.6,7.1,3.9,60,0,4.6,3.0,64.6,60,0,69.0,60.0,28.1,60,0,39.0,18.0,239,0.0,1021.4,60,0,1021.4,0,1007.1,60,0,46.2,60,0
86282,2012-09-25 00:00:00,5350,60,0,0.0,0.0,0.0,60,0,0.0,0.0,0.0,60,0,0.0,0.0,0.0,60,0,0.0,0.0,337.4,60,0,342.9,323.3,0,0,0,28.1,60,0,10.2,60,0,10.4,10.1,7.4,60,0,7.6,7.1,3.9,60,0,4.6,3.0,64.6,60,0,69.0,60.0,28.1,60,0,39.0,18.0,239,0.0,1021.4,60,0,1021.4,0,1007.1,60,0,46.2,60,0
86282,2012-09-25 12:00:00,5360,60,0,0.0,0.0,0.0,60,0,0.0,0.0,0.0,60,0,0.0,0.0,0.0,60,0,0.0,0.0,337.4,60,0,342.9,323.3,0,0,0,28.1,60,0,10.2,60,0,10.4,10.1,7.4,60,0,7.6,7.1,3.9,60,0,4.6,3.0,64.6,60,0,69.0,60.0,28.1,60,0,39.0,18.0,239,0.0,1021.4,60,0,1021.4,0,1007.1,60,0,46.2,60,0
86282,2012-09-26 00:00:00,5370,60,0,0.0,0.0,0.0,60,0,0.0,0.0,0.0,60,0,0.0,0.0,0.0,60,0,0.0,0.0,337.4,60,0,342.9,323.3,0,0,0,28.1,60,0,10.2,60,0,10.4,10.1,7.4,60,0,7.6,7.1,3.9,60,0,4.6,3.0,64.6,60,0,69.0,60.0,28.1,60,0,39.0,18.0,239,0.0,1021.4,60,0,1021.4,0,1007.1,60,0,46.2,60,0
86282,2012-09-26 12:00:00,5380,60,0,0.0,0.0,0.0,60,0,0.0,0.0,0.0,60,0,0.0,0.0,0.0,60,0,0.0,0.0,337.4,60,0,342.9,323.3,0,0,0,28.1,60,0,10.2,60,0,10.4,10.1,7.4,60,0,7.6,7.1,3.9,60,0,4.6,3.0,64.6,60,0,69.0,60.0,28.1,60,0,39.0,18.0,239,0.0,1021.4,60,0,1021.4,0,1007.1,60,0,46.2,60,0
86282,2012-09-27 00:00:00,5390,60,0,0.0,0.0,0.0,60,0,0.0,0.0,0.0,60,0,0.0,0.0,0.0,60,0,0.0,0.0,337.4,60,0,342.9,323.3,0,0,0,28.1,60,0,10.2,60,0,10.4,10.1,7.4,60,0,7.6,7.1,3.9,60,0,4.6,3.0,64.6,60,0,69.0,60.0,28.1,60,0,39.0,18.0,239,0.0,1021.4,60,0,1021.4,0,1007.1,60,0,46.2,60,0
86282,2012-09-27 12:00:00,5400,60,0,0.0,0.0,0.0,60,0,0.0,0.0,0.0,60,0,0.0,0.0,0.0,60,0,0.0,0.0,337.4,60,0,342.9,323.3,0,0,0,28.1,60,0,10.2,60,0,10.4,10.1,7.4,60,0,7.6,7.1,3.9,60,0,4.6,3.0,64.6,60,0,69.0,60.0,28.1,60,0,39.0,18.0,239,0.0,1021.4,60,0,1021.4,0,1007.1,60,0,46.2,60,0
86282,2012-09-28 00:00:00,5410,60,0,0.0,0.0,0.0,60,0,0.0,0.0,0.0,60,0,0.0,0.0,0.0,60,0,0.0,0.0,337.4,60,0,342.9,323.3,0,0,0,28.1,60,0,10.2,60,0,10.4,10.1,7.4,60,0,7.6,7.1,3.9,60,0,4.6,3.0,64.6,60,0,69.0,60.0,28.1,60,0,39.0,18.0,239,0.0,1021.4,60,0,1021.4,0,1007.1,60,0,46.2,60,0
86282,2012-09-28 12:00:00,5420,60,0,0.0,0.0,0.0,60,0,0.0,0.0,0.0,60,0,0.0,0.0,0.0,60,0,0.0,0.0,337.4,60,0,342.9,323.3,0,0,0,28.1,60,0,10.2,60,0,10.4,10.1,7.4,60,0,7.6,7.1,3.9,60,0,4.6,3.0,64.6,60,0,69.0,60.0,28.1,60,0,39.0,18.0,239,0.0,1021.4,60,0,1021.4,0,1007.1,60,0,46.2,60,0
86282,2012-09-29 00:00:00,5430,60,0,0.0,0.0,0.0,60,0,0.0,0.0,0.0,60,0,0.0,0.0,0.0,60,0,0.0,0.0,337.4,60,0,342.9,323.3,0,0,0,28.1,60,0,10.2,60,0,10.4,10.1,7.4,60,0,7.6,7.1,3.9,60,0,4.6,3.0,64.6,60,0,69.0,60.0,28.1,60,0,39.0,18.0,239,0.0,1021.4,60,0,1021.4,0,1007.1,60,0,46.2,60,0
86282,2012-09-29 12:00:00,5440,60,0,0.0,0.0,0.0,60,0,0.0,0.0,0.0,60,0,0.0,0.0,0.0,60,0,0.0,0.0,337.4,60,0,342.9,323.3,0,0,0,28.1,60,0,10.2,60,0,10.4,10.1,7.4,60,0,7.6,7.1,3.9,60,0,4.6,3.0,64.6,60,0,69.0,60.0,28.1,60,0,39.0,18.0,239,0.0,1021.4,60,0,1021.4,0,1007.1,60,0,46.2,60,0
86282,2012-09-30 00:00:00,5450,60,0,0.0,0.0,0.0,60,0,0.0,0.0,0.0,60,0,0.0,0.0,0.0,60,0,0.0,0.0,337.4,60,0,342.9,323.3,0,0,0,28.1,60,0,10.2,60,0,10.4,10.1,7.4,60,0,7.6,7.1,3.9,60,0,4.6,3.0,64.6,60,0,69.0,60.0,28.1,60,0,39.0,18.0,239,0.0,1021.4,60,0,1021.4,0,1007.1,60,0,46.2,60,0
86282,2012-09-30 12:00:00,5460,60,0,0.0,0.0,0.0,60,0,0.0,0.0,0.0,60,0,0.0,0.0,0.0,60,0,0.0,0.0,337.4,60,0,342.9,323.3,0,0,0,28.1,60,0,10.2,60,0,10.4,10.1,7.4,60,0,7.6,7.1,3.9,60,0,4.6,3.0,64.6,60,0,69.0,60.0,28.1,60,0,39.0,18.0,239,0.0,1021.4,60,0,1021.4,0,1007.1,60,0,46.2,60,0
86282,2012-10-01 00:00:00,5470,60,0,0.0,0.0,0.0,60,0,0.0,0.0,0.0,60,0,0.0,0.0,0.0,60,0,0.0,0.0,337.4,60,0,342.9,323.3,0,0,0,28.1,60,0,10.2,60,0,10.4,10.1,7.4,60,0,7.6,7.1,3.9,60,0,4.6,3.0,64.6,60,0,69.0,60.0,28.1,60,0,39.0,18.0,239,0.0,1021.4,60,0,1021.4,0,1007.1,60,0,46.2,60,0
86282,2012-10-01 12:00:00,5480,60,0,0.0,0.0,0.0,60,0,0.0,0.0,0.0,60,0,0.0,0.0,0.0,60,0,0.0,0.0,337.4,60,0,342.9,323.3,0,0,0,28.1,60,0,10.2,60,0,10.4,10.1,7.4,60,0,7.6,7.1,3.9,60,0,4.6,3.0,64.6,60,0,69.0,60.0,28.1,60,0,39.0,18.0,239,0.0,1021.4,60,0,1021.4,0,1007.1,60,0,46.2,60,0
86282,2012-10-02 00:00:00,5490,60,0,0.0,0.0,0.0,60,0,0.0,0.0,0.0,60,0,0.0,0.0,0.0,60,0,0.0,0.0,337.4,60,0,342.9,323.3,0,0,0,28.1,60,0,10.2,60,0,10.4,10.1,7.4,60,0,7.6,7.1,3.9,60,0,4.6,3.0,64.6,60,0,69.0,60.0,28.1,60,0,39.0,18.0,239,0.0,1021.4,60,0,1021.4,0,1007.1,60,0,46.2,60,0
86282,2012-10-02 12:00:00,5500,60,0,0.0,0.0,0.0,60,0,0.0,0.0,0.0,60,0,0.0,0.0,0.0,60,0,0.0,0.0,337.4,60,0,342.9,323.3,0,0,0,28.1,60,0,10.2,60,0,10.4,10.1,7.4,60,0,7.6,7.1,3.9,60,0,4.6,3.0,64.6,60,0,69.0,60.0,28.1,60,0,39.0,18.0,239,0.0,1021.4,60,0,1021.4,0,1007.1,60,0,46.2,60,0
86282,2012-10-03 00:00:00,5510,60,0,0.0,0.0,0.0,60,0,0.0,0.0,0.0,60,0,0.0,0.0,0.0,60,0,0.0,0.0,337.4,60,0,342.9,323.3,0,0,0,28.1,60,0,10.2,60,0,10.4,10.1,7.4,60,0,7.6,7.1,3.9,60,0,4.6,3.0,64.6,60,0,69.0,60.0,28.1,60,0,39.0,18.0,239,0.0,1021.4,60,0,1021.4,0,1007.1,60,0,46.2,60,0
86282,2012-10-03 12:00:00,5520,60,0,0.0,0.0,0.0,60,0,0.0,0.0,0.0,60,0,0.0,0.0,0.0,60,0,0.0,0.0,337.4,60,0,342.9,323.3,0,0,0,28.1,60,0,10.2,60,0,10.4,10.1,7.4,60,0,7.6,7.1,3.9,60,0,4.6,3.0,64.6,60,0,69.0,60.0,28.1,60,0,39.0,18.0,239,0.0,1021.4,60,0,1021.4,0,1007.1,60,0,46.2,60,0
86282,2012-10-04 00:00:00,5530,60,0,0.0,0.0,0.0,60,0,0.0,0.0,0.0,60,0,0.0,0.0,0.0,60,0,0.0,0.0,337.4,60,0,342.9,323.3,0,0,0,28.1,60,0,10.2,60,0,10.4,10.1,7.4,60,0,7.6,7.1,3.9,60,0,4.6,3.0,64.6,60,0,69.0,60.0,28.1,60,0,39.0,18.0,239,0.0,1021.4,60,0,1021.4,0,1007.1,60,0,46.2,60,0
86282,2012-10-04 12:00:00,5540,60,0,0.0,0.0,0.0,60,0,0.0,0.0,0.0,60,0,0.0,0.0,0.0,60,0,0.0,0.0,337.4,60,0,342.9,323.3,0,0,0,28.1,60,0,10.2,60,0,10.4,10.1,7.4,60,0,7.6,7.1,3.9,60,0,4.6,3.0,64.6,60,0,69.0,60.0,28.1,60,0,39.0,18.0,239,0.0,1021.4,60,0,1021.4,0,1007.1,60,0,46.2,60,0
86282,2012-10-05 00:00:00,5550,60,0,0.0,0.0,0.0,60,0,0.0,0.0,0.0,60,0,0.0,0.0,0.0,60,0,0.0,0.0,337.4,60,0,342.9,323.3,0,0,0,28.1,60,0,10.2,60,0,10.4,10.1,7.4,60,0,7.6,7.1,3.9,60,0,4.6,3.0,64.6,60,0,69.0,60.0,28.1,60,0,39.0,18.0,239,0.0,1021.4,60,0,1021.4,0,1007.1,60,0,46.2,60,0
86282,2012-10-05 12:00:00,5560,60,0,0.0,0.0,0.0,60,0,0.0,0.0,0.0,60,0,0.0,0.0,0.0,60,0,0.0,0.0,337.4,60,0,342.9,323.3,0,0,0,28.1,60,0,10.2,60,0,10.4,10.1,7.4,60,0,7.6,7.1,3.9,60,0,4.6,3.0,64.6,60,0,69.0,60.0,28.1,60,0,39.0,18.0,239,0.0,1021.4,60,0,1021.4,0,1007.1,60,0,46.2,60,0
86282,2012-10-06 00:00:00,5570,60,0,0.0,0.0,0.0,60,0,0.0,0.0,0.0,60,0,0.0,0.0,0.0,60,0,0.0,0.0,337.4,60,0,342.9,323.3,0,0,0,28.1,60,0,10.2,60,0,10.4,10.1,7.4,60,0,7.6,7.1,3.9,60,0,4.6,3.0,64.6,60,0,69.0,60.0,28.1,60,0,39.0,18.0,239,0.0,1021.4,60,0,1021.4,0,1007.1,60,0,46.2,60,0
86282,2012-10-06 12:00:00,5580,60,0,0.0,0.0,0.0,60,0,0.0,0.0,0.0,60,0,0.0,0.0,0.0,60,0,0.0,0.0,337.4,60,0,342.9,323.3,0,0,0,28.1,60,0,10.2,60,0,10.4,10.1,7.4,60,0,7.6,7.1,3.9,60,0,4.6,3.0,64.6,60,0,69.0,60.0,28.1,60,0,39.0,18.0,239,0.0,1021.4,60,0,1021.4,0,1007.1,60,0,46.2,60,0
86282,2012-10-07 00:00:00,5590,60,0,0.0,0.0,0.0,60,0,0.0,0.0,0.0,60,0,0.0,0.0,0.0,60,0,0.0,0.0,337.4,60,0,342.9,323.3,0,0,0,28.1,60,0,10.2,60,0,10.4,10.1,7.4,60,0,7.6,7.1,3.9,60,0,4.6,3.0,64.6,60,0,69.0,60.0,28.1,60,0,39.0,18.0,239,0.0,1021.4,60,0,1021.4,0,1007.1,60,0,46.2,60,0
86282,2012-10-07 12:00:00,5600,60,0,0.0,0.0,0.0,60,0,0.0,0.0,0.0,60,0,0.0,0.0,0.0,60,0,0.0,0.0,337.4,60,0,342.9,323.3,0,0,0,28.1,60,0,10.2,60,0,10.4,10.1,7.4,60,0,7.6,7.1,3.9,60,0,4.6,3.0,64.6,60,0,69.0,60.0,28.1,60,0,39.0,18.0,239,0.0,1021.4,60,0,1021.4,0,1007.1,60,0,46.2,60,0
86282,2012-10-08 00:00:00,5610,60,0,0.0,0.0,0.0,60,0,0.0,0.0,0.0,60,0,0.0,0.0,0.0,60,0,0.0,0.0,337.4,60,0,342.9,323.3,0,0,0,28.1,60,0,10.2,60,0,10.4,10.1,7.4,60,0,7.6,7.1,3.9,60,0,4.6,3.0,64.6,60,0,69.0,60.0,28.1,60,0,39.0,18.0,239,0.0,1021.4,60,0,1021.4,0,1007.1,60,0,46.2,60,0
86282,2012-10-08 12:00:00,5620,60,0,0.0,0.0,0.0,60,0,0.0,0.0,0.0,60,0,0.0,0.0,0.0,60,0,0.0,0.0,337.4,60,0,342.9,323.3,0,0,0,28.1,60,0,10.2,60,0,10.4,10.1,7.4,60,0,7.6,7.1,3.9,60,0,4.6,3.0,64.6,60,0,69.0,60.0,28.1,60,0,39.0,18.0,239,0.0,1021.4,60,0,1021.4,0,1007.1,60,0,46.2,60,0
86282,2012-10-09 00:00:00,5630,60,0,0.0,0.0,0.0,60,0,0.0,0.0,0.0,60,0,0.0,0.0,0.0,60,0,0.0,0.0,337.4,60,0,342.9,323.3,0,0,0,28.1,60,0,10.2,60,0,10.4,10.1,7.4,60,0,7.6,7.1,3.9,60,0,4.6,3.0,64.6,60,0,69.0,60.0,28.1,60,0,39.0,18.0,239,0.0,1021.4,60,0,1021.4,0,1007.1,60,0,46.2,60,0
86282,2012-10-09 12:00:00,5640,60,0,0.0,0.0,0.0,60,0,0.0,0.0,0.0,60,0,0.0,0.0,0.0,60,0,0.0,0.0,337.4,60,0,342.9,323.3,0,0,0,28.1,60,0,10.2,60,0,10.4,10.1,7.4,60,0,7.6,7.1,3.9,60,0,4.6,3.0,64.6,60,0,69.0,60.0,28.1,60,0,39.0,18.0,239,0.0,1021.4,60,0,1021.4,0,1007.1,60,0,46.2,60,0
86282,2012-10-10 00:00:00,5650,60,0,0.0,0.0,0.0,60,0,0.0,0.0,0.0,60,0,0.0,0.0,0.0,60,0,0.0,0.0,337.4,60,0,342.9,323.3,0,0,0,28.1,60,0,10.2,60,0,10.4,10.1,7.4,60,0,7.6,7.1,3.9,60,0,4.6,3.0,64.6,60,0,69.0,60.0,28.1,60,0,39.0,18.0,239,0.0,1021.4,60,0,1021.4,0,1007.1,60,0,46.2,60,0
86282,2012-10-10 12:00:00,5660,60,0,0.0,0.0,0.0,60,0,0.0,0.0,0.0,60,0,0.0,0.0,0.0,60,0,0.0,0.0,337.4,60,0,342.9,323.3,0,0,0,28.1,60,0,10.2,60,0,10.4,10.1,7.4,60,0,7.6,7.1,3.9,60,0,4.6,3.0,64.6,60,0,69.0,60.0,28.1,60,0,39.0,18.0,239,0.0,1021.4,60,0,1021.4,0,1007.1,60,0,46.2,60,0
86282,2012-10-11 00:00:00,5670,60,0,0.0,0.0,0.0,60,0,0.0,0.0,0.0,60,0,0.0,0.0,0.0,60,0,0.0,0.0,337.4,60,0,342.9,323.3,0,0,0,28.1,60,0,10.2,60,0,10.4,10.1,7.4,60,0,7.6,7.1,3.9,60,0,4.6,3.0,64.6,60,0,69.0,60.0,28.1,60,0,39.0,18.0,239,0.0,1021.4,60,0,1021.4,0,1007.1,60,0,46.2,60,0
86282,2012-10-11 12:00:00,5680,60,0,0.0,0.0,0.0,60,0,0.0,0.0,0.0,60,0,0.0,0.0,0.0,60,0,0.0,0.0,337.4,60,0,342.9,323.3,0,0,0,28.1,60,0,10.2,60,0,10.4,10.1,7.4,60,0,7.6,7.1,3.9,60,0,4.6,3.0,64.6,60,0,69.0,60.0,28.1,60,0,39.0,18.0,239,0.0,1021.4,60,0,1021.4,0,1007.1,60,0,46.2,60,0
86282,2012-10-12 00:00:00,5690,60,0,0.0,0.0,0.0,60,0,0.0,0.0,0.0,60,0,0.0,0.0,0.0,60,0,0.0,0.0,337.4,60,0,342.9,323.3,0,0,0,28.1,60,0,10.2,60,0,10.4,10.1,7.4,60,0,7.6,7.1,3.9,60,0,4.6,3.0,64.6,60,0,69.0,60.0,28.1,60,0,39.0,18.0,239,0.0,1021.4,60,0,1021.4,0,1007.1,60,0,46.2,60,0
86282,2012-10-12 12:00:00,5700,60,0,0.0,0.0,0.0,60,0,0.0,0.0,0.0,60,0,0.0,0.0,0.0,60,0,0.0,0.0,337.4,60,0,342.9,323.3,0,0,0,28.1,60,0,10.2,60,0,10.4,10.1,7.4,60,0,7.6,7.1,3.9,60,0,4.6,3.0,64.6,60,0,69.0,60.0,28.1,60,0,39.0,18.0,239,0.0,1021.4,60,0,1021.4,0,1007.1,60,0,46.2,60,0
86282,2012-10-13 00:00:00,5710,60,0,0.0,0.0,0.0,60,0,0.0,0.0,0.0,60,0,0.0,0.0,0.0,60,0,0.0,0.0,337.4,60,0,342.9,323.3,0,0,0,28.1,60,0,10.2,60,0,10.4,10.1,7.4,60,0,7.6,7.1,3.9,60,0,4.6,3.0,64.6,60,0,69.0,60.0,28.1,60,0,39.0,18.0,239,0.0,1021.4,60,0,1021.4,0,1007.1,60,0,46.2,60,0
86282,2012-10-13 12:00:00,5720,60,0,0.0,0.0,0.0,60,0,0.0,0.0,0.0,60,0,0.0,0.0,0.0,60,0,0.0,0.0,337.4,60,0,342.9,323.3,0,0,0,28.1,60,0,10.2,60,0,10.4,10.1,7.4,60,0,7.6,7.1,3.9,60,0,4.6,3.0,64.6,60,0,69.0,60.0,28.1,60,0,39.0,18.0,239,0.0,1021.4,60,0,1021.4,0,1007.1,60,0,46.2,60,0
86282,2012-10-14 00:00:00,5730,60,0,0.0,0.0,0.0,60,0,0.0,0.0,0.0,60,0,0.0,0.0,0.0,60,0,0.0,0.0,337.4,60,0,342.9,323.3,0,0,0,28.1,60,0,10.2,60,0,10.4,10.1,7.4,60,0,7.6,7.1,3.9,60,0,4.6,3.0,64.6,60,0,69.0,60.0,28.1,60,0,39.0,18.0,239,0.0,1021.4,60,0,1021.4,0,1007.1,60,0,46.2,60,0
86282,2012-10-14 12:00:00,5740,60,0,0.0,0.0,0.0,60,0,0.0,0.0,0.0,60,0,0.0,0.0,0.0,60,0,0.0,0.0,337.4,60,0,342.9,323.3,0,0,0,28.1,60,0,10.2,60,0,10.4,10.1,7.4,60,0,7.6,7.1,3.9,60,0,4.6,3.0,64.6,60,0,69.0,60.0,28.1,60,0,39.0,18.0,239,0.0,1021.4,60,0,1021.4,0,1007.1,60,0,46.2,60,0
86282,2012-10-15 00:00:00,5750,60,0,0.0,0.0,0.0,60,0,0.0,0.0,0.0,60,0,0.0,0.0,0.0,60,0,0.0,0.0,337.4,60,0,342.9,323.3,0,0,0,28.1,60,0,10.2,60,0,10.4,10.1,7.4,60,0,7.6,7.1,3.9,60,0,4.6,3.0,64.6,60,0,69.0,60.0,28.1,60,0,39.0,18.0,239,0.0,1021.4,60,0,1021.4,0,1007.1,60,0,46.2,60,0
86282,2012-10-15 12:00:00,5760,60,0,0.0,0.0,0.0,60,0,0.0,0.0,0.0,60,0,0.0,0.0,0.0,60,0,0.0,0.0,337.4,60,0,342.9,323.3,0,0,0,28.1,60,0,10.2,60,0,10.4,10.1,7.4,60,0,7.6,7.1,3.9,60,0,4.6,3.0,64.6,60,0,69.0,60.0,28.1,60,0,39.0,18.0,239,0.0,1021.4,60,0,1021.4,0,1007.1,60,0,46.2,60,0
86282,2012-10-16 00:00:00,5770,60,0,0.0,0.0,0.0,60,0,0.0,0.0,0.0,60,0,0.0,0.0,0.0,60,0,0.0,0.0,337.4,60,0,342.9,323.3,0,0,0,28.1,60,0,10.2,60,0,10.4,10.1,7.4,60,0,7.6,7.1,3.9,60,0,4.6,3.0,64.6,60,0,69.0,60.0,28.1,60,0,39.0,18.0,239,0.0,1021.4,60,0,1021.4,0,1007.1,60,0,46.2,60,0
86282,2012-10-16 12:00:00,5780,60,0,0.0,0.0,0.0,60,0,0.0,0.0,0.0,60,0,0.0,0.0,0.0,60,0,0.0,0.0,337.4,60,0,342.9,323.3,0,0,0,28.1,60,0,10.2,60,0,10.4,10.1,7.4,60,0,7.6,7.1,3.9,60,0,4.6,3.0,64.6,60,0,69.0,60.0,28.1,60,0,39.0,18.0,239,0.0,1021.4,60,0,1021.4,0,1007.1,60,0,46.2,60,0
86282,2012-10-17 00:00:00,5790,60,0,0.0,0.0,0.0,60,0,0.0,0.0,0.0,60,0,0.0,0.0,0.0,60,0,0.0,0.0,337.4,60,0,342.9,323.3,0,0,0,28.1,60,0,10.2,60,0,10.4,10.1,7.4,60,0,7.6,7.1,3.9,60,0,4.6,3.0,64.6,60,0,69.0,60.0,28.1,60,0,39.0,18.0,239,0.0,1021.4,60,0,1021.4,0,1007.1,60,0,46.2,60,0
86282,2012-10-17 12:00:00,5800,60,0,0.0,0.0,0.0,60,0,0.0,0.0,0.0,60,0,0.0,0.0,0.0,60,0,0.0,0.0,337.4,60,0,342.9,323.3,0,0,0,28.1,60,0,10.2,60,0,10.4,10.1,7.4,60,0,7.6,7.1,3.9,60,0,4.6,3.0,64.6,60,0,69.0,60.0,28.1,60,0,39.0,18.0,239,0.0,1021.4,60,0,1021.4,0,1007.1,60,0,46.2,60,0
86282,2012-10-18 00:00:00,5810,60,0,0.0,0.0,0.0,60,0,0.0,0.0,0.0,60,0,0.0,0.0,0.0,60,0,0.0,0.0,337.4,60,0,342.9,323.3,0,0,0,28.1,60,0,10.2,60,0,10.4,10.1,7.4,60,0,7.6,7.1,3.9,60,0,4.6,3.0,64.6,60,0,69.0,60.0,28.1,60,0,39.0,18.0,239,0.0,1021.4,60,0,1021.4,0,1007.1,60,0,46.2,60,0
86282,2012-10-18 12:00:00,5820,60,0,0.0,0.0,0.0,60,0,0.0,0.0,0.0,60,0,0.0,0.0,0.0,60,0,0.0,0.0,337.4,60,0,342.9,323.3,0,0,0,28.1,60,0,10.2,60,0,10.4,10.1,7.4,60,0,7.6,7.1,3.9,60,0,4.6,3.0,64.6,60,0,69.0,60.0,28.1,60,0,39.0,18.0,239,0.0,1021.4,60,0,1021.4,0,1007.1,60,0,46.2,60,0
86282,2012-10-19 00:00:00,5830,60,0,0.0,0.0,0.0,60,0,0.0,0.0,0.0,60,0,0.0,0.0,0.0,60,0,0.0,0.0,337.4,60,0,342.9,323.3,0,0,0,28.1,60,0,10.2,60,0,10.4,10.1,7.4,60,0,7.6,7.1,3.9,60,0,4.6,3.0,64.6,60,0,69.0,60.0,28.1,60,0,39.0,18.0,239,0.0,1021.4,60,0,1021.4,0,1007.1,60,0,46.2,60,0
86282,2012-10-19 12:00:00,5840,60,0,0.0,0.0,0.0,60,0,0.0,0.0,0.0,60,0,0.0,0.0,0.0,60,0,0.0,0.0,337.4,60,0,342.9,323.3,0,0,0,28.1,60,0,10.2,60,0,10.4,10.1,7.4,60,0,7.6,7.1,3.9,60,0,4.6,3.0,64.6,60,0,69.0,60.0,28.1,60,0,39.0,18.0,239,0.0,1021.4,60,0,1021.4,0,1007.1,60,0,46.2,60,0
86282,2012-10-20 00:00:00,5850,60,0,0.0,0.0,0.0,60,0,0.0,0.0,0.0,60,0,0.0,0.0,0.0,60,0,0.0,0.0,337.4,60,0,342.9,323.3,0,0,0,28.1,60,0,10.2,60,0,10.4,10.1,7.4,60,0,7.6,7.1,3.9,60,0,4.6,3.0,64.6,60,0,69.0,60.0,28.1,60,0,39.0,18.0,239,0.0,1021.4,60,0,1021.4,0,1007.1,60,0,46.2,60,0
86282,2012-10-20 12:00:00,5860,60,0,0.0,0.0,0.0,60,0,0.0,0.0,0.0,60,0,0.0,0.0,0.0,60,0,0.0,0.0,337.4,60,0,342.9,323.3,0,0,0,28.1,60,0,10.2,60,0,10.4,10.1,7.4,60,0,7.6,7.1,3.9,60,0,4.6,3.0,64.6,60,0,69.0,60.0,28.1,60,0,39.0,18.0,239,0.0,1021.4,60,0,1021.4,0,1007.1,60,0,46.2,60,0
86282,2012-10-21 00:00:00,5870,60,0,0.0,0.0,0.0,60,0,0.0,0.0,0.0,60,0,0.0,0.0,0.0,60,0,0.0,0.0,337.4,60,0,342.9,323.3,0,0,0,28.1,60,0,10.2,60,0,10.4,10.1,7.4,60,0,7.6,7.1,3.9,60,0,4.6,3.0,64.6,60,0,69.0,60.0,28.1,60,0,39.0,18.0,239,0.0,1021.4,60,0,1021.4,0,1007.1,60,0,46.2,60,0
86282,2012-10-21 12:00:00,5880,60,0,0.0,0.0,0.0,60,0,0.0,0.0,0.0,60,0,0.0,0.0,0.0,60,0,0.0,0.0,337.4,60,0,342.9,323.3,0,0,0,28.1,60,0,10.2,60,0,10.4,10.1,7.4,60,0,7.6,7.1,3.9,60,0,4.6,3.0,64.6,60,0,69.0,60.0,28.1,60,0,39.0,18.0,239,0.0,1021.4,60,0,1021.4,0,1007.1,60,0,46.2,60,0
86282,2012-10-22 00:00:00,5890,60,0,0.0,0.0,0.0,60,0,0.0,0.0,0.0,60,0,0.0,0.0,0.0,60,0,0.0,0.0,337.4,60,0,342.9,323.3,0,0,0,28.1,60,0,10.2,60,0,10.4,10.1,7.4,60,0,7.6,7.1,3.9,60,0,4.6,3.0,64.6,60,0,69.0,60.0,28.1,60,0,39.0,18.0,239,0.0,1021.4,60,0,1021.4,0,1007.1,60,0,46.2,60,0
86282,2012-10-22 12:00:00,5900,60,0,0.0,0.0,0.0,60,0,0.0,0.0,0.0,60,0,0.0,0.0,0.0,60,0,0.0,0.0,337.4,60,0,342.9,323.3,0,0,0,28.1,60,0,10.2,60,0,10.4,10.1,7.4,60,0,7.6,7.1,3.9,60,0,4.6,3.0,64.6,60,0,69.0,60.0,28.1,60,0,39.0,18.0,239,0.0,1021.4,60,0,1021.4,0,1007.1,60,0,46.2,60,0
86282,2012-10-23 00:00:00,5910,60,0,0.0,0.0,0.0,60,0,0.0,0.0,0.0,60,0,0.0,0.0,0.0,60,0,0.0,0.0,337.4,60,0,342.9,323.3,0,0,0,28.1,60,0,10.2,60,0,10.4,10.1,7.4,60,0,7.6,7.1,3.9,60,0,4.6,3.0,64.6,60,0,69.0,60.0,28.1,60,0,39.0,18.0,239,0.0,1021.4,60,0,1021.4,0,1007.1,60,0,46.2,60,0
86282,2012-10-23 12:00:00,5920,60,0,0.0,0.0,0.0,60,0,0.0,0.0,0.0,60,0,0.0,0.0,0.0,60,0,0.0,0.0,337.4,60,0,342.9,323.3,0,0,0,28.1,60,0,10.2,60,0,10.4,10.1,7.4,60,0,7.6,7.1,3.9,60,0,4.6,3.0,64.6,60,0,69.0,60.0,28.1,60,0,39.0,18.0,239,0.0,1021.4,60,0,1021.4,0,1007.1,60,0,46.2,60,0
86282,2012-10-24 00:00:00,5930,60,0,0.0,0.0,0.0,60,0,0.0,0.0,0.0,60,0,0.0,0.0,0.0,60,0,0.0,0.0,337.4,60,0,342.9,323.3,0,0,0,28.1,60,0,10.2,60,0,10.4,10.1,7.4,60,0,7.6,7.1,3.9,60,0,4.6,3.0,64.6,60,0,69.0,60.0,28.1,60,0,39.0,18.0,239,0.0,1021.4,60,0,1021.4,0,1007.1,60,0,46.2,60,0
86282,2012-10-24 12:00:00,5940,60,0,0.0,0.0,0.0,60,0,0.0,0.0,0.0,60,0,0.0,0.0,0.0,60,0,0.0,0.0,337.4,60,0,342.9,323.3,0,0,0,28.1,60,0,10.2,60,0,10.4,10.1,7.4,60,0,7.6,7.1,3.9,60,0,4.6,3.0,64.6,60,0,69.0,60.0,28.1,60,0,39.0,18.0,239,0.0,1021.4,60,0,1021.4,0,1007.1,60,0,46.2,60,0
86282,2012-10-25 00:00:00,5950,60,0,0.0,0.0,0.0,60,0,0.0,0.0,0.0,60,0,0.0,0.0,0.0,60,0,0.0,0.0,337.4,60,0,342.9,323.3,0,0,0,28.1,60,0,10.2,60,0,10.4,10.1,7.4,60,0,7.6,7.1,3.9,60,0,4.6,3.0,64.6,60,0,69.0,60.0,28.1,60,0,39.0,18.0,239,0.0,1021.4,60,0,1021.4,0,1007.1,60,0,46.2,60,0
86282,2012-10-25 12:00:00,5960,60,0,0.0,0.0,0.0,60,0,0.0,0.0,0.0,60,0,0.0,0.0,0.0,60,0,0.0,0.0,337.4,60,0,342.9,323.3,0,0,0,28.1,60,0,10.2,60,0,10.4,10.1,7.4,60,0,7.6,7.1,3.9,60,0,4.6,3.0,64.6,60,0,69.0,60.0,28.1,60,0,39.0,18.0,239,0.0,1021.4,60,0,1021.4,0,1007.1,60,0,46.2,60,0
86282,2012-10-26 00:00:00,5970,60,0,0.0,0.0,0.0,60,0,0.0,0.0,0.0,60,0,0.0,0.0,0.0,60,0,0.0,0.0,337.4,60,0,342.9,323.3,0,0,0,28.1,60,0,10.2,60,0,10.4,10.1,7.4,60,0,7.6,7.1,3.9,60,0,4.6,3.0,64.6,60,0,69.0,60.0,28.1,60,0,39.0,18.0,239,0.0,1021.4,60,0,1021.4,0,1007.1,60,0,46.2,60,0
86282,2012-10-26 12:00:00,5980,60,0,0.0,0.0,0.0,60,0,0.0,0.0,0.0,60,0,0.0,0.0,0.0,60,0,0.0,0.0,337.4,60,0,342.9,323.3,0,0,0,28.1,60,0,10.2,60,0,10.4,10.1,7.4,60,0,7.6,7.1,3.9,60,0,4.6,3.0,64.6,60,0,69.0,60.0,28.1,60,0,39.0,18.0,239,0.0,1021.4,60,0,1021.4,0,1007.1,60,0,46.2,60,0
86282,2012-10-27 00:00:00,5990,60,0,0.0,0.0,0.0,60,0,0.0,0.0,0.0,60,0,0.0,0.0,0.0,60,0,0.0,0.0,337.4,60,0,342.9,323.3,0,0,0,28.1,60,0,10.2,60,0,10.4,10.1,7.4,60,0,7.6,7.1,3.9,60,0,4.6,3.0,64.6,60,0,69.0,60.0,28.1,60,0,39.0,18.0,239,0.0,1021.4,60,0,1021.4,0,1007.1,60,0,46.2,60,0
86282,2012-10-27 12:00:00,6000,60,0,0.0,0.0,0.0,60,0,0.0,0.0,0.0,60,0,0.0,0.0,0.0,60,0,0.0,0.0,337.4,60,0,342.9,323.3,0,0,0,28.1,60,0,10.2,60,0,10.4,10.1,7.4,60,0,7.6,7.1,3.9,60,0,4.6,3.0,64.6,60,0,69.0,60.0,28.1,60,0,39.0,18.0,239,0.0,1021.4,60,0,1021.4,0,1007.1,60,0,46.2,60,0
86282,2012-10-28 00:00:00,6010,60,0,0.0,0.0,0.0,60,0,0.0,0.0,0.0,60,0,0.0,0.0,0.0,60,0,0.0,0.0,337.4,60,0,342.9,323.3,0,0,0,28.1,60,0,10.2,60,0,10.4,10.1,7.4,60,0,7.6,7.1,3.9,60,0,4.6,3.0,64.6,60,0,69.0,60.0,28.1,60,0,39.0,18.0,239,0.0,1021.4,60,0,1021.4,0,1007.1,60,0,46.2,60,0
86282,2012-10-28 12:00:00,6020,60,0,0.0,0.0,0.0,60,0,0.0,0.0,0.0,60,0,0.0,0.0,0.0,60,0,0.0,0.0,337.4,60,0,342.9,323.3,0,0,0,28.1,60,0,10.2,60,0,10.4,10.1,7.4,60,0,7.6,7.1,3.9,60,0,4.6,3.0,64.6,60,0,69.0,60.0,28.1,60,0,39.0,18.0,239,0.0,1021.4,60,0,1021.4,0,1007.1,60,0,46.2,60,0
86282,2012-10-29 00:00:00,6030,60,0,0.0,0.0,0.0,60,0,0.0,0.0,0.0,60,0,0.0,0.0,0.0,60,0,0.0,0.0,337.4,60,0,342.9,323.3,0,0,0,28.1,60,0,10.2,60,0,10.4,10.1,7.4,60,0,7.6,7.1,3.9,60,0,4.6,3.0,64.6,60,0,69.0,60.0,28.1,60,0,39.0,18.0,239,0.0,1021.4,60,0,1021.4,0,1007.1,60,0,46.2,60,0
86282,2012-10-29 12:00:00,6040,60,0,0.0,0.0,0.0,60,0,0.0,0.0,0.0,60,0,0.0,0.0,0.0,60,0,0.0,0.0,337.4,60,0,342.9,323.3,0,0,0,28.1,60,0,10.2,60,0,10.4,10.1,7.4,60,0,7.6,7.1,3.9,60,0,4.6,3.0,64.6,60,0,69.0,60.0,28.1,60,0,39.0,18.0,239,0.0,1021.4,60,0,1021.4,0,1007.1,60,0,46.2,60,0
86282,2012-10-30 00:00:00,6050,60,0,0.0,0.0,0.0,60,0,0.0,0.0,0.0,60,0,0.0,0.0,0.0,60,0,0.0,0.0,337.4,60,0,342.9,323.3,0,0,0,28.1,60,0,10.2,60,0,10.4,10.1,7.4,60,0,7.6,7.1,3.9,60,0,4.6,3.0,64.6,60,0,69.0,60.0,28.1,60,0,39.0,18.0,239,0.0,1021.4,60,0,1021.4,0,1007.1,60,0,46.2,60,0
86282,2012-10-30 12:00:00,6060,60,0,0.0,0.0,0.0,60,0,0.0,0.0,0.0,60,0,0.0,0.0,0.0,60,0,0.0,0.0,337.4,60,0,342.9,323.3,0,0,0,28.1,60,0,10.2,60,0,10.4,10.1,7.4,60,0,7.6,7.1,3.9,60,0,4.6,3.0,64.6,60,0,69.0,60.0,28.1,60,0,39.0,18.0,239,0.0,1021.4,60,0,1021.4,0,1007.1,60,0,46.2,60,0
86282,2012-10-31 00:00:00,6070,60,0,0.0,0.0,0.0,60,0,0.0,0.0,0.0,60,0,0.0,0.0,0.0,60,0,0.0,0.0,337.4,60,0,342.9,323.3,0,0,0,28.1,60,0,10.2,60,0,10.4,10.1,7.4,60,0,7.6,7.1,3.9,60,0,4.6,3.0,64.6,60,0,69.0,60.0,28.1,60,0,39.0,18.0,239,0.0,1021.4,60,0,1021.4,0,1007.1,60,0,46.2,60,0
86282,2012-10-31 12:00:00,6080,60,0,0.0,0.0,0.0,60,0,0.0,0.0,0.0,60,0,0.0,0.0,0.0,60,0,0.0,0.0,337.4,60,0,342.9,323.3,0,0,0,28.1,60,0,10.2,60,0,10.4,10.1,7.4,60,0,7.6,7.1,3.9,60,0,4.6,3.0,64.6,60,0,69.0,60.0,28.1,60,0,39.0,18.0,239,0.0,1021.4,60,0,1021.4,0,1007.1,60,0,46.2,60,0
86282,2012-11-01 00:00:00,6090,60,0,0.0,0.0,0.0,60,0,0.0,0.0,0.0,60,0,0.0,0.0,0.0,60,0,0.0,0.0,337.4,60,0,342.9,323.3,0,0,0,28.1,60,0,10.2,60,0,10.4,10.1,7.4,60,0,7.6,7.1,3.9,60,0,4.6,3.0,64.6,60,0,69.0,60.0,28.1,60,0,39.0,18.0,239,0.0,1021.4,60,0,1021.4,0,1007.1,60,0,46.2,60,0
86282,2012-11-01 12:00:00,6100,60,0,0.0,0.0,0.0,60,0,0.0,0.0,0.0,60,0,0.0,0.0,0.0,60,0,0.0,0.0,337.4,60,0,342.9,323.3,0,0,0,28.1,60,0,10.2,60,0,10.4,10.1,7.4,60,0,7.6,7.1,3.9,60,0,4.6,3.0,64.6,60,0,69.0,60.0,28.1,60,0,39.0,18.0,239,0.0,1021.4,60,0,1021.4,0,1007.1,60,0,46.2,60,0
86282,2012-11-02 00:00:00,6110,60,0,0.0,0.0,0.0,60,0,0.0,0.0,0.0,60,0,0.0,0.0,0.0,60,0,0.0,0.0,337.4,60,0,342.9,323.3,0,0,0,28.1,60,0,10.2,60,0,10.4,10.1,7.4,60,0,7.6,7.1,3.9,60,0,4.6,3.0,64.6,60,0,69.0,60.0,28.1,60,0,39.0,18.0,239,0.0,1021.4,60,0,1021.4,0,1007.1,60,0,46.2,60,0
86282,2012-11-02 12:00:00,6120,60,0,0.0,0.0,0.0,60,0,0.0,0.0,0.0,60,0,0.0,0.0,0.0,60,0,0.0,0.0,337.4,60,0,342.9,323.3,0,0,0,28.1,60,0,10.2,60,0,10.4,10.1,7.4,60,0,7.6,7.1,3.9,60,0,4.6,3.0,64.6,60,0,69.0,60.0,28.1,60,0,39.0,18.0,239,0.0,1021.4,60,0,1021.4,0,1007.1,60,0,46.2,60,0
86282,2012-11-03 00:00:00,6130,60,0,0.0,0.0,0.0,60,0,0.0,0.0,0.0,60,0,0.0,0.0,0.0,60,0,0.0,0.0,337.4,60,0,342.9,323.3,0,0,0,28.1,60,0,10.2,60,0,10.4,10.1,7.4,60,0,7.6,7.1,3.9,60,0,4.6,3.0,64.6,60,0,69.0,60.0,28.1,60,0,39.0,18.0,239,0.0,1021.4,60,0,1021.4,0,1007.1,60,0,46.2,60,0
86282,2012-11-03 12:00:00,6140,60,0,0.0,0.0,0.0,60,0,0.0,0.0,0.0,60,0,0.0,0.0,0.0,60,0,0.0,0.0,337.4,60,0,342.9,323.3,0,0,0,28.1,60,0,10.2,60,0,10.4,10.1,7.4,60,0,7.6,7.1,3.9,60,0,4.6,3.0,64.6,60,0,69.0,60.0,28.1,60,0,39.0,18.0,239,0.0,1021.4,60,0,1021.4,0,1007.1,60,0,46.2,60,0
86282,2012-11-04 00:00:00,6150,60,0,0.0,0.0,0.0,60,0,0.0,0.0,0.0,60,0,0.0,0.0,0.0,60,0,0.0,0.0,337.4,60,0,342.9,323.3,0,0,0,28.1,60,0,10.2,60,0,10.4,10.1,7.4,60,0,7.6,7.1,3.9,60,0,4.6,3.0,64.6,60,0,69.0,60.0,28.1,60,0,39.0,18.0,239,0.0,1021.4,60,0,1021.4,0,1007.1,60,0,46.2,60,0
86282,2012-11-04 12:00:00,6160,60,0,0.0,0.0,0.0,60,0,0.0,0.0,0.0,60,0,0.0,0.0,0.0,60,0,0.0,0.0,337.4,60,0,342.9,323.3,0,0,0,28.1,60,0,10.2,60,0,10.4,10.1,7.4,60,0,7.6,7.1,3.9,60,0,4.6,3.0,64.6,60,0,69.0,60.0,28.1,60,0,39.0,18.0,239,0.0,1021.4,60,0,1021.4,0,1007.1,60,0,46.2,60,0
86282,2012-11-05 00:00:00,6170,60,0,0.0,0.0,0.0,60,0,0.0,0.0,0.0,60,0,0.0,0.0,0.0,60,0,0.0,0.0,337.4,60,0,342.9,323.3,0,0,0,28.1,60,0,10.2,60,0,10.4,10.1,7.4,60,0,7.6,7.1,3.9,60,0,4.6,3.0,64.6,60,0,69.0,60.0,28.1,60,0,39.0,18.0,239,0.0,1021.4,60,0,1021.4,0,1007.1,60,0,46.2,60,0
86282,2012-11-05 12:00:00,6180,60,0,0.0,0.0,0.0,60,0,0.0,0.0,0.0,60,0,0.0,0.0,0.0,60,0,0.0,0.0,337.4,60,0,342.9,323.3,0,0,0,28.1,60,0,10.2,60,0,10.4,10.1,7.4,60,0,7.6,7.1,3.9,60,0,4.6,3.0,64.6,60,0,69.0,60.0,28.1,60,0,39.0,18.0,239,0.0,1021.4,60,0,1021.4,0,1007.1,60,0,46.2,60,0
86282,2012-11-06 00:00:00,6190,60,0,0.0,0.0,0.0,60,0,0.0,0.0,0.0,60,0,0.0,0.0,0.0,60,0,0.0,0.0,337.4,60,0,342.9,323.3,0,0,0,28.1,60,0,10.2,60,0,10.4,10.1,7.4,60,0,7.6,7.1,3.9,60,0,4.6,3.0,64.6,60,0,69.0,60.0,28.1,60,0,39.0,18.0,239,0.0,1021.4,60,0,1021.4,0,1007.1,60,0,46.2,60,0
86282,2012-11-06 12:00:00,6200,60,0,0.0,0.0,0.0,60,0,0.0,0.0,0.0,60,0,0.0,0.0,0.0,60,0,0.0,0.0,337.4,60,0,342.9,323.3,0,0,0,28.1,60,0,10.2,60,0,10.4,10.1,7.4,60,0,7.6,7.1,3.9,60,0,4.6,3.0,64.6,60,0,69.0,60.0,28.1,60,0,39.0,18.0,239,0.0,1021.4,60,0,1021.4,0,1007.1,60,0,46.2,60,0
86282,2012-11-07 00:00:00,6210,60,0,0.0,0.0,0.0,60,0,0.0,0.0,0.0,60,0,0.0,0.0,0.0,60,0,0.0,0.0,337.4,60,0,342.9,323.3,0,0,0,28.1,60,0,10.2,60,0,10.4,10.1,7.4,60,0,7.6,7.1,3.9,60,0,4.6,3.0,64.6,60,0,69.0,60.0,28.1,60,0,39.0,18.0,239,0.0,1021.4,60,0,1021.4,0,1007.1,60,0,46.2,60,0
86282,2012-11-07 12:00:00,6220,60,0,0.0,0.0,0.0,60,0,0.0,0.0,0.0,60,0,0.0,0.0,0.0,60,0,0.0,0.0,337.4,60,0,342.9,323.3,0,0,0,28.1,60,0,10.2,60,0,10.4,10.1,7.4,60,0,7.6,7.1,3.9,60,0,4.6,3.0,64.6,60,0,69.0,60.0,28.1,60,0,39.0,18.0,239,0.0,1021.4,60,0,1021.4,0,1007.1,60,0,46.2,60,0
86282,2012-11-08 00:00:00,6230,60,0,0.0,0.0,0.0,60,0,0.0,0.0,0.0,60,0,0.0,0.0,0.0,60,0,0.0,0.0,337.4,60,0,342.9,323.3,0,0,0,28.1,60,0,10.2,60,0,10.4,10.1,7.4,60,0,7.6,7.1,3.9,60,0,4.6,3.0,64.6,60,0,69.0,60.0,28.1,60,0,39.0,18.0,239,0.0,1021.4,60,0,1021.4,0,1007.1,60,0,46.2,60,0
86282,2012-11-08 12:00:00,6240,60,0,0.0,0.0,0.0,60,0,0.0,0.0,0.0,60,0,0.0,0.0,0.0,60,0,0.0,0.0,337.4,60,0,342.9,323.3,0,0,0,28.1,60,0,10.2,60,0,10.4,10.1,7.4,60,0,7.6,7.1,3.9,60,0,4.6,3.0,64.6,60,0,69.0,60.0,28.1,60,0,39.0,18.0,239,0.0,1021.4,60,0,1021.4,0,1007.1,60,0,46.2,60,0
86282,2012-11-09 00:00:00,6250,60,0,0.0,0.0,0.0,60,0,0.0,0.0,0.0,60,0,0.0,0.0,0.0,60,0,0.0,0.0,337.4,60,0,342.9,323.3,0,0,0,28.1,60,0,10.2,60,0,10.4,10.1,7.4,60,0,7.6,7.1,3.9,60,0,4.6,3.0,64.6,60,0,69.0,60.0,28.1,60,0,39.0,18.0,239,0.0,1021.4,60,0,1021.4,0,1007.1,60,0,46.2,60,0
86282,2012-11-09 12:00:00,6260,60,0,0.0,0.0,0.0,60,0,0.0,0.0,0.0,60,0,0.0,0.0,0.0,60,0,0.0,0.0,337.4,60,0,342.9,323.3,0,0,0,28.1,60,0,10.2,60,0,10.4,10.1,7.4,60,0,7.6,7.1,3.9,60,0,4.6,3.0,64.6,60,0,69.0,60.0,28.1,60,0,39.0,18.0,239,0.0,1021.4,60,0,1021.4,0,1007.1,60,0,46.2,60,0
86282,2012-11-10 00:00:00,6270,60,0,0.0,0.0,0.0,60,0,0.0,0.0,0.0,60,0,0.0,0.0,0.0,60,0,0.0,0.0,337.4,60,0,342.9,323.3,0,0,0,28.1,60,0,10.2,60,0,10.4,10.1,7.4,60,0,7.6,7.1,3.9,60,0,4.6,3.0,64.6,60,0,69.0,60.0,28.1,60,0,39.0,18.0,239,0.0,1021.4,60,0,1021.4,0,1007.1,60,0,46.2,60,0
86282,2012-11-10 12:00:00,6280,60,0,0.0,0.0,0.0,60,0,0.0,0.0,0.0,60,0,0.0,0.0,0.0,60,0,0.0,0.0,337.4,60,0,342.9,323.3,0,0,0,28.1,60,0,10.2,60,0,10.4,10.1,7.4,60,0,7.6,7.1,3.9,60,0,4.6,3.0,64.6,60,0,69.0,60.0,28.1,60,0,39.0,18.0,239,0.0,1021.4,60,0,1021.4,0,1007.1,60,0,46.2,60,0
86282,2012-11-11 00:00:00,6290,60,0,0.0,0.0,0.0,60,0,0.0,0.0,0.0,60,0,0.0,0.0,0.0,60,0,0.0,0.0,337.4,60,0,342.9,323.3,0,0,0,28.1,60,0,10.2,60,0,10.4,10.1,7.4,60,0,7.6,7.1,3.9,60,0,4.6,3.0,64.6,60,0,69.0,60.0,28.1,60,0,39.0,18.0,239,0.0,1021.4,60,0,1021.4,0,1007.1,60,0,46.2,60,0
86282,2012-11-11 12:00:00,6300,60,0,0.0,0.0,0.0,60,0,0.0,0.0,0.0,60,0,0.0,0.0,0.0,60,0,0.0,0.0,337.4,60,0,342.9,323.3,0,0,0,28.1,60,0,10.2,60,0,10.4,10.1,7.4,60,0,7.6,7.1,3.9,60,0,4.6,3.0,64.6,60,0,69.0,60.0,28.1,60,0,39.0,18.0,239,0.0,1021.4,60,0,1021.4,0,1007.1,60,0,46.2,60,0
86282,2012-11-12 00:00:00,6310,60,0,0.0,0.0,0.0,60,0,0.0,0.0,0.0,60,0,0.0,0.0,0.0,60,0,0.0,0.0,337.4,60,0,342.9,323.3,0,0,0,28.1,60,0,10.2,60,0,10.4,10.1,7.4,60,0,7.6,7.1,3.9,60,0,4.6,3.0,64.6,60,0,69.0,60.0,28.1,60,0,39.0,18.0,239,0.0,1021.4,60,0,1021.4,0,1007.1,60,0,46.2,60,0
86282,2012-11-12 12:00:00,6320,60,0,0.0,0.0,0.0,60,0,0.0,0.0,0.0,60,0,0.0,0.0,0.0,60,0,0.0,0.0,337.4,60,0,342.9,323.3,0,0,0,28.1,60,0,10.2,60,0,10.4,10.1,7.4,60,0,7.6,7.1,3.9,60,0,4.6,3.0,64.6,60,0,69.0,60.0,28.1,60,0,39.0,18.0,239,0.0,1021.4,60,0,1021.4,0,1007.1,60,0,46.2,60,0
86282,2012-11-13 00:00:00,6330,60,0,0.0,0.0,0.0,60,0,0.0,0.0,0.0,60,0,0.0,0.0,0.0,60,0,0.0,0.0,337.4,60,0,342.9,323.3,0,0,0,28.1,60,0,10.2,60,0,10.4,10.1,7.4,60,0,7.6,7.1,3.9,60,0,4.6,3.0,64.6,60,0,69.0,60.0,28.1,60,0,39.0,18.0,239,0.0,1021.4,60,0,1021.4,0,1007.1,60,0,46.2,60,0
86282,2012-11-13 12:00:00,6340,60,0,0.0,0.0,0.0,60,0,0.0,0.0,0.0,60,0,0.0,0.0,0.0,60,0,0.0,0.0,337.4,60,0,342.9,323.3,0,0,0,28.1,60,0,10.2,60,0,10.4,10.1,7.4,60,0,7.6,7.1,3.9,60,0,4.6,3.0,64.6,60,0,69.0,60.0,28.1,60,0,39.0,18.0,239,0.0,1021.4,60,0,1021.4,0,1007.1,60,0,46.2,60,0
86282,2012-11-14 00:00:00,6350,60,0,0.0,0.0,0.0,60,0,0.0,0.0,0.0,60,0,0.0,0.0,0.0,60,0,0.0,0.0,337.4,60,0,342.9,323.3,0,0,0,28.1,60,0,10.2,60,0,10.4,10.1,7.4,60,0,7.6,7.1,3.9,60,0,4.6,3.0,64.6,60,0,69.0,60.0,28.1,60,0,39.0,18.0,239,0.0,1021.4,60,0,1021.4,0,1007.1,60,0,46.2,60,0
86282,2012-11-14 12:00:00,6360,60,0,0.0,0.0,0.0,60,0,0.0,0.0,0.0,60,0,0.0,0.0,0.0,60,0,0.0,0.0,337.4,60,0,342.9,323.3,0,0,0,28.1,60,0,10.2,60,0,10.4,10.1,7.4,60,0,7.6,7.1,3.9,60,0,4.6,3.0,64.6,60,0,69.0,60.0,28.1,60,0,39.0,18.0,239,0.0,1021.4,60,0,1021.4,0,1007.1,60,0,46.2,60,0
86282,2012-11-15 00:00:00,6370,60,0,0.0,0.0,0.0,60,0,0.0,0.0,0.0,60,0,0.0,0.0,0.0,60,0,0.0,0.0,337.4,60,0,342.9,323.3,0,0,0,28.1,60,0,10.2,60,0,10.4,10.1,7.4,60,0,7.6,7.1,3.9,60,0,4.6,3.0,64.6,60,0,69.0,60.0,28.1,60,0,39.0,18.0,239,0.0,1021.4,60,0,1021.4,0,1007.1,60,0,46.2,60,0
86282,2012-11-15 12:00:00,6380,60,0,0.0,0.0,0.0,60,0,0.0,0.0,0.0,60,0,0.0,0.0,0.0,60,0,0.0,0.0,337.4,60,0,342.9,323.3,0,0,0,28.1,60,0,10.2,60,0,10.4,10.1,7.4,60,0,7.6,7.1,3.9,60,0,4.6,3.0,64.6,60,0,69.0,60.0,28.1,60,0,39.0,18.0,239,0.0,1021.4,60,0,1021.4,0,1007.1,60,0,46.2,60,0
86282,2012-11-16 00:00:00,6390,60,0,0.0,0.0,0.0,60,0,0.0,0.0,0.0,60,0,0.0,0.0,0.0,60,0,0.0,0.0,337.4,60,0,342.9,323.3,0,0,0,28.1,60,0,10.2,60,0,10.4,10.1,7.4,60,0,7.6,7.1,3.9,60,0,4.6,3.0,64.6,60,0,69.0,60.0,28.1,60,0,39.0,18.0,239,0.0,1021.4,60,0,1021.4,0,1007.1,60,0,46.2,60,0
86282,2012-11-16 12:00:00,6400,60,0,0.0,0.0,0.0,60,0,0.0,0.0,0.0,60,0,0.0,0.0,0.0,60,0,0.0,0.0,337.4,60,0,342.9,323.3,0,0,0,28.1,60,0,10.2,60,0,10.4,10.1,7.4,60,0,7.6,7.1,3.9,60,0,4.6,3.0,64.6,60,0,69.0,60.0,28.1,60,0,39.0,18.0,239,0.0,1021.4,60,0,1021.4,0,1007.1,60,0,46.2,60,0
86282,2012-11-17 00:00:00,6410,60,0,0.0,0.0,0.0,60,0,0.0,0.0,0.0,60,0,0.0,0.0,0.0,60,0,0.0,0.0,337.4,60,0,342.9,323.3,0,0,0,28.1,60,0,10.2,60,0,10.4,10.1,7.4,60,0,7.6,7.1,3.9,60,0,4.6,3.0,64.6,60,0,69.0,60.0,28.1,60,0,39.0,18.0,239,0.0,1021.4,60,0,1021.4,0,1007.1,60,0,46.2,60,0
86282,2012-11-17 12:00:00,6420,60,0,0.0,0.0,0.0,60,0,0.0,0.0,0.0,60,0,0.0,0.0,0.0,60,0,0.0,0.0,337.4,60,0,342.9,323.3,0,0,0,28.1,60,0,10.2,60,0,10.4,10.1,7.4,60,0,7.6,7.1,3.9,60,0,4.6,3.0,64.6,60,0,69.0,60.0,28.1,60,0,39.0,18.0,239,0.0,1021.4,60,0,1021.4,0,1007.1,60,0,46.2,60,0
86282,2012-11-18 00:00:00,6430,60,0,0.0,0.0,0.0,60,0,0.0,0.0,0.0,60,0,0.0,0.0,0.0,60,0,0.0,0.0,337.4,60,0,342.9,323.3,0,0,0,28.1,60,0,10.2,60,0,10.4,10.1,7.4,60,0,7.6,7.1,3.9,60,0,4.6,3.0,64.6,60,0,69.0,60.0,28.1,60,0,39.0,18.0,239,0.0,1021.4,60,0,1021.4,0,1007.1,60,0,46.2,60,0
86282,2012-11-18 12:00:00,6440,60,0,0.0,0.0,0.0,60,0,0.0,0.0,0.0,60,0,0.0,0.0,0.0,60,0,0.0,0.0,337.4,60,0,342.9,323.3,0,0,0,28.1,60,0,10.2,60,0,10.4,10.1,7.4,60,0,7.6,7.1,3.9,60,0,4.6,3.0,64.6,60,0,69.0,60.0,28.1,60,0,39.0,18.0,239,0.0,1021.4,60,0,1021.4,0,1007.1,60,0,46.2,60,0
86282,2012-11-19 00:00:00,6450,60,0,0.0,0.0,0.0,60,0,0.0,0.0,0.0,60,0,0.0,0.0,0.0,60,0,0.0,0.0,337.4,60,0,342.9,323.3,0,0,0,28.1,60,0,10.2,60,0,10.4,10.1,7.4,60,0,7.6,7.1,3.9,60,0,4.6,3.0,64.6,60,0,69.0,60.0,28.1,60,0,39.0,18.0,239,0.0,1021.4,60,0,1021.4,0,1007.1,60,0,46.2,60,0
86282,2012-11-19 12:00:00,6460,60,0,0.0,0.0,0.0,60,0,0.0,0.0,0.0,60,0,0.0,0.0,0.0,60,0,0.0,0.0,337.4,60,0,342.9,323.3,0,0,0,28.1,60,0,10.2,60,0,10.4,10.1,7.4,60,0,7.6,7.1,3.9,60,0,4.6,3.0,64.6,60,0,69.0,60.0,28.1,60,0,39.0,18.0,239,0.0,1021.4,60,0,1021.4,0,1007.1,60,0,46.2,60,0
86282,2012-11-20 00:00:00,6470,60,0,0.0,0.0,0.0,60,0,0.0,0.0,0.0,60,0,0.0,0.0,0.0,60,0,0.0,0.0,337.4,60,0,342.9,323.3,0,0,0,28.1,60,0,10.2,60,0,10.4,10.1,7.4,60,0,7.6,7.1,3.9,60,0,4.6,3.0,64.6,60,0,69.0,60.0,28.1,60,0,39.0,18.0,239,0.0,1021.4,60,0,1021.4,0,1007.1,60,0,46.2,60,0
86282,2012-11-20 12:00:00,6480,60,0,0.0,0.0,0.0,60,0,0.0,0.0,0.0,60,0,0.0,0.0,0.0,60,0,0.0,0.0,337.4,60,0,342.9,323.3,0,0,0,28.1,60,0,10.2,60,0,10.4,10.1,7.4,60,0,7.6,7.1,3.9,60,0,4.6,3.0,64.6,60,0,69.0,60.0,28.1,60,0,39.0,18.0,239,0.0,1021.4,60,0,1021.4,0,1007.1,60,0,46.2,60,0
86282,2012-11-21 00:00:00,6490,60,0,0.0,0.0,0.0,60,0,0.0,0.0,0.0,60,0,0.0,0.0,0.0,60,0,0.0,0.0,337.4,60,0,342.9,323.3,0,0,0,28.1,60,0,10.2,60,0,10.4,10.1,7.4,60,0,7.6,7.1,3.9,60,0,4.6,3.0,64.6,60,0,69.0,60.0,28.1,60,0,39.0,18.0,239,0.0,1021.4,60,0,1021.4,0,1007.1,60,0,46.2,60,0
86282,2012-11-21 12:00:00,6500,60,0,0.0,0.0,0.0,60,0,0.0,0.0,0.0,60,0,0.0,0.0,0.0,60,0,0.0,0.0,337.4,60,0,342.9,323.3,0,0,0,28.1,60,0,10.2,60,0,10.4,10.1,7.4,60,0,7.6,7.1,3.9,60,0,4.6,3.0,64.6,60,0,69.0,60.0,28.1,60,0,39.0,18.0,239,0.0,1021.4,60,0,1021.4,0,1007.1,60,0,46.2,60,0
86282,2012-11-22 00:00:00,6510,60,0,0.0,0.0,0.0,60,0,0.0,0.0,0.0,60,0,0.0,0.0,0.0,60,0,0.0,0.0,337.4,60,0,342.9,323.3,0,0,0,28.1,60,0,10.2,60,0,10.4,10.1,7.4,60,0,7.6,7.1,3.9,60,0,4.6,3.0,64.6,60,0,69.0,60.0,28.1,60,0,39.0,18.0,239,0.0,1021.4,60,0,1021.4,0,1007.1,60,0,46.2,60,0
86282,2012-11-22 12:00:00,6520,60,0,0.0,0.0,0.0,60,0,0.0,0.0,0.0,60,0,0.0,0.0,0.0,60,0,0.0,0.0,337.4,60,0,342.9,323.3,0,0,0,28.1,60,0,10.2,60,0,10.4,10.1,7.4,60,0,7.6,7.1,3.9,60,0,4.6,3.0,64.6,60,0,69.0,60.0,28.1,60,0,39.0,18.0,239,0.0,1021.4,60,0,1021.4,0,1007.1,60,0,46.2,60,0
86282,2012-11-23 00:00:00,6530,60,0,0.0,0.0,0.0,60,0,0.0,0.0,0.0,60,0,0.0,0.0,0.0,60,0,0.0,0.0,337.4,60,0,342.9,323.3,0,0,0,28.1,60,0,10.2,60,0,10.4,10.1,7.4,60,0,7.6,7.1,3.9,60,0,4.6,3.0,64.6,60,0,69.0,60.0,28.1,60,0,39.0,18.0,239,0.0,1021.4,60,0,1021.4,0,1007.1,60,0,46.2,60,0
86282,2012-11-23 12:00:00,6540,60,0,0.0,0.0,0.0,60,0,0.0,0.0,0.0,60,0,0.0,0.0,0.0,60,0,0.0,0.0,337.4,60,0,342.9,323.3,0,0,0,28.1,60,0,10.2,60,0,10.4,10.1,7.4,60,0,7.6,7.1,3.9,60,0,4.6,3.0,64.6,60,0,69.0,60.0,28.1,60,0,39.0,18.0,239,0.0,1021.4,60,0,1021.4,0,1007.1,60,0,46.2,60,0
86282,2012-11-24 00:00:00,6550,60,0,0.0,0.0,0.0,60,0,0.0,0.0,0.0,60,0,0.0,0.0,0.0,60,0,0.0,0.0,337.4,60,0,342.9,323.3,0,0,0,28.1,60,0,10.2,60,0,10.4,10.1,7.4,60,0,7.6,7.1,3.9,60,0,4.6,3.0,64.6,60,0,69.0,60.0,28.1,60,0,39.0,18.0,239,0.0,1021.4,60,0,1021.4,0,1007.1,60,0,46.2,60,0
86282,2012-11-24 12:00:00,6560,60,0,0.0,0.0,0.0,60,0,0.0,0.0,0.0,60,0,0.0,0.0,0.0,60,0,0.0,0.0,337.4,60,0,342.9,323.3,0,0,0,28.1,60,0,10.2,60,0,10.4,10.1,7.4,60,0,7.6,7.1,3.9,60,0,4.6,3.0,64.6,60,0,69.0,60.0,28.1,60,0,39.0,18.0,239,0.0,1021.4,60,0,1021.4,0,1007.1,60,0,46.2,60,0
86282,2012-11-25 00:00:00,6570,60,0,0.0,0.0,0.0,60,0,0.0,0.0,0.0,60,0,0.0,0.0,0.0,60,0,0.0,0.0,337.4,60,0,342.9,323.3,0,0,0,28.1,60,0,10.2,60,0,10.4,10.1,7.4,60,0,7.6,7.1,3.9,60,0,4.6,3.0,64.6,60,0,69.0,60.0,28.1,60,0,39.0,18.0,239,0.0,1021.4,60,0,1021.4,0,1007.1,60,0,46.2,60,0
86282,2012-11-25 12:00:00,6580,60,0,0.0,0.0,0.0,60,0,0.0,0.0,0.0,60,0,0.0,0.0,0.0,60,0,0.0,0.0,337.4,60,0,342.9,323.3,0,0,0,28.1,60,0,10.2,60,0,10.4,10.1,7.4,60,0,7.6,7.1,3.9,60,0,4.6,3.0,64.6,60,0,69.0,60.0,28.1,60,0,39.0,18.0,239,0.0,1021.4,60,0,1021.4,0,1007.1,60,0,46.2,60,0
86282,2012-11-26 00:00:00,6590,60,0,0.0,0.0,0.0,60,0,0.0,0.0,0.0,60,0,0.0,0.0,0.0,60,0,0.0,0.0,337.4,60,0,342.9,323.3,0,0,0,28.1,60,0,10.2,60,0,10.4,10.1,7.4,60,0,7.6,7.1,3.9,60,0,4.6,3.0,64.6,60,0,69.0,60.0,28.1,60,0,39.0,18.0,239,0.0,1021.4,60,0,1021.4,0,1007.1,60,0,46.2,60,0
86282,2012-11-26 12:00:00,6600,60,0,0.0,0.0,0.0,60,0,0.0,0.0,0.0,60,0,0.0,0.0,0.0,60,0,0.0,0.0,337.4,60,0,342.9,323.3,0,0,0,28.1,60,0,10.2,60,0,10.4,10.1,7.4,60,0,7.6,7.1,3.9,60,0,4.6,3.0,64.6,60,0,69.0,60.0,28.1,60,0,39.0,18.0,239,0.0,1021.4,60,0,1021.4,0,1007.1,60,0,46.2,60,0
86282,2012-11-27 00:00:00,6610,60,0,0.0,0.0,0.0,60,0,0.0,0.0,0.0,60,0,0.0,0.0,0.0,60,0,0.0,0.0,337.4,60,0,342.9,323.3,0,0,0,28.1,60,0,10.2,60,0,10.4,10.1,7.4,60,0,7.6,7.1,3.9,60,0,4.6,3.0,64.6,60,0,69.0,60.0,28.1,60,0,39.0,18.0,239,0.0,1021.4,60,0,1021.4,0,1007.1,60,0,46.2,60,0
86282,2012-11-27 12:00:00,6620,60,0,0.0,0.0,0.0,60,0,0.0,0.0,0.0,60,0,0.0,0.0,0.0,60,0,0.0,0.0,337.4,60,0,342.9,323.3,0,0,0,28.1,60,0,10.2,60,0,10.4,10.1,7.4,60,0,7.6,7.1,3.9,60,0,4.6,3.0,64.6,60,0,69.0,60.0,28.1,60,0,39.0,18.0,239,0.0,1021.4,60,0,1021.4,0,1007.1,60,0,46.2,60,0
86282,2012-11-28 00:00:00,6630,60,0,0.0,0.0,0.0,60,0,0.0,0.0,0.0,60,0,0.0,0.0,0.0,60,0,0.0,0.0,337.4,60,0,342.9,323.3,0,0,0,28.1,60,0,10.2,60,0,10.4,10.1,7.4,60,0,7.6,7.1,3.9,60,0,4.6,3.0,64.6,60,0,69.0,60.0,28.1,60,0,39.0,18.0,239,0.0,1021.4,60,0,1021.4,0,1007.1,60,0,46.2,60,0
86282,2012-11-28 12:00:00,6640,60,0,0.0,0.0,0.0,60,0,0.0,0.0,0.0,60,0,0.0,0.0,0.0,60,0,0.0,0.0,337.4,60,0,342.9,323.3,0,0,0,28.1,60,0,10.2,60,0,10.4,10.1,7.4,60,0,7.6,7.1,3.9,60,0,4.6,3.0,64.6,60,0,69.0,60.0,28.1,60,0,39.0,18.0,239,0.0,1021.4,60,0,1021.4,0,1007.1,60,0,46.2,60,0
86282,2012-11-29 00:00:00,6650,60,0,0.0,0.0,0.0,60,0,0.0,0.0,0.0,60,0,0.0,0.0,0.0,60,0,0.0,0.0,337.4,60,0,342.9,323.3,0,0,0,28.1,60,0,10.2,60,0,10.4,10.1,7.4,60,0,7.6,7.1,3.9,60,0,4.6,3.0,64.6,60,0,69.0,60.0,28.1,60,0,39.0,18.0,239,0.0,1021.4,60,0,1021.4,0,1007.1,60,0,46.2,60,0
86282,2012-11-29 12:00:00,6660,60,0,0.0,0.0,0.0,60,0,0.0,0.0,0.0,60,0,0.0,0.0,0.0,60,0,0.0,0.0,337.4,60,0,342.9,323.3,0,0,0,28.1,60,0,10.2,60,0,10.4,10.1,7.4,60,0,7.6,7.1,3.9,60,0,4.6,3.0,64.6,60,0,69.0,60.0,28.1,60,0,39.0,18.0,239,0.0,1021.4,60,0,1021.4,0,1007.1,60,0,46.2,60,0
86282,2012-11-30 00:00:00,6670,60,0,0.0,0.0,0.0,60,0,0.0,0.0,0.0,60,0,0.0,0.0,0.0,60,0,0.0,0.0,337.4,60,0,342.9,323.3,0,0,0,28.1,60,0,10.2,60,0,10.4,10.1,7.4,60,0,7.6,7.1,3.9,60,0,4.6,3.0,64.6,60,0,69.0,60.0,28.1,60,0,39.0,18.0,239,0.0,1021.4,60,0,1021.4,0,1007.1,60,0,46.2,60,0
86282,2012-11-30 12:00:00,6680,60,0,0.0,0.0,0.0,60,0,0.0,0.0,0.0,60,0,0.0,0.0,0.0,60,0,0.0,0.0,337.4,60,0,342.9,323.3,0,0,0,28.1,60,0,10.2,60,0,10.4,10.1,7.4,60,0,7.6,7.1,3.9,60,0,4.6,3.0,64.6,60,0,69.0,60.0,28.1,60,0,39.0,18.0,239,0.0,1021.4,60,0,1021.4,0,1007.1,60,0,46.2,60,0
86282,2012-12-01 00:00:00,6690,60,0,0.0,0.0,0.0,60,0,0.0,0.0,0.0,60,0,0.0,0.0,0.0,60,0,0.0,0.0,337.4,60,0,342.9,323.3,0,0,0,28.1,60,0,10.2,60,0,10.4,10.1,7.4,60,0,7.6,7.1,3.9,60,0,4.6,3.0,64.6,60,0,69.0,60.0,28.1,60,0,39.0,18.0,239,0.0,1021.4,60,0,1021.4,0,1007.1,60,0,46.2,60,0
86282,2012-12-01 12:00:00,6700,60,0,0.0,0.0,0.0,60,0,0.0,0.0,0.0,60,0,0.0,0.0,0.0,60,0,0.0,0.0,337.4,60,0,342.9,323.3,0,0,0,28.1,60,0,10.2,60,0,10.4,10.1,7.4,60,0,7.6,7.1,3.9,60,0,4.6,3.0,64.6,60,0,69.0,60.0,28.1,60,0,39.0,18.0,239,0.0,1021.4,60,0,1021.4,0,1007.1,60,0,46.2,60,0
86282,2012-12-02 00:00:00,6710,60,0,0.0,0.0,0.0,60,0,0.0,0.0,0.0,60,0,0.0,0.0,0.0,60,0,0.0,0.0,337.4,60,0,342.9,323.3,0,0,0,28.1,60,0,10.2,60,0,10.4,10.1,7.4,60,0,7.6,7.1,3.9,60,0,4.6,3.0,64.6,60,0,69.0,60.0,28.1,60,0,39.0,18.0,239,0.0,1021.4,60,0,1021.4,0,1007.1,60,0,46.2,60,0
86282,2012-12-02 12:00:00,6720,60,0,0.0,0.0,0.0,60,0,0.0,0.0,0.0,60,0,0.0,0.0,0.0,60,0,0.0,0.0,337.4,60,0,342.9,323.3,0,0,0,28.1,60,0,10.2,60,0,10.4,10.1,7.4,60,0,7.6,7.1,3.9,60,0,4.6,3.0,64.6,60,0,69.0,60.0,28.1,60,0,39.0,18.0,239,0.0,1021.4,60,0,1021.4,0,1007.1,60,0,46.2,60,0
86282,2012-12-03 00:00:00,6730,60,0,0.0,0.0,0.0,60,0,0.0,0.0,0.0,60,0,0.0,0.0,0.0,60,0,0.0,0.0,337.4,60,0,342.9,323.3,0,0,0,28.1,60,0,10.2,60,0,10.4,10.1,7.4,60,0,7.6,7.1,3.9,60,0,4.6,3.0,64.6,60,0,69.0,60.0,28.1,60,0,39.0,18.0,239,0.0,1021.4,60,0,1021.4,0,1007.1,60,0,46.2,60,0
86282,2012-12-03 12:00:00,6740,60,0,0.0,0.0,0.0,60,0,0.0,0.0,0.0,60,0,0.0,0.0,0.0,60,0,0.0,0.0,337.4,60,0,342.9,323.3,0,0,0,28.1,60,0,10.2,60,0,10.4,10.1,7.4,60,0,7.6,7.1,3.9,60,0,4.6,3.0,64.6,60,0,69.0,60.0,28.1,60,0,39.0,18.0,239,0.0,1021.4,60,0,1021.4,0,1007.1,60,0,46.2,60,0
86282,2012-12-04 00:00:00,6750,60,0,0.0,0.0,0.0,60,0,0.0,0.0,0.0,60,0,0.0,0.0,0.0,60,0,0.0,0.0,337.4,60,0,342.9,323.3,0,0,0,28.1,60,0,10.2,60,0,10.4,10.1,7.4,60,0,7.6,7.1,3.9,60,0,4.6,3.0,64.6,60,0,69.0,60.0,28.1,60,0,39.0,18.0,239,0.0,1021.4,60,0,1021.4,0,1007.1,60,0,46.2,60,0
86282,2012-12-04 12:00:00,6760,60,0,0.0,0.0,0.0,60,0,0.0,0.0,0.0,60,0,0.0,0.0,0.0,60,0,0.0,0.0,337.4,60,0,342.9,323.3,0,0,0,28.1,60,0,10.2,60,0,10.4,10.1,7.4,60,0,7.6,7.1,3.9,60,0,4.6,3.0,64.6,60,0,69.0,60.0,28.1,60,0,39.0,18.0,239,0.0,1021.4,60,0,1021.4,0,1007.1,60,0,46.2,60,0
86282,2012-12-05 00:00:00,6770,60,0,0.0,0.0,0.0,60,0,0.0,0.0,0.0,60,0,0.0,0.0,0.0,60,0,0.0,0.0,337.4,60,0,342.9,323.3,0,0,0,28.1,60,0,10.2,60,0,10.4,10.1,7.4,60,0,7.6,7.1,3.9,60,0,4.6,3.0,64.6,60,0,69.0,60.0,28.1,60,0,39.0,18.0,239,0.0,1021.4,60,0,1021.4,0,1007.1,60,0,46.2,60,0
86282,2012-12-05 12:00:00,6780,60,0,0.0,0.0,0.0,60,0,0.0,0.0,0.0,60,0,0.0,0.0,0.0,60,0,0.0,0.0,337.4,60,0,342.9,323.3,0,0,0,28.1,60,0,10.2,60,0,10.4,10.1,7.4,60,0,7.6,7.1,3.9,60,0,4.6,3.0,64.6,60,0,69.0,60.0,28.1,60,0,39.0,18.0,239,0.0,1021.4,60,0,1021.4,0,1007.1,60,0,46.2,60,0
86282,2012-12-06 00:00:00,6790,60,0,0.0,0.0,0.0,60,0,0.0,0.0,0.0,60,0,0.0,0.0,0.0,60,0,0.0,0.0,337.4,60,0,342.9,323.3,0,0,0,28.1,60,0,10.2,60,0,10.4,10.1,7.4,60,0,7.6,7.1,3.9,60,0,4.6,3.0,64.6,60,0,69.0,60.0,28.1,60,0,39.0,18.0,239,0.0,1021.4,60,0,1021.4,0,1007.1,60,0,46.2,60,0
86282,2012-12-06 12:00:00,6800,60,0,0.0,0.0,0.0,60,0,0.0,0.0,0.0,60,0,0.0,0.0,0.0,60,0,0.0,0.0,337.4,60,0,342.9,323.3,0,0,0,28.1,60,0,10.2,60,0,10.4,10.1,7.4,60,0,7.6,7.1,3.9,60,0,4.6,3.0,64.6,60,0,69.0,60.0,28.1,60,0,39.0,18.0,239,0.0,1021.4,60,0,1021.4,0,1007.1,60,0,46.2,60,0
86282,2012-12-07 00:00:00,6810,60,0,0.0,0.0,0.0,60,0,0.0,0.0,0.0,60,0,0.0,0.0,0.0,60,0,0.0,0.0,337.4,60,0,342.9,323.3,0,0,0,28.1,60,0,10.2,60,0,10.4,10.1,7.4,60,0,7.6,7.1,3.9,60,0,4.6,3.0,64.6,60,0,69.0,60.0,28.1,60,0,39.0,18.0,239,0.0,1021.4,60,0,1021.4,0,1007.1,60,0,46.2,60,0
86282,2012-12-07 12:00:00,6820,60,0,0.0,0.0,0.0,60,0,0.0,0.0,0.0,60,0,0.0,0.0,0.0,60,0,0.0,0.0,337.4,60,0,342.9,323.3,0,0,0,28.1,60,0,10.2,60,0,10.4,10.1,7.4,60,0,7.6,7.1,3.9,60,0,4.6,3.0,64.6,60,0,69.0,60.0,28.1,60,0,39.0,18.0,239,0.0,1021.4,60,0,1021.4,0,1007.1,60,0,46.2,60,0
86282,2012-12-08 00:00:00,6830,60,0,0.0,0.0,0.0,60,0,0.0,0.0,0.0,60,0,0.0,0.0,0.0,60,0,0.0,0.0,337.4,60,0,342.9,323.3,0,0,0,28.1,60,0,10.2,60,0,10.4,10.1,7.4,60,0,7.6,7.1,3.9,60,0,4.6,3.0,64.6,60,0,69.0,60.0,28.1,60,0,39.0,18.0,239,0.0,1021.4,60,0,1021.4,0,1007.1,60,0,46.2,60,0
86282,2012-12-08 12:00:00,6840,60,0,0.0,0.0,0.0,60,0,0.0,0.0,0.0,60,0,0.0,0.0,0.0,60,0,0.0,0.0,337.4,60,0,342.9,323.3,0,0,0,28.1,60,0,10.2,60,0,10.4,10.1,7.4,60,0,7.6,7.1,3.9,60,0,4.6,3.0,64.6,60,0,69.0,60.0,28.1,60,0,39.0,18.0,239,0.0,1021.4,60,0,1021.4,0,1007.1,60,0,46.2,60,0
86282,2012-12-09 00:00:00,6850,60,0,0.0,0.0,0.0,60,0,0.0,0.0,0.0,60,0,0.0,0.0,0.0,60,0,0.0,0.0,337.4,60,0,342.9,323.3,0,0,0,28.1,60,0,10.2,60,0,10.4,10.1,7.4,60,0,7.6,7.1,3.9,60,0,4.6,3.0,64.6,60,0,69.0,60.0,28.1,60,0,39.0,18.0,239,0.0,1021.4,60,0,1021.4,0,1007.1,60,0,46.2,60,0
86282,2012-12-09 12:00:00,6860,60,0,0.0,0.0,0.0,60,0,0.0,0.0,0.0,60,0,0.0,0.0,0.0,60,0,0.0,0.0,337.4,60,0,342.9,323.3,0,0,0,28.1,60,0,10.2,60,0,10.4,10.1,7.4,60,0,7.6,7.1,3.9,60,0,4.6,3.0,64.6,60,0,69.0,60.0,28.1,60,0,39.0,18.0,239,0.0,1021.4,60,0,1021.4,0,1007.1,60,0,46.2,60,0
86282,2012-12-10 00:00:00,6870,60,0,0.0,0.0,0.0,60,0,0.0,0.0,0.0,60,0,0.0,0.0,0.0,60,0,0.0,0.0,337.4,60,0,342.9,323.3,0,0,0,28.1,60,0,10.2,60,0,10.4,10.1,7.4,60,0,7.6,7.1,3.9,60,0,4.6,3.0,64.6,60,0,69.0,60.0,28.1,60,0,39.0,18.0,239,0.0,1021.4,60,0,1021.4,0,1007.1,60,0,46.2,60,0
86282,2012-12-10 12:00:00,6880,60,0,0.0,0.0,0.0,60,0,0.0,0.0,0.0,60,0,0.0,0.0,0.0,60,0,0.0,0.0,337.4,60,0,342.9,323.3,0,0,0,28.1,60,0,10.2,60,0,10.4,10.1,7.4,60,0,7.6,7.1,3.9,60,0,4.6,3.0,64.6,60,0,69.0,60.0,28.1,60,0,39.0,18.0,239,0.0,1021.4,60,0,1021.4,0,1007.1,60,0,46.2,60,0
86282,2012-12-11 00:00:00,6890,60,0,0.0,0.0,0.0,60,0,0.0,0.0,0.0,60,0,0.0,0.0,0.0,60,0,0.0,0.0,337.4,60,0,342.9,323.3,0,0,0,28.1,60,0,10.2,60,0,10.4,10.1,7.4,60,0,7.6,7.1,3.9,60,0,4.6,3.0,64.6,60,0,69.0,60.0,28.1,60,0,39.0,18.0,239,0.0,1021.4,60,0,1021.4,0,1007.1,60,0,46.2,60,0
86282,2012-12-11 12:00:00,6900,60,0,0.0,0.0,0.0,60,0,0.0,0.0,0.0,60,0,0.0,0.0,0.0,60,0,0.0,0.0,337.4,60,0,342.9,323.3,0,0,0,28.1,60,0,10.2,60,0,10.4,10.1,7.4,60,0,7.6,7.1,3.9,60,0,4.6,3.0,64.6,60,0,69.0,60.0,28.1,60,0,39.0,18.0,239,0.0,1021.4,60,0,1021.4,0,1007.1,60,0,46.2,60,0
86282,2012-12-12 00:00:00,6910,60,0,0.0,0.0,0.0,60,0,0.0,0.0,0.0,60,0,0.0,0.0,0.0,60,0,0.0,0.0,337.4,60,0,342.9,323.3,0,0,0,28.1,60,0,10.2,60,0,10.4,10.1,7.4,60,0,7.6,7.1,3.9,60,0,4.6,3.0,64.6,60,0,69.0,60.0,28.1,60,0,39.0,18.0,239,0.0,1021.4,60,0,1021.4,0,1007.1,60,0,46.2,60,0
86282,2012-12-12 12:00:00,6920,60,0,0.0,0.0,0.0,60,0,0.0,0.0,0.0,60,0,0.0,0.0,0.0,60,0,0.0,0.0,337.4,60,0,342.9,323.3,0,0,0,28.1,60,0,10.2,60,0,10.4,10.1,7.4,60,0,7.6,7.1,3.9,60,0,4.6,3.0,64.6,60,0,69.0,60.0,28.1,60,0,39.0,18.0,239,0.0,1021.4,60,0,1021.4,0,1007.1,60,0,46.2,60,0
86282,2012-12-13 00:00:00,6930,60,0,0.0,0.0,0.0,60,0,0.0,0.0,0.0,60,0,0.0,0.0,0.0,60,0,0.0,0.0,337.4,60,0,342.9,323.3,0,0,0,28.1,60,0,10.2,60,0,10.4,10.1,7.4,60,0,7.6,7.1,3.9,60,0,4.6,3.0,64.6,60,0,69.0,60.0,28.1,60,0,39.0,18.0,239,0.0,1021.4,60,0,1021.4,0,1007.1,60,0,46.2,60,0
86282,2012-12-13 12:00:00,6940,60,0,0.0,0.0,0.0,60,0,0.0,0.0,0.0,60,0,0.0,0.0,0.0,60,0,0.0,0.0,337.4,60,0,342.9,323.3,0,0,0,28.1,60,0,10.2,60,0,10.4,10.1,7.4,60,0,7.6,7.1,3.9,60,0,4.6,3.0,64.6,60,0,69.0,60.0,28.1,60,0,39.0,18.0,239,0.0,1021.4,60,0,1021.4,0,1007.1,60,0,46.2,60,0
86282,2012-12-14 00:00:00,6950,60,0,0.0,0.0,0.0,60,0,0.0,0.0,0.0,60,0,0.0,0.0,0.0,60,0,0.0,0.0,337.4,60,0,342.9,323.3,0,0,0,28.1,60,0,10.2,60,0,10.4,10.1,7.4,60,0,7.6,7.1,3.9,60,0,4.6,3.0,64.6,60,0,69.0,60.0,28.1,60,0,39.0,18.0,239,0.0,1021.4,60,0,1021.4,0,1007.1,60,0,46.2,60,0
86282,2012-12-14 12:00:00,6960,60,0,0.0,0.0,0.0,60,0,0.0,0.0,0.0,60,0,0.0,0.0,0.0,60,0,0.0,0.0,337.4,60,0,342.9,323.3,0,0,0,28.1,60,0,10.2,60,0,10.4,10.1,7.4,60,0,7.6,7.1,3.9,60,0,4.6,3.0,64.6,60,0,69.0,60.0,28.1,60,0,39.0,18.0,239,0.0,1021.4,60,0,1021.4,0,1007.1,60,0,46.2,60,0
86282,2012-12-15 00:00:00,6970,60,0,0.0,0.0,0.0,60,0,0.0,0.0,0.0,60,0,0.0,0.0,0.0,60,0,0.0,0.0,337.4,60,0,342.9,323.3,0,0,0,28.1,60,0,10.2,60,0,10.4,10.1,7.4,60,0,7.6,7.1,3.9,60,0,4.6,3.0,64.6,60,0,69.0,60.0,28.1,60,0,39.0,18.0,239,0.0,1021.4,60,0,1021.4,0,1007.1,60,0,46.2,60,0
86282,2012-12-15 12:00:00,6980,60,0,0.0,0.0,0.0,60,0,0.0,0.0,0.0,60,0,0.0,0.0,0.0,60,0,0.0,0.0,337.4,60,0,342.9,323.3,0,0,0,28.1,60,0,10.2,60,0,10.4,10.1,7.4,60,0,7.6,7.1,3.9,60,0,4.6,3.0,64.6,60,0,69.0,60.0,28.1,60,0,39.0,18.0,239,0.0,1021.4,60,0,1021.4,0,1007.1,60,0,46.2,60,0
86282,2012-12-16 00:00:00,6990,60,0,0.0,0.0,0.0,60,0,0.0,0.0,0.0,60,0,0.0,0.0,0.0,60,0,0.0,0.0,337.4,60,0,342.9,323.3,0,0,0,28.1,60,0,10.2,60,0,10.4,10.1,7.4,60,0,7.6,7.1,3.9,60,0,4.6,3.0,64.6,60,0,69.0,60.0,28.1,60,0,39.0,18.0,239,0.0,1021.4,60,0,1021.4,0,1007.1,60,0,46.2,60,0
86282,2012-12-16 12:00:00,7000,60,0,0.0,0.0,0.0,60,0,0.0,0.0,0.0,60,0,0.0,0.0,0.0,60,0,0.0,0.0,337.4,60,0,342.9,323.3,0,0,0,28.1,60,0,10.2,60,0,10.4,10.1,7.4,60,0,7.6,7.1,3.9,60,0,4.6,3.0,64.6,60,0,69.0,60.0,28.1,60,0,39.0,18.0,239,0.0,1021.4,60,0,1021.4,0,1007.1,60,0,46.2,60,0
86282,2012-12-17 00:00:00,7010,60,0,0.0,0.0,0.0,60,0,0.0,0.0,0.0,60,0,0.0,0.0,0.0,60,0,0.0,0.0,337.4,60,0,342.9,323.3,0,0,0,28.1,60,0,10.2,60,0,10.4,10.1,7.4,60,0,7.6,7.1,3.9,60,0,4.6,3.0,64.6,60,0,69.0,60.0,28.1,60,0,39.0,18.0,239,0.0,1021.4,60,0,1021.4,0,1007.1,60,0,46.2,60,0
86282,2012-12-17 12:00:00,7020,60,0,0.0,0.0,0.0,60,0,0.0,0.0,0.0,60,0,0.0,0.0,0.0,60,0,0.0,0.0,337.4,60,0,342.9,323.3,0,0,0,28.1,60,0,10.2,60,0,10.4,10.1,7.4,60,0,7.6,7.1,3.9,60,0,4.6,3.0,64.6,60,0,69.0,60.0,28.1,60,0,39.0,18.0,239,0.0,1021.4,60,0,1021.4,0,1007.1,60,0,46.2,60,0
86282,2012-12-18 00:00:00,7030,60,0,0.0,0.0,0.0,60,0,0.0,0.0,0.0,60,0,0.0,0.0,0.0,60,0,0.0,0.0,337.4,60,0,342.9,323.3,0,0,0,28.1,60,0,10.2,60,0,10.4,10.1,7.4,60,0,7.6,7.1,3.9,60,0,4.6,3.0,64.6,60,0,69.0,60.0,28.1,60,0,39.0,18.0,239,0.0,1021.4,60,0,1021.4,0,1007.1,60,0,46.2,60,0
86282,2012-12-18 12:00:00,7040,60,0,0.0,0.0,0.0,60,0,0.0,0.0,0.0,60,0,0.0,0.0,0.0,60,0,0.0,0.0,337.4,60,0,342.9,323.3,0,0,0,28.1,60,0,10.2,60,0,10.4,10.1,7.4,60,0,7.6,7.1,3.9,60,0,4.6,3.0,64.6,60,0,69.0,60.0,28.1,60,0,39.0,18.0,239,0.0,1021.4,60,0,1021.4,0,1007.1,60,0,46.2,60,0
86282,2012-12-19 00:00:00,7050,60,0,0.0,0.0,0.0,60,0,0.0,0.0,0.0,60,0,0.0,0.0,0.0,60,0,0.0,0.0,337.4,60,0,342.9,323.3,0,0,0,28.1,60,0,10.2,60,0,10.4,10.1,7.4,60,0,7.6,7.1,3.9,60,0,4.6,3.0,64.6,60,0,69.0,60.0,28.1,60,0,39.0,18.0,239,0.0,1021.4,60,0,1021.4,0,1007.1,60,0,46.2,60,0
86282,2012-12-19 12:00:00,7060,60,0,0.0,0.0,0.0,60,0,0.0,0.0,0.0,60,0,0.0,0.0,0.0,60,0,0.0,0.0,337.4,60,0,342.9,323.3,0,0,0,28.1,60,0,10.2,60,0,10.4,10.1,7.4,60,0,7.6,7.1,3.9,60,0,4.6,3.0,64.6,60,0,69.0,60.0,28.1,60,0,39.0,18.0,239,0.0,1021.4,60,0,1021.4,0,1007.1,60,0,46.2,60,0
86282,2012-12-20 00:00:00,7070,60,0,0.0,0.0,0.0,60,0,0.0,0.0,0.0,60,0,0.0,0.0,0.0,60,0,0.0,0.0,337.4,60,0,342.9,323.3,0,0,0,28.1,60,0,10.2,60,0,10.4,10.1,7.4,60,0,7.6,7.1,3.9,60,0,4.6,3.0,64.6,60,0,69.0,60.0,28.1,60,0,39.0,18.0,239,0.0,1021.4,60,0,1021.4,0,1007.1,60,0,46.2,60,0
86282,2012-12-20 12:00:00,7080,60,0,0.0,0.0,0.0,60,0,0.0,0.0,0.0,60,0,0.0,0.0,0.0,60,0,0.0,0.0,337.4,60,0,342.9,323.3,0,0,0,28.1,60,0,10.2,60,0,10.4,10.1,7.4,60,0,7.6,7.1,3.9,60,0,4.6,3.0,64.6,60,0,69.0,60.0,28.1,60,0,39.0,18.0,239,0.0,1021.4,60,0,1021.4,0,1007.1,60,0,46.2,60,0
86282,2012-12-21 00:00:00,7090,60,0,0.0,0.0,0.0,60,0,0.0,0.0,0.0,60,0,0.0,0.0,0.0,60,0,0.0,0.0,337.4,60,0,342.9,323.3,0,0,0,28.1,60,0,10.2,60,0,10.4,10.1,7.4,60,0,7.6,7.1,3.9,60,0,4.6,3.0,64.6,60,0,69.0,60.0,28.1,60,0,39.0,18.0,239,0.0,1021.4,60,0,1021.4,0,1007.1,60,0,46.2,60,0
86282,2012-12-21 12:00:00,7100,60,0,0.0,0.0,0.0,60,0,0.0,0.0,0.0,60,0,0.0,0.0,0.0,60,0,0.0,0.0,337.4,60,0,342.9,323.3,0,0,0,28.1,60,0,10.2,60,0,10.4,10.1,7.4,60,0,7.6,7.1,3.9,60,0,4.6,3.0,64.6,60,0,69.0,60.0,28.1,60,0,39.0,18.0,239,0.0,1021.4,60,0,1021.4,0,1007.1,60,0,46.2,60,0
86282,2012-12-22 00:00:00,7110,60,0,0.0,0.0,0.0,60,0,0.0,0.0,0.0,60,0,0.0,0.0,0.0,60,0,0.0,0.0,337.4,60,0,342.9,323.3,0,0,0,28.1,60,0,10.2,60,0,10.4,10.1,7.4,60,0,7.6,7.1,3.9,60,0,4.6,3.0,64.6,60,0,69.0,60.0,28.1,60,0,39.0,18.0,239,0.0,1021.4,60,0,1021.4,0,1007.1,60,0,46.2,60,0
86282,2012-12-22 12:00:00,7120,60,0,0.0,0.0,0.0,60,0,0.0,0.0,0.0,60,0,0.0,0.0,0.0,60,0,0.0,0.0,337.4,60,0,342.9,323.3,0,0,0,28.1,60,0,10.2,60,0,10.4,10.1,7.4,60,0,7.6,7.1,3.9,60,0,4.6,3.0,64.6,60,0,69.0,60.0,28.1,60,0,39.0,18.0,239,0.0,1021.4,60,0,1021.4,0,1007.1,60,0,46.2,60,0
86282,2012-12-23 00:00:00,7130,60,0,0.0,0.0,0.0,60,0,0.0,0.0,0.0,60,0,0.0,0.0,0.0,60,0,0.0,0.0,337.4,60,0,342.9,323.3,0,0,0,28.1,60,0,10.2,60,0,10.4,10.1,7.4,60,0,7.6,7.1,3.9,60,0,4.6,3.0,64.6,60,0,69.0,60.0,28.1,60,0,39.0,18.0,239,0.0,1021.4,60,0,1021.4,0,1007.1,60,0,46.2,60,0
86282,2012-12-23 12:00:00,7140,60,0,0.0,0.0,0.0,60,0,0.0,0.0,0.0,60,0,0.0,0.0,0.0,60,0,0.0,0.0,337.4,60,0,342.9,323.3,0,0,0,28.1,60,0,10.2,60,0,10.4,10.1,7.4,60,0,7.6,7.1,3.9,60,0,4.6,3.0,64.6,60,0,69.0,60.0,28.1,60,0,39.0,18.0,239,0.0,1021.4,60,0,1021.4,0,1007.1,60,0,46.2,60,0
86282,2012-12-24 00:00:00,7150,60,0,0.0,0.0,0.0,60,0,0.0,0.0,0.0,60,0,0.0,0.0,0.0,60,0,0.0,0.0,337.4,60,0,342.9,323.3,0,0,0,28.1,60,0,10.2,60,0,10.4,10.1,7.4,60,0,7.6,7.1,3.9,60,0,4.6,3.0,64.6,60,0,69.0,60.0,28.1,60,0,39.0,18.0,239,0.0,1021.4,60,0,1021.4,0,1007.1,60,0,46.2,60,0
86282,2012-12-24 12:00:00,7160,60,0,0.0,0.0,0.0,60,0,0.0,0.0,0.0,60,0,0.0,0.0,0.0,60,0,0.0,0.0,337.4,60,0,342.9,323.3,0,0,0,28.1,60,0,10.2,60,0,10.4,10.1,7.4,60,0,7.6,7.1,3.9,60,0,4.6,3.0,64.6,60,0,69.0,60.0,28.1,60,0,39.0,18.0,239,0.0,1021.4,60,0,1021.4,0,1007.1,60,0,46.2,60,0
86282,2012-12-25 00:00:00,7170,60,0,0.0,0.0,0.0,60,0,0.0,0.0,0.0,60,0,0.0,0.0,0.0,60,0,0.0,0.0,337.4,60,0,342.9,323.3,0,0,0,28.1,60,0,10.2,60,0,10.4,10.1,7.4,60,0,7.6,7.1,3.9,60,0,4.6,3.0,64.6,60,0,69.0,60.0,28.1,60,0,39.0,18.0,239,0.0,1021.4,60,0,1021.4,0,1007.1,60,0,46.2,60,0
86282,2012-12-25 12:00:00,7180,60,0,0.0,0.0,0.0,60,0,0.0,0.0,0.0,60,0,0.0,0.0,0.0,60,0,0.0,0.0,337.4,60,0,342.9,323.3,0,0,0,28.1,60,0,10.2,60,0,10.4,10.1,7.4,60,0,7.6,7.1,3.9,60,0,4.6,3.0,64.6,60,0,69.0,60.0,28.1,60,0,39.0,18.0,239,0.0,1021.4,60,0,1021.4,0,1007.1,60,0,46.2,60,0
86282,2012-12-26 00:00:00,7190,60,0,0.0,0.0,0.0,60,0,0.0,0.0,0.0,60,0,0.0,0.0,0.0,60,0,0.0,0.0,337.4,60,0,342.9,323.3,0,0,0,28.1,60,0,10.2,60,0,10.4,10.1,7.4,60,0,7.6,7.1,3.9,60,0,4.6,3.0,64.6,60,0,69.0,60.0,28.1,60,0,39.0,18.0,239,0.0,1021.4,60,0,1021.4,0,1007.1,60,0,46.2,60,0
86282,2012-12-26 12:00:00,7200,60,0,0.0,0.0,0.0,60,0,0.0,0.0,0.0,60,0,0.0,0.0,0.0,60,0,0.0,0.0,337.4,60,0,342.9,323.3,0,0,0,28.1,60,0,10.2,60,0,10.4,10.1,7.4,60,0,7.6,7.1,3.9,60,0,4.6,3.0,64.6,60,0,69.0,60.0,28.1,60,0,39.0,18.0,239,0.0,1021.4,60,0,1021.4,0,1007.1,60,0,46.2,60,0
86282,2012-12-27 00:00:00,7210,60,0,0.0,0.0,0.0,60,0,0.0,0.0,0.0,60,0,0.0,0.0,0.0,60,0,0.0,0.0,337.4,60,0,342.9,323.3,0,0,0,28.1,60,0,10.2,60,0,10.4,10.1,7.4,60,0,7.6,7.1,3.9,60,0,4.6,3.0,64.6,60,0,69.0,60.0,28.1,60,0,39.0,18.0,239,0.0,1021.4,60,0,1021.4,0,1007.1,60,0,46.2,60,0
86282,2012-12-27 12:00:00,7220,60,0,0.0,0.0,0.0,60,0,0.0,0.0,0.0,60,0,0.0,0.0,0.0,60,0,0.0,0.0,337.4,60,0,342.9,323.3,0,0,0,28.1,60,0,10.2,60,0,10.4,10.1,7.4,60,0,7.6,7.1,3.9,60,0,4.6,3.0,64.6,60,0,69.0,60.0,28.1,60,0,39.0,18.0,239,0.0,1021.4,60,0,1021.4,0,1007.1,60,0,46.2,60,0
86282,2012-12-28 00:00:00,7230,60,0,0.0,0.0,0.0,60,0,0.0,0.0,0.0,60,0,0.0,0.0,0.0,60,0,0.0,0.0,337.4,60,0,342.9,323.3,0,0,0,28.1,60,0,10.2,60,0,10.4,10.1,7.4,60,0,7.6,7.1,3.9,60,0,4.6,3.0,64.6,60,0,69.0,60.0,28.1,60,0,39.0,18.0,239,0.0,1021.4,60,0,1021.4,0,1007.1,60,0,46.2,60,0
86282,2012-12-28 12:00:00,7240,60,0,0.0,0.0,0.0,60,0,0.0,0.0,0.0,60,0,0.0,0.0,0.0,60,0,0.0,0.0,337.4,60,0,342.9,323.3,0,0,0,28.1,60,0,10.2,60,0,10.4,10.1,7.4,60,0,7.6,7.1,3.9,60,0,4.6,3.0,64.6,60,0,69.0,60.0,28.1,60,0,39.0,18.0,239,0.0,1021.4,60,0,1021.4,0,1007.1,60,0,46.2,60,0
86282,2012-12-29 00:00:00,7250,60,0,0.0,0.0,0.0,60,0,0.0,0.0,0.0,60,0,0.0,0.0,0.0,60,0,0.0,0.0,337.4,60,0,342.9,323.3,0,0,0,28.1,60,0,10.2,60,0,10.4,10.1,7.4,60,0,7.6,7.1,3.9,60,0,4.6,3.0,64.6,60,0,69.0,60.0,28.1,60,0,39.0,18.0,239,0.0,1021.4,60,0,1021.4,0,1007.1,60,0,46.2,60,0
86282,2012-12-29 12:00:00,7260,60,0,0.0,0.0,0.0,60,0,0.0,0.0,0.0,60,0,0.0,0.0,0.0,60,0,0.0,0.0,337.4,60,0,342.9,323.3,0,0,0,28.1,60,0,10.2,60,0,10.4,10.1,7.4,60,0,7.6,7.1,3.9,60,0,4.6,3.0,64.6,60,0,69.0,60.0,28.1,60,0,39.0,18.0,239,0.0,1021.4,60,0,1021.4,0,1007.1,60,0,46.2,60,0
86282,2012-12-30 00:00:00,7270,60,0,0.0,0.0,0.0,60,0,0.0,0.0,0.0,60,0,0.0,0.0,0.0,60,0,0.0,0.0,337.4,60,0,342.9,323.3,0,0,0,28.1,60,0,10.2,60,0,10.4,10.1,7.4,60,0,7.6,7.1,3.9,60,0,4.6,3.0,64.6,60,0,69.0,60.0,28.1,60,0,39.0,18.0,239,0.0,1021.4,60,0,1021.4,0,1007.1,60,0,46.2,60,0
86282,2012-12-30 12:00:00,7280,60,0,0.0,0.0,0.0,60,0,0.0,0.0,0.0,60,0,0.0,0.0,0.0,60,0,0.0,0.0,337.4,60,0,342.9,323.3,0,0,0,28.1,60,0,10.2,60,0,10.4,10.1,7.4,60,0,7.6,7.1,3.9,60,0,4.6,3.0,64.6,60,0,69.0,60.0,28.1,60,0,39.0,18.0,239,0.0,1021.4,60,0,1021.4,0,1007.1,60,0,46.2,60,0
86282,2012-12-31 00:00:00,7290,60,0,0.0,0.0,0.0,60,0,0.0,0.0,0.0,60,0,0.0,0.0,0.0,60,0,0.0,0.0,337.4,60,0,342.9,323.3,0,0,0,28.1,60,0,10.2,60,0,10.4,10.1,7.4,60,0,7.6,7.1,3.9,60,0,4.6,3.0,64.6,60,0,69.0,60.0,28.1,60,0,39.0,18.0,239,0.0,1021.4,60,0,1021.4,0,1007.1,60,0,46.2,60,0
86282,2012-12-31 12:00:00,7300,60,0,0.0,0.0,0.0,60,0,0.0,0.0,0.0,60,0,0.0,0.0,0.0,60,0,0.0,0.0,337.4,60,0,342.9,323.3,0,0,0,28.1,60,0,10.2,60,0,10.4,10.1,7.4,60,0,7.6,7.1,3.9,60,0,4.6,3.0,64.6,60,0,69.0,60.0,28.1,60,0,39.0,18.0,239,0.0,1021.4,60,0,1021.4,0,1007.1,60,0,46.2,60,0
86282,2013-01-01 00:00:00,7310,60,0,0.0,0.0,0.0,60,0,0.0,0.0,0.0,60,0,0.0,0.0,0.0,60,0,0.0,0.0,337.4,60,0,342.9,323.3,0,0,0,28.1,60,0,10.2,60,0,10.4,10.1,7.4,60,0,7.6,7.1,3.9,60,0,4.6,3.0,64.6,60,0,69.0,60.0,28.1,60,0,39.0,18.0,239,0.0,1021.4,60,0,1021.4,0,1007.1,60,0,46.2,60,0
86282,2013-01-01 12:00:00,7320,60,0,0.0,0.0,0.0,60,0,0.0,0.0,0.0,60,0,0.0,0.0,0.0,60,0,0.0,0.0,337.4,60,0,342.9,323.3,0,0,0,28.1,60,0,10.2,60,0,10.4,10.1,7.4,60,0,7.6,7.1,3.9,60,0,4.6,3.0,64.6,60,0,69.0,60.0,28.1,60,0,39.0,18.0,239,0.0,1021.4,60,0,1021.4,0,1007.1,60,0,46.2,60,0
86282,2013-01-02 00:00:00,7330,60,0,0.0,0.0,0.0,60,0,0.0,0.0,0.0,60,0,0.0,0.0,0.0,60,0,0.0,0.0,337.4,60,0,342.9,323.3,0,0,0,28.1,60,0,10.2,60,0,10.4,10.1,7.4,60,0,7.6,7.1,3.9,60,0,4.6,3.0,64.6,60,0,69.0,60.0,28.1,60,0,39.0,18.0,239,0.0,1021.4,60,0,1021.4,0,1007.1,60,0,46.2,60,0
86282,2013-01-02 12:00:00,7340,60,0,0.0,0.0,0.0,60,0,0.0,0.0,0.0,60,0,0.0,0.0,0.0,60,0,0.0,0.0,337.4,60,0,342.9,323.3,0,0,0,28.1,60,0,10.2,60,0,10.4,10.1,7.4,60,0,7.6,7.1,3.9,60,0,4.6,3.0,64.6,60,0,69.0,60.0,28.1,60,0,39.0,18.0,239,0.0,1021.4,60,0,1021.4,0,1007.1,60,0,46.2,60,0
86282,2013-01-03 00:00:00,7350,60,0,0.0,0.0,0.0,60,0,0.0,0.0,0.0,60,0,0.0,0.0,0.0,60,0,0.0,0.0,337.4,60,0,342.9,323.3,0,0,0,28.1,60,0,10.2,60,0,10.4,10.1,7.4,60,0,7.6,7.1,3.9,60,0,4.6,3.0,64.6,60,0,69.0,60.0,28.1,60,0,39.0,18.0,239,0.0,1021.4,60,0,1021.4,0,1007.1,60,0,46.2,60,0
86282,2013-01-03 12:00:00,7360,60,0,0.0,0.0,0.0,60,0,0.0,0.0,0.0,60,0,0.0,0.0,0.0,60,0,0.0,0.0,337.4,60,0,342.9,323.3,0,0,0,28.1,60,0,10.2,60,0,10.4,10.1,7.4,60,0,7.6,7.1,3.9,60,0,4.6,3.0,64.6,60,0,69.0,60.0,28.1,60,0,39.0,18.0,239,0.0,1021.4,60,0,1021.4,0,1007.1,60,0,46.2,60,0
86282,2013-01-04 00:00:00,7370,60,0,0.0,0.0,0.0,60,0,0.0,0.0,0.0,60,0,0.0,0.0,0.0,60,0,0.0,0.0,337.4,60,0,342.9,323.3,0,0,0,28.1,60,0,10.2,60,0,10.4,10.1,7.4,60,0,7.6,7.1,3.9,60,0,4.6,3.0,64.6,60,0,69.0,60.0,28.1,60,0,39.0,18.0,239,0.0,1021.4,60,0,1021.4,0,1007.1,60,0,46.2,60,0
86282,2013-01-04 12:00:00,7380,60,0,0.0,0.0,0.0,60,0,0.0,0.0,0.0,60,0,0.0,0.0,0.0,60,0,0.0,0.0,337.4,60,0,342.9,323.3,0,0,0,28.1,60,0,10.2,60,0,10.4,10.1,7.4,60,0,7.6,7.1,3.9,60,0,4.6,3.0,64.6,60,0,69.0,60.0,28.1,60,0,39.0,18.0,239,0.0,1021.4,60,0,1021.4,0,1007.1,60,0,46.2,60,0
86282,2013-01-05 00:00:00,7390,60,0,0.0,0.0,0.0,60,0,0.0,0.0,0.0,60,0,0.0,0.0,0.0,60,0,0.0,0.0,337.4,60,0,342.9,323.3,0,0,0,28.1,60,0,10.2,60,0,10.4,10.1,7.4,60,0,7.6,7.1,3.9,60,0,4.6,3.0,64.6,60,0,69.0,60.0,28.1,60,0,39.0,18.0,239,0.0,1021.4,60,0,1021.4,0,1007.1,60,0,46.2,60,0
86282,2013-01-05 12:00:00,7400,60,0,0.0,0.0,0.0,60,0,0.0,0.0,0.0,60,0,0.0,0.0,0.0,60,0,0.0,0.0,337.4,60,0,342.9,323.3,0,0,0,28.1,60,0,10.2,60,0,10.4,10.1,7.4,60,0,7.6,7.1,3.9,60,0,4.6,3.0,64.6,60,0,69.0,60.0,28.1,60,0,39.0,18.0,239,0.0,1021.4,60,0,1021.4,0,1007.1,60,0,46.2,60,0
86282,2013-01-06 00:00:00,7410,60,0,0.0,0.0,0.0,60,0,0.0,0.0,0.0,60,0,0.0,0.0,0.0,60,0,0.0,0.0,337.4,60,0,342.9,323.3,0,0,0,28.1,60,0,10.2,60,0,10.4,10.1,7.4,60,0,7.6,7.1,3.9,60,0,4.6,3.0,64.6,60,0,69.0,60.0,28.1,60,0,39.0,18.0,239,0.0,1021.4,60,0,1021.4,0,1007.1,60,0,46.2,60,0
86282,2013-01-06 12:00:00,7420,60,0,0.0,0.0,0.0,60,0,0.0,0.0,0.0,60,0,0.0,0.0,0.0,60,0,0.0,0.0,337.4,60,0,342.9,323.3,0,0,0,28.1,60,0,10.2,60,0,10.4,10.1,7.4,60,0,7.6,7.1,3.9,60,0,4.6,3.0,64.6,60,0,69.0,60.0,28.1,60,0,39.0,18.0,239,0.0,1021.4,60,0,1021.4,0,1007.1,60,0,46.2,60,0
86282,2013-01-07 00:00:00,7430,60,0,0.0,0.0,0.0,60,0,0.0,0.0,0.0,60,0,0.0,0.0,0.0,60,0,0.0,0.0,337.4,60,0,342.9,323.3,0,0,0,28.1,60,0,10.2,60,0,10.4,10.1,7.4,60,0,7.6,7.1,3.9,60,0,4.6,3.0,64.6,60,0,69.0,60.0,28.1,60,0,39.0,18.0,239,0.0,1021.4,60,0,1021.4,0,1007.1,60,0,46.2,60,0
86282,2013-01-07 12:00:00,7440,60,0,0.0,0.0,0.0,60,0,0.0,0.0,0.0,60,0,0.0,0.0,0.0,60,0,0.0,0.0,337.4,60,0,342.9,323.3,0,0,0,28.1,60,0,10.2,60,0,10.4,10.1,7.4,60,0,7.6,7.1,3.9,60,0,4.6,3.0,64.6,60,0,69.0,60.0,28.1,60,0,39.0,18.0,239,0.0,1021.4,60,0,1021.4,0,1007.1,60,0,46.2,60,0
86282,2013-01-08 00:00:00,7450,60,0,0.0,0.0,0.0,60,0,0.0,0.0,0.0,60,0,0.0,0.0,0.0,60,0,0.0,0.0,337.4,60,0,342.9,323.3,0,0,0,28.1,60,0,10.2,60,0,10.4,10.1,7.4,60,0,7.6,7.1,3.9,60,0,4.6,3.0,64.6,60,0,69.0,60.0,28.1,60,0,39.0,18.0,239,0.0,1021.4,60,0,1021.4,0,1007.1,60,0,46.2,60,0
86282,2013-01-08 12:00:00,7460,60,0,0.0,0.0,0.0,60,0,0.0,0.0,0.0,60,0,0.0,0.0,0.0,60,0,0.0,0.0,337.4,60,0,342.9,323.3,0,0,0,28.1,60,0,10.2,60,0,10.4,10.1,7.4,60,0,7.6,7.1,3.9,60,0,4.6,3.0,64.6,60,0,69.0,60.0,28.1,60,0,39.0,18.0,239,0.0,1021.4,60,0,1021.4,0,1007.1,60,0,46.2,60,0
86282,2013-01-09 00:00:00,7470,60,0,0.0,0.0,0.0,60,0,0.0,0.0,0.0,60,0,0.0,0.0,0.0,60,0,0.0,0.0,337.4,60,0,342.9,323.3,0,0,0,28.1,60,0,10.2,60,0,10.4,10.1,7.4,60,0,7.6,7.1,3.9,60,0,4.6,3.0,64.6,60,0,69.0,60.0,28.1,60,0,39.0,18.0,239,0.0,1021.4,60,0,1021.4,0,1007.1,60,0,46.2,60,0
86282,2013-01-09 12:00:00,7480,60,0,0.0,0.0,0.0,60,0,0.0,0.0,0.0,60,0,0.0,0.0,0.0,60,0,0.0,0.0,337.4,60,0,342.9,323.3,0,0,0,28.1,60,0,10.2,60,0,10.4,10.1,7.4,60,0,7.6,7.1,3.9,60,0,4.6,3.0,64.6,60,0,69.0,60.0,28.1,60,0,39.0,18.0,239,0.0,1021.4,60,0,1021.4,0,1007.1,60,0,46.2,60,0
86282,2013-01-10 00:00:00,7490,60,0,0.0,0.0,0.0,60,0,0.0,0.0,0.0,60,0,0.0,0.0,0.0,60,0,0.0,0.0,337.4,60,0,342.9,323.3,0,0,0,28.1,60,0,10.2,60,0,10.4,10.1,7.4,60,0,7.6,7.1,3.9,60,0,4.6,3.0,64.6,60,0,69.0,60.0,28.1,60,0,39.0,18.0,239,0.0,1021.4,60,0,1021.4,0,1007.1,60,0,46.2,60,0
86282,2013-01-10 12:00:00,7500,60,0,0.0,0.0,0.0,60,0,0.0,0.0,0.0,60,0,0.0,0.0,0.0,60,0,0.0,0.0,337.4,60,0,342.9,323.3,0,0,0,28.1,60,0,10.2,60,0,10.4,10.1,7.4,60,0,7.6,7.1,3.9,60,0,4.6,3.0,64.6,60,0,69.0,60.0,28.1,60,0,39.0,18.0,239,0.0,1021.4,60,0,1021.4,0,1007.1,60,0,46.2,60,0
86282,2013-01-11 00:00:00,7510,60,0,0.0,0.0,0.0,60,0,0.0,0.0,0.0,60,0,0.0,0.0,0.0,60,0,0.0,0.0,337.4,60,0,342.9,323.3,0,0,0,28.1,60,0,10.2,60,0,10.4,10.1,7.4,60,0,7.6,7.1,3.9,60,0,4.6,3.0,64.6,60,0,69.0,60.0,28.1,60,0,39.0,18.0,239,0.0,1021.4,60,0,1021.4,0,1007.1,60,0,46.2,60,0
86282,2013-01-11 12:00:00,7520,60,0,0.0,0.0,0.0,60,0,0.0,0.0,0.0,60,0,0.0,0.0,0.0,60,0,0.0,0.0,337.4,60,0,342.9,323.3,0,0,0,28.1,60,0,10.2,60,0,10.4,10.1,7.4,60,0,7.6,7.1,3.9,60,0,4.6,3.0,64.6,60,0,69.0,60.0,28.1,60,0,39.0,18.0,239,0.0,1021.4,60,0,1021.4,0,1007.1,60,0,46.2,60,0
86282,2013-01-12 00:00:00,7530,60,0,0.0,0.0,0.0,60,0,0.0,0.0,0.0,60,0,0.0,0.0,0.0,60,0,0.0,0.0,337.4,60,0,342.9,323.3,0,0,0,28.1,60,0,10.2,60,0,10.4,10.1,7.4,60,0,7.6,7.1,3.9,60,0,4.6,3.0,64.6,60,0,69.0,60.0,28.1,60,0,39.0,18.0,239,0.0,1021.4,60,0,1021.4,0,1007.1,60,0,46.2,60,0
86282,2013-01-12 12:00:00,7540,60,0,0.0,0.0,0.0,60,0,0.0,0.0,0.0,60,0,0.0,0.0,0.0,60,0,0.0,0.0,337.4,60,0,342.9,323.3,0,0,0,28.1,60,0,10.2,60,0,10.4,10.1,7.4,60,0,7.6,7.1,3.9,60,0,4.6,3.0,64.6,60,0,69.0,60.0,28.1,60,0,39.0,18.0,239,0.0,1021.4,60,0,1021.4,0,1007.1,60,0,46.2,60,0
86282,2013-01-13 00:00:00,7550,60,0,0.0,0.0,0.0,60,0,0.0,0.0,0.0,60,0,0.0,0.0,0.0,60,0,0.0,0.0,337.4,60,0,342.9,323.3,0,0,0,28.1,60,0,10.2,60,0,10.4,10.1,7.4,60,0,7.6,7.1,3.9,60,0,4.6,3.0,64.6,60,0,69.0,60.0,28.1,60,0,39.0,18.0,239,0.0,1021.4,60,0,1021.4,0,1007.1,60,0,46.2,60,0
86282,2013-01-13 12:00:00,7560,60,0,0.0,0.0,0.0,60,0,0.0,0.0,0.0,60,0,0.0,0.0,0.0,60,0,0.0,0.0,337.4,60,0,342.9,323.3,0,0,0,28.1,60,0,10.2,60,0,10.4,10.1,7.4,60,0,7.6,7.1,3.9,60,0,4.6,3.0,64.6,60,0,69.0,60.0,28.1,60,0,39.0,18.0,239,0.0,1021.4,60,0,1021.4,0,1007.1,60,0,46.2,60,0
86282,2013-01-14 00:00:00,7570,60,0,0.0,0.0,0.0,60,0,0.0,0.0,0.0,60,0,0.0,0.0,0.0,60,0,0.0,0.0,337.4,60,0,342.9,323.3,0,0,0,28.1,60,0,10.2,60,0,10.4,10.1,7.4,60,0,7.6,7.1,3.9,60,0,4.6,3.0,64.6,60,0,69.0,60.0,28.1,60,0,39.0,18.0,239,0.0,1021.4,60,0,1021.4,0,1007.1,60,0,46.2,60,0
86282,2013-01-14 12:00:00,7580,60,0,0.0,0.0,0.0,60,0,0.0,0.0,0.0,60,0,0.0,0.0,0.0,60,0,0.0,0.0,337.4,60,0,342.9,323.3,0,0,0,28.1,60,0,10.2,60,0,10.4,10.1,7.4,60,0,7.6,7.1,3.9,60,0,4.6,3.0,64.6,60,0,69.0,60.0,28.1,60,0,39.0,18.0,239,0.0,1021.4,60,0,1021.4,0,1007.1,60,0,46.2,60,0
86282,2013-01-15 00:00:00,7590,60,0,0.0,0.0,0.0,60,0,0.0,0.0,0.0,60,0,0.0,0.0,0.0,60,0,0.0,0.0,337.4,60,0,342.9,323.3,0,0,0,28.1,60,0,10.2,60,0,10.4,10.1,7.4,60,0,7.6,7.1,3.9,60,0,4.6,3.0,64.6,60,0,69.0,60.0,28.1,60,0,39.0,18.0,239,0.0,1021.4,60,0,1021.4,0,1007.1,60,0,46.2,60,0
86282,2013-01-15 12:00:00,7600,60,0,0.0,0.0,0.0,60,0,0.0,0.0,0.0,60,0,0.0,0.0,0.0,60,0,0.0,0.0,337.4,60,0,342.9,323.3,0,0,0,28.1,60,0,10.2,60,0,10.4,10.1,7.4,60,0,7.6,7.1,3.9,60,0,4.6,3.0,64.6,60,0,69.0,60.0,28.1,60,0,39.0,18.0,239,0.0,1021.4,60,0,1021.4,0,1007.1,60,0,46.2,60,0
86282,2013-01-16 00:00:00,7610,60,0,0.0,0.0,0.0,60,0,0.0,0.0,0.0,60,0,0.0,0.0,0.0,60,0,0.0,0.0,337.4,60,0,342.9,323.3,0,0,0,28.1,60,0,10.2,60,0,10.4,10.1,7.4,60,0,7.6,7.1,3.9,60,0,4.6,3.0,64.6,60,0,69.0,60.0,28.1,60,0,39.0,18.0,239,0.0,1021.4,60,0,1021.4,0,1007.1,60,0,46.2,60,0
86282,2013-01-16 12:00:00,7620,60,0,0.0,0.0,0.0,60,0,0.0,0.0,0.0,60,0,0.0,0.0,0.0,60,0,0.0,0.0,337.4,60,0,342.9,323.3,0,0,0,28.1,60,0,10.2,60,0,10.4,10.1,7.4,60,0,7.6,7.1,3.9,60,0,4.6,3.0,64.6,60,0,69.0,60.0,28.1,60,0,39.0,18.0,239,0.0,1021.4,60,0,1021.4,0,1007.1,60,0,46.2,60,0
86282,2013-01-17 00:00:00,7630,60,0,0.0,0.0,0.0,60,0,0.0,0.0,0.0,60,0,0.0,0.0,0.0,60,0,0.0,0.0,337.4,60,0,342.9,323.3,0,0,0,28.1,60,0,10.2,60,0,10.4,10.1,7.4,60,0,7.6,7.1,3.9,60,0,4.6,3.0,64.6,60,0,69.0,60.0,28.1,60,0,39.0,18.0,239,0.0,1021.4,60,0,1021.4,0,1007.1,60,0,46.2,60,0
86282,2013-01-17 12:00:00,7640,60,0,0.0,0.0,0.0,60,0,0.0,0.0,0.0,60,0,0.0,0.0,0.0,60,0,0.0,0.0,337.4,60,0,342.9,323.3,0,0,0,28.1,60,0,10.2,60,0,10.4,10.1,7.4,60,0,7.6,7.1,3.9,60,0,4.6,3.0,64.6,60,0,69.0,60.0,28.1,60,0,39.0,18.0,239,0.0,1021.4,60,0,1021.4,0,1007.1,60,0,46.2,60,0
86282,2013-01-18 00:00:00,7650,60,0,0.0,0.0,0.0,60,0,0.0,0.0,0.0,60,0,0.0,0.0,0.0,60,0,0.0,0.0,337.4,60,0,342.9,323.3,0,0,0,28.1,60,0,10.2,60,0,10.4,10.1,7.4,60,0,7.6,7.1,3.9,60,0,4.6,3.0,64.6,60,0,69.0,60.0,28.1,60,0,39.0,18.0,239,0.0,1021.4,60,0,1021.4,0,1007.1,60,0,46.2,60,0
86282,2013-01-18 12:00:00,7660,60,0,0.0,0.0,0.0,60,0,0.0,0.0,0.0,60,0,0.0,0.0,0.0,60,0,0.0,0.0,337.4,60,0,342.9,323.3,0,0,0,28.1,60,0,10.2,60,0,10.4,10.1,7.4,60,0,7.6,7.1,3.9,60,0,4.6,3.0,64.6,60,0,69.0,60.0,28.1,60,0,39.0,18.0,239,0.0,1021.4,60,0,1021.4,0,1007.1,60,0,46.2,60,0
86282,2013-01-19 00:00:00,7670,60,0,0.0,0.0,0.0,60,0,0.0,0.0,0.0,60,0,0.0,0.0,0.0,60,0,0.0,0.0,337.4,60,0,342.9,323.3,0,0,0,28.1,60,0,10.2,60,0,10.4,10.1,7.4,60,0,7.6,7.1,3.9,60,0,4.6,3.0,64.6,60,0,69.0,60.0,28.1,60,0,39.0,18.0,239,0.0,1021.4,60,0,1021.4,0,1007.1,60,0,46.2,60,0
86282,2013-01-19 12:00:00,7680,60,0,0.0,0.0,0.0,60,0,0.0,0.0,0.0,60,0,0.0,0.0,0.0,60,0,0.0,0.0,337.4,60,0,342.9,323.3,0,0,0,28.1,60,0,10.2,60,0,10.4,10.1,7.4,60,0,7.6,7.1,3.9,60,0,4.6,3.0,64.6,60,0,69.0,60.0,28.1,60,0,39.0,18.0,239,0.0,1021.4,60,0,1021.4,0,1007.1,60,0,46.2,60,0
86282,2013-01-20 00:00:00,7690,60,0,0.0,0.0,0.0,60,0,0.0,0.0,0.0,60,0,0.0,0.0,0.0,60,0,0.0,0.0,337.4,60,0,342.9,323.3,0,0,0,28.1,60,0,10.2,60,0,10.4,10.1,7.4,60,0,7.6,7.1,3.9,60,0,4.6,3.0,64.6,60,0,69.0,60.0,28.1,60,0,39.0,18.0,239,0.0,1021.4,60,0,1021.4,0,1007.1,60,0,46.2,60,0
86282,2013-01-20 12:00:00,7700,60,0,0.0,0.0,0.0,60,0,0.0,0.0,0.0,60,0,0.0,0.0,0.0,60,0,0.0,0.0,337.4,60,0,342.9,323.3,0,0,0,28.1,60,0,10.2,60,0,10.4,10.1,7.4,60,0,7.6,7.1,3.9,60,0,4.6,3.0,64.6,60,0,69.0,60.0,28.1,60,0,39.0,18.0,239,0.0,1021.4,60,0,1021.4,0,1007.1,60,0,46.2,60,0
86282,2013-01-21 00:00:00,7710,60,0,0.0,0.0,0.0,60,0,0.0,0.0,0.0,60,0,0.0,0.0,0.0,60,0,0.0,0.0,337.4,60,0,342.9,323.3,0,0,0,28.1,60,0,10.2,60,0,10.4,10.1,7.4,60,0,7.6,7.1,3.9,60,0,4.6,3.0,64.6,60,0,69.0,60.0,28.1,60,0,39.0,18.0,239,0.0,1021.4,60,0,1021.4,0,1007.1,60,0,46.2,60,0
86282,2013-01-21 12:00:00,7720,60,0,0.0,0.0,0.0,60,0,0.0,0.0,0.0,60,0,0.0,0.0,0.0,60,0,0.0,0.0,337.4,60,0,342.9,323.3,0,0,0,28.1,60,0,10.2,60,0,10.4,10.1,7.4,60,0,7.6,7.1,3.9,60,0,4.6,3.0,64.6,60,0,69.0,60.0,28.1,60,0,39.0,18.0,239,0.0,1021.4,60,0,1021.4,0,1007.1,60,0,46.2,60,0
86282,2013-01-22 00:00:00,7730,60,0,0.0,0.0,0.0,60,0,0.0,0.0,0.0,60,0,0.0,0.0,0.0,60,0,0.0,0.0,337.4,60,0,342.9,323.3,0,0,0,28.1,60,0,10.2,60,0,10.4,10.1,7.4,60,0,7.6,7.1,3.9,60,0,4.6,3.0,64.6,60,0,69.0,60.0,28.1,60,0,39.0,18.0,239,0.0,1021.4,60,0,1021.4,0,1007.1,60,0,46.2,60,0
86282,2013-01-22 12:00:00,7740,60,0,0.0,0.0,0.0,60,0,0.0,0.0,0.0,60,0,0.0,0.0,0.0,60,0,0.0,0.0,337.4,60,0,342.9,323.3,0,0,0,28.1,60,0,10.2,60,0,10.4,10.1,7.4,60,0,7.6,7.1,3.9,60,0,4.6,3.0,64.6,60,0,69.0,60.0,28.1,60,0,39.0,18.0,239,0.0,1021.4,60,0,1021.4,0,1007.1,60,0,46.2,60,0
86282,2013-01-23 00:00:00,7750,60,0,0.0,0.0,0.0,60,0,0.0,0.0,0.0,60,0,0.0,0.0,0.0,60,0,0.0,0.0,337.4,60,0,342.9,323.3,0,0,0,28.1,60,0,10.2,60,0,10.4,10.1,7.4,60,0,7.6,7.1,3.9,60,0,4.6,3.0,64.6,60,0,69.0,60.0,28.1,60,0,39.0,18.0,239,0.0,1021.4,60,0,1021.4,0,1007.1,60,0,46.2,60,0
86282,2013-01-23 12:00:00,7760,60,0,0.0,0.0,0.0,60,0,0.0,0.0,0.0,60,0,0.0,0.0,0.0,60,0,0.0,0.0,337.4,60,0,342.9,323.3,0,0,0,28.1,60,0,10.2,60,0,10.4,10.1,7.4,60,0,7.6,7.1,3.9,60,0,4.6,3.0,64.6,60,0,69.0,60.0,28.1,60,0,39.0,18.0,239,0.0,1021.4,60,0,1021.4,0,1007.1,60,0,46.2,60,0
86282,2013-01-24 00:00:00,7770,60,0,0.0,0.0,0.0,60,0,0.0,0.0,0.0,60,0,0.0,0.0,0.0,60,0,0.0,0.0,337.4,60,0,342.9,323.3,0,0,0,28.1,60,0,10.2,60,0,10.4,10.1,7.4,60,0,7.6,7.1,3.9,60,0,4.6,3.0,64.6,60,0,69.0,60.0,28.1,60,0,39.0,18.0,239,0.0,1021.4,60,0,1021.4,0,1007.1,60,0,46.2,60,0
86282,2013-01-24 12:00:00,7780,60,0,0.0,0.0,0.0,60,0,0.0,0.0,0.0,60,0,0.0,0.0,0.0,60,0,0.0,0.0,337.4,60,0,342.9,323.3,0,0,0,28.1,60,0,10.2,60,0,10.4,10.1,7.4,60,0,7.6,7.1,3.9,60,0,4.6,3.0,64.6,60,0,69.0,60.0,28.1,60,0,39.0,18.0,239,0.0,1021.4,60,0,1021.4,0,1007.1,60,0,46.2,60,0
86282,2013-01-25 00:00:00,7790,60,0,0.0,0.0,0.0,60,0,0.0,0.0,0.0,60,0,0.0,0.0,0.0,60,0,0.0,0.0,337.4,60,0,342.9,323.3,0,0,0,28.1,60,0,10.2,60,0,10.4,10.1,7.4,60,0,7.6,7.1,3.9,60,0,4.6,3.0,64.6,60,0,69.0,60.0,28.1,60,0,39.0,18.0,239,0.0,1021.4,60,0,1021.4,0,1007.1,60,0,46.2,60,0
86282,2013-01-25 12:00:00,7800,60,0,0.0,0.0,0.0,60,0,0.0,0.0,0.0,60,0,0.0,0.0,0.0,60,0,0.0,0.0,337.4,60,0,342.9,323.3,0,0,0,28.1,60,0,10.2,60,0,10.4,10.1,7.4,60,0,7.6,7.1,3.9,60,0,4.6,3.0,64.6,60,0,69.0,60.0,28.1,60,0,39.0,18.0,239,0.0,1021.4,60,0,1021.4,0,1007.1,60,0,46.2,60,0
86282,2013-01-26 00:00:00,7810,60,0,0.0,0.0,0.0,60,0,0.0,0.0,0.0,60,0,0.0,0.0,0.0,60,0,0.0,0.0,337.4,60,0,342.9,323.3,0,0,0,28.1,60,0,10.2,60,0,10.4,10.1,7.4,60,0,7.6,7.1,3.9,60,0,4.6,3.0,64.6,60,0,69.0,60.0,28.1,60,0,39.0,18.0,239,0.0,1021.4,60,0,1021.4,0,1007.1,60,0,46.2,60,0
86282,2013-01-26 12:00:00,7820,60,0,0.0,0.0,0.0,60,0,0.0,0.0,0.0,60,0,0.0,0.0,0.0,60,0,0.0,0.0,337.4,60,0,342.9,323.3,0,0,0,28.1,60,0,10.2,60,0,10.4,10.1,7.4,60,0,7.6,7.1,3.9,60,0,4.6,3.0,64.6,60,0,69.0,60.0,28.1,60,0,39.0,18.0,239,0.0,1021.4,60,0,1021.4,0,1007.1,60,0,46.2,60,0
86282,2013-01-27 00:00:00,7830,60,0,0.0,0.0,0.0,60,0,0.0,0.0,0.0,60,0,0.0,0.0,0.0,60,0,0.0,0.0,337.4,60,0,342.9,323.3,0,0,0,28.1,60,0,10.2,60,0,10.4,10.1,7.4,60,0,7.6,7.1,3.9,60,0,4.6,3.0,64.6,60,0,69.0,60.0,28.1,60,0,39.0,18.0,239,0.0,1021.4,60,0,1021.4,0,1007.1,60,0,46.2,60,0
86282,2013-01-27 12:00:00,7840,60,0,0.0,0.0,0.0,60,0,0.0,0.0,0.0,60,0,0.0,0.0,0.0,60,0,0.0,0.0,337.4,60,0,342.9,323.3,0,0,0,28.1,60,0,10.2,60,0,10.4,10.1,7.4,60,0,7.6,7.1,3.9,60,0,4.6,3.0,64.6,60,0,69.0,60.0,28.1,60,0,39.0,18.0,239,0.0,1021.4,60,0,1021.4,0,1007.1,60,0,46.2,60,0
86282,2013-01-28 00:00:00,7850,60,0,0.0,0.0,0.0,60,0,0.0,0.0,0.0,60,0,0.0,0.0,0.0,60,0,0.0,0.0,337.4,60,0,342.9,323.3,0,0,0,28.1,60,0,10.2,60,0,10.4,10.1,7.4,60,0,7.6,7.1,3.9,60,0,4.6,3.0,64.6,60,0,69.0,60.0,28.1,60,0,39.0,18.0,239,0.0,1021.4,60,0,1021.4,0,1007.1,60,0,46.2,60,0
86282,2013-01-28 12:00:00,7860,60,0,0.0,0.0,0.0,60,0,0.0,0.0,0.0,60,0,0.0,0.0,0.0,60,0,0.0,0.0,337.4,60,0,342.9,323.3,0,0,0,28.1,60,0,10.2,60,0,10.4,10.1,7.4,60,0,7.6,7.1,3.9,60,0,4.6,3.0,64.6,60,0,69.0,60.0,28.1,60,0,39.0,18.0,239,0.0,1021.4,60,0,1021.4,0,1007.1,60,0,46.2,60,0
86282,2013-01-29 00:00:00,7870,60,0,0.0,0.0,0.0,60,0,0.0,0.0,0.0,60,0,0.0,0.0,0.0,60,0,0.0,0.0,337.4,60,0,342.9,323.3,0,0,0,28.1,60,0,10.2,60,0,10.4,10.1,7.4,60,0,7.6,7.1,3.9,60,0,4.6,3.0,64.6,60,0,69.0,60.0,28.1,60,0,39.0,18.0,239,0.0,1021.4,60,0,1021.4,0,1007.1,60,0,46.2,60,0
86282,2013-01-29 12:00:00,7880,60,0,0.0,0.0,0.0,60,0,0.0,0.0,0.0,60,0,0.0,0.0,0.0,60,0,0.0,0.0,337.4,60,0,342.9,323.3,0,0,0,28.1,60,0,10.2,60,0,10.4,10.1,7.4,60,0,7.6,7.1,3.9,60,0,4.6,3.0,64.6,60,0,69.0,60.0,28.1,60,0,39.0,18.0,239,0.0,1021.4,60,0,1021.4,0,1007.1,60,0,46.2,60,0
86282,2013-01-30 00:00:00,7890,60,0,0.0,0.0,0.0,60,0,0.0,0.0,0.0,60,0,0.0,0.0,0.0,60,0,0.0,0.0,337.4,60,0,342.9,323.3,0,0,0,28.1,60,0,10.2,60,0,10.4,10.1,7.4,60,0,7.6,7.1,3.9,60,0,4.6,3.0,64.6,60,0,69.0,60.0,28.1,60,0,39.0,18.0,239,0.0,1021.4,60,0,1021.4,0,1007.1,60,0,46.2,60,0
86282,2013-01-30 12:00:00,7900,60,0,0.0,0.0,0.0,60,0,0.0,0.0,0.0,60,0,0.0,0.0,0.0,60,0,0.0,0.0,337.4,60,0,342.9,323.3,0,0,0,28.1,60,0,10.2,60,0,10.4,10.1,7.4,60,0,7.6,7.1,3.9,60,0,4.6,3.0,64.6,60,0,69.0,60.0,28.1,60,0,39.0,18.0,239,0.0,1021.4,60,0,1021.4,0,1007.1,60,0,46.2,60,0
86282,2013-01-31 00:00:00,7910,60,0,0.0,0.0,0.0,60,0,0.0,0.0,0.0,60,0,0.0,0.0,0.0,60,0,0.0,0.0,337.4,60,0,342.9,323.3,0,0,0,28.1,60,0,10.2,60,0,10.4,10.1,7.4,60,0,7.6,7.1,3.9,60,0,4.6,3.0,64.6,60,0,69.0,60.0,28.1,60,0,39.0,18.0,239,0.0,1021.4,60,0,1021.4,0,1007.1,60,0,46.2,60,0
86282,2013-01-31 12:00:00,7920,60,0,0.0,0.0,0.0,60,0,0.0,0.0,0.0,60,0,0.0,0.0,0.0,60,0,0.0,0.0,337.4,60,0,342.9,323.3,0,0,0,28.1,60,0,10.2,60,0,10.4,10.1,7.4,60,0,7.6,7.1,3.9,60,0,4.6,3.0,64.6,60,0,69.0,60.0,28.1,60,0,39.0,18.0,239,0.0,1021.4,60,0,1021.4,0,1007.1,60,0,46.2,60,0
86282,2013-02-01 00:00:00,7930,60,0,0.0,0.0,0.0,60,0,0.0,0.0,0.0,60,0,0.0,0.0,0.0,60,0,0.0,0.0,337.4,60,0,342.9,323.3,0,0,0,28.1,60,0,10.2,60,0,10.4,10.1,7.4,60,0,7.6,7.1,3.9,60,0,4.6,3.0,64.6,60,0,69.0,60.0,28.1,60,0,39.0,18.0,239,0.0,1021.4,60,0,1021.4,0,1007.1,60,0,46.2,60,0
86282,2013-02-01 12:00:00,7940,60,0,0.0,0.0,0.0,60,0,0.0,0.0,0.0,60,0,0.0,0.0,0.0,60,0,0.0,0.0,337.4,60,0,342.9,323.3,0,0,0,28.1,60,0,10.2,60,0,10.4,10.1,7.4,60,0,7.6,7.1,3.9,60,0,4.6,3.0,64.6,60,0,69.0,60.0,28.1,60,0,39.0,18.0,239,0.0,1021.4,60,0,1021.4,0,1007.1,60,0,46.2,60,0
86282,2013-02-02 00:00:00,7950,60,0,0.0,0.0,0.0,60,0,0.0,0.0,0.0,60,0,0.0,0.0,0.0,60,0,0.0,0.0,337.4,60,0,342.9,323.3,0,0,0,28.1,60,0,10.2,60,0,10.4,10.1,7.4,60,0,7.6,7.1,3.9,60,0,4.6,3.0,64.6,60,0,69.0,60.0,28.1,60,0,39.0,18.0,239,0.0,1021.4,60,0,1021.4,0,1007.1,60,0,46.2,60,0
86282,2013-02-02 12:00:00,7960,60,0,0.0,0.0,0.0,60,0,0.0,0.0,0.0,60,0,0.0,0.0,0.0,60,0,0.0,0.0,337.4,60,0,342.9,323.3,0,0,0,28.1,60,0,10.2,60,0,10.4,10.1,7.4,60,0,7.6,7.1,3.9,60,0,4.6,3.0,64.6,60,0,69.0,60.0,28.1,60,0,39.0,18.0,239,0.0,1021.4,60,0,1021.4,0,1007.1,60,0,46.2,60,0
86282,2013-02-03 00:00:00,7970,60,0,0.0,0.0,0.0,60,0,0.0,0.0,0.0,60,0,0.0,0.0,0.0,60,0,0.0,0.0,337.4,60,0,342.9,323.3,0,0,0,28.1,60,0,10.2,60,0,10.4,10.1,7.4,60,0,7.6,7.1,3.9,60,0,4.6,3.0,64.6,60,0,69.0,60.0,28.1,60,0,39.0,18.0,239,0.0,1021.4,60,0,1021.4,0,1007.1,60,0,46.2,60,0
86282,2013-02-03 12:00:00,7980,60,0,0.0,0.0,0.0,60,0,0.0,0.0,0.0,60,0,0.0,0.0,0.0,60,0,0.0,0.0,337.4,60,0,342.9,323.3,0,0,0,28.1,60,0,10.2,60,0,10.4,10.1,7.4,60,0,7.6,7.1,3.9,60,0,4.6,3.0,64.6,60,0,69.0,60.0,28.1,60,0,39.0,18.0,239,0.0,1021.4,60,0,1021.4,0,1007.1,60,0,46.2,60,0
86282,2013-02-04 00:00:00,7990,60,0,0.0,0.0,0.0,60,0,0.0,0.0,0.0,60,0,0.0,0.0,0.0,60,0,0.0,0.0,337.4,60,0,342.9,323.3,0,0,0,28.1,60,0,10.2,60,0,10.4,10.1,7.4,60,0,7.6,7.1,3.9,60,0,4.6,3.0,64.6,60,0,69.0,60.0,28.1,60,0,39.0,18.0,239,0.0,1021.4,60,0,1021.4,0,1007.1,60,0,46.2,60,0
86282,2013-02-04 12:00:00,8000,60,0,0.0,0.0,0.0,60,0,0.0,0.0,0.0,60,0,0.0,0.0,0.0,60,0,0.0,0.0,337.4,60,0,342.9,323.3,0,0,0,28.1,60,0,10.2,60,0,10.4,10.1,7.4,60,0,7.6,7.1,3.9,60,0,4.6,3.0,64.6,60,0,69.0,60.0,28.1,60,0,39.0,18.0,239,0.0,1021.4,60,0,1021.4,0,1007.1,60,0,46.2,60,0
86282,2013-02-05 00:00:00,8010,60,0,0.0,0.0,0.0,60,0,0.0,0.0,0.0,60,0,0.0,0.0,0.0,60,0,0.0,0.0,337.4,60,0,342.9,323.3,0,0,0,28.1,60,0,10.2,60,0,10.4,10.1,7.4,60,0,7.6,7.1,3.9,60,0,4.6,3.0,64.6,60,0,69.0,60.0,28.1,60,0,39.0,18.0,239,0.0,1021.4,60,0,1021.4,0,1007.1,60,0,46.2,60,0
86282,2013-02-05 12:00:00,8020,60,0,0.0,0.0,0.0,60,0,0.0,0.0,0.0,60,0,0.0,0.0,0.0,60,0,0.0,0.0,337.4,60,0,342.9,323.3,0,0,0,28.1,60,0,10.2,60,0,10.4,10.1,7.4,60,0,7.6,7.1,3.9,60,0,4.6,3.0,64.6,60,0,69.0,60.0,28.1,60,0,39.0,18.0,239,0.0,1021.4,60,0,1021.4,0,1007.1,60,0,46.2,60,0
86282,2013-02-06 00:00:00,8030,60,0,0.0,0.0,0.0,60,0,0.0,0.0,0.0,60,0,0.0,0.0,0.0,60,0,0.0,0.0,337.4,60,0,342.9,323.3,0,0,0,28.1,60,0,10.2,60,0,10.4,10.1,7.4,60,0,7.6,7.1,3.9,60,0,4.6,3.0,64.6,60,0,69.0,60.0,28.1,60,0,39.0,18.0,239,0.0,1021.4,60,0,1021.4,0,1007.1,60,0,46.2,60,0
86282,2013-02-06 12:00:00,8040,60,0,0.0,0.0,0.0,60,0,0.0,0.0,0.0,60,0,0.0,0.0,0.0,60,0,0.0,0.0,337.4,60,0,342.9,323.3,0,0,0,28.1,60,0,10.2,60,0,10.4,10.1,7.4,60,0,7.6,7.1,3.9,60,0,4.6,3.0,64.6,60,0,69.0,60.0,28.1,60,0,39.0,18.0,239,0.0,1021.4,60,0,1021.4,0,1007.1,60,0,46.2,60,0
86282,2013-02-07 00:00:00,8050,60,0,0.0,0.0,0.0,60,0,0.0,0.0,0.0,60,0,0.0,0.0,0.0,60,0,0.0,0.0,337.4,60,0,342.9,323.3,0,0,0,28.1,60,0,10.2,60,0,10.4,10.1,7.4,60,0,7.6,7.1,3.9,60,0,4.6,3.0,64.6,60,0,69.0,60.0,28.1,60,0,39.0,18.0,239,0.0,1021.4,60,0,1021.4,0,1007.1,60,0,46.2,60,0
86282,2013-02-07 12:00:00,8060,60,0,0.0,0.0,0.0,60,0,0.0,0.0,0.0,60,0,0.0,0.0,0.0,60,0,0.0,0.0,337.4,60,0,342.9,323.3,0,0,0,28.1,60,0,10.2,60,0,10.4,10.1,7.4,60,0,7.6,7.1,3.9,60,0,4.6,3.0,64.6,60,0,69.0,60.0,28.1,60,0,39.0,18.0,239,0.0,1021.4,60,0,1021.4,0,1007.1,60,0,46.2,60,0
86282,2013-02-08 00:00:00,8070,60,0,0.0,0.0,0.0,60,0,0.0,0.0,0.0,60,0,0.0,0.0,0.0,60,0,0.0,0.0,337.4,60,0,342.9,323.3,0,0,0,28.1,60,0,10.2,60,0,10.4,10.1,7.4,60,0,7.6,7.1,3.9,60,0,4.6,3.0,64.6,60,0,69.0,60.0,28.1,60,0,39.0,18.0,239,0.0,1021.4,60,0,1021.4,0,1007.1,60,0,46.2,60,0
86282,2013-02-08 12:00:00,8080,60,0,0.0,0.0,0.0,60,0,0.0,0.0,0.0,60,0,0.0,0.0,0.0,60,0,0.0,0.0,337.4,60,0,342.9,323.3,0,0,0,28.1,60,0,10.2,60,0,10.4,10.1,7.4,60,0,7.6,7.1,3.9,60,0,4.6,3.0,64.6,60,0,69.0,60.0,28.1,60,0,39.0,18.0,239,0.0,1021.4,60,0,1021.4,0,1007.1,60,0,46.2,60,0
86282,2013-02-09 00:00:00,8090,60,0,0.0,0.0,0.0,60,0,0.0,0.0,0.0,60,0,0.0,0.0,0.0,60,0,0.0,0.0,337.4,60,0,342.9,323.3,0,0,0,28.1,60,0,10.2,60,0,10.4,10.1,7.4,60,0,7.6,7.1,3.9,60,0,4.6,3.0,64.6,60,0,69.0,60.0,28.1,60,0,39.0,18.0,239,0.0,1021.4,60,0,1021.4,0,1007.1,60,0,46.2,60,0
86282,2013-02-09 12:00:00,8100,60,0,0.0,0.0,0.0,60,0,0.0,0.0,0.0,60,0,0.0,0.0,0.0,60,0,0.0,0.0,337.4,60,0,342.9,323.3,0,0,0,28.1,60,0,10.2,60,0,10.4,10.1,7.4,60,0,7.6,7.1,3.9,60,0,4.6,3.0,64.6,60,0,69.0,60.0,28.1,60,0,39.0,18.0,239,0.0,1021.4,60,0,1021.4,0,1007.1,60,0,46.2,60,0
86282,2013-02-10 00:00:00,8110,60,0,0.0,0.0,0.0,60,0,0.0,0.0,0.0,60,0,0.0,0.0,0.0,60,0,0.0,0.0,337.4,60,0,342.9,323.3,0,0,0,28.1,60,0,10.2,60,0,10.4,10.1,7.4,60,0,7.6,7.1,3.9,60,0,4.6,3.0,64.6,60,0,69.0,60.0,28.1,60,0,39.0,18.0,239,0.0,1021.4,60,0,1021.4,0,1007.1,60,0,46.2,60,0
86282,2013-02-10 12:00:00,8120,60,0,0.0,0.0,0.0,60,0,0.0,0.0,0.0,60,0,0.0,0.0,0.0,60,0,0.0,0.0,337.4,60,0,342.9,323.3,0,0,0,28.1,60,0,10.2,60,0,10.4,10.1,7.4,60,0,7.6,7.1,3.9,60,0,4.6,3.0,64.6,60,0,69.0,60.0,28.1,60,0,39.0,18.0,239,0.0,1021.4,60,0,1021.4,0,1007.1,60,0,46.2,60,0
86282,2013-02-11 00:00:00,8130,60,0,0.0,0.0,0.0,60,0,0.0,0.0,0.0,60,0,0.0,0.0,0.0,60,0,0.0,0.0,337.4,60,0,342.9,323.3,0,0,0,28.1,60,0,10.2,60,0,10.4,10.1,7.4,60,0,7.6,7.1,3.9,60,0,4.6,3.0,64.6,60,0,69.0,60.0,28.1,60,0,39.0,18.0,239,0.0,1021.4,60,0,1021.4,0,1007.1,60,0,46.2,60,0
86282,2013-02-11 12:00:00,8140,60,0,0.0,0.0,0.0,60,0,0.0,0.0,0.0,60,0,0.0,0.0,0.0,60,0,0.0,0.0,337.4,60,0,342.9,323.3,0,0,0,28.1,60,0,10.2,60,0,10.4,10.1,7.4,60,0,7.6,7.1,3.9,60,0,4.6,3.0,64.6,60,0,69.0,60.0,28.1,60,0,39.0,18.0,239,0.0,1021.4,60,0,1021.4,0,1007.1,60,0,46.2,60,0
86282,2013-02-12 00:00:00,8150,60,0,0.0,0.0,0.0,60,0,0.0,0.0,0.0,60,0,0.0,0.0,0.0,60,0,0.0,0.0,337.4,60,0,342.9,323.3,0,0,0,28.1,60,0,10.2,60,0,10.4,10.1,7.4,60,0,7.6,7.1,3.9,60,0,4.6,3.0,64.6,60,0,69.0,60.0,28.1,60,0,39.0,18.0,239,0.0,1021.4,60,0,1021.4,0,1007.1,60,0,46.2,60,0
86282,2013-02-12 12:00:00,8160,60,0,0.0,0.0,0.0,60,0,0.0,0.0,0.0,60,0,0.0,0.0,0.0,60,0,0.0,0.0,337.4,60,0,342.9,323.3,0,0,0,28.1,60,0,10.2,60,0,10.4,10.1,7.4,60,0,7.6,7.1,3.9,60,0,4.6,3.0,64.6,60,0,69.0,60.0,28.1,60,0,39.0,18.0,239,0.0,1021.4,60,0,1021.4,0,1007.1,60,0,46.2,60,0
86282,2013-02-13 00:00:00,8170,60,0,0.0,0.0,0.0,60,0,0.0,0.0,0.0,60,0,0.0,0.0,0.0,60,0,0.0,0.0,337.4,60,0,342.9,323.3,0,0,0,28.1,60,0,10.2,60,0,10.4,10.1,7.4,60,0,7.6,7.1,3.9,60,0,4.6,3.0,64.6,60,0,69.0,60.0,28.1,60,0,39.0,18.0,239,0.0,1021.4,60,0,1021.4,0,1007.1,60,0,46.2,60,0
86282,2013-02-13 12:00:00,8180,60,0,0.0,0.0,0.0,60,0,0.0,0.0,0.0,60,0,0.0,0.0,0.0,60,0,0.0,0.0,337.4,60,0,342.9,323.3,0,0,0,28.1,60,0,10.2,60,0,10.4,10.1,7.4,60,0,7.6,7.1,3.9,60,0,4.6,3.0,64.6,60,0,69.0,60.0,28.1,60,0,39.0,18.0,239,0.0,1021.4,60,0,1021.4,0,1007.1,60,0,46.2,60,0
86282,2013-02-14 00:00:00,8190,60,0,0.0,0.0,0.0,60,0,0.0,0.0,0.0,60,0,0.0,0.0,0.0,60,0,0.0,0.0,337.4,60,0,342.9,323.3,0,0,0,28.1,60,0,10.2,60,0,10.4,10.1,7.4,60,0,7.6,7.1,3.9,60,0,4.6,3.0,64.6,60,0,69.0,60.0,28.1,60,0,39.0,18.0,239,0.0,1021.4,60,0,1021.4,0,1007.1,60,0,46.2,60,0
86282,2013-02-14 12:00:00,8200,60,0,0.0,0.0,0.0,60,0,0.0,0.0,0.0,60,0,0.0,0.0,0.0,60,0,0.0,0.0,337.4,60,0,342.9,323.3,0,0,0,28.1,60,0,10.2,60,0,10.4,10.1,7.4,60,0,7.6,7.1,3.9,60,0,4.6,3.0,64.6,60,0,69.0,60.0,28.1,60,0,39.0,18.0,239,0.0,1021.4,60,0,1021.4,0,1007.1,60,0,46.2,60,0
86282,2013-02-15 00:00:00,8210,60,0,0.0,0.0,0.0,60,0,0.0,0.0,0.0,60,0,0.0,0.0,0.0,60,0,0.0,0.0,337.4,60,0,342.9,323.3,0,0,0,28.1,60,0,10.2,60,0,10.4,10.1,7.4,60,0,7.6,7.1,3.9,60,0,4.6,3.0,64.6,60,0,69.0,60.0,28.1,60,0,39.0,18.0,239,0.0,1021.4,60,0,1021.4,0,1007.1,60,0,46.2,60,0
86282,2013-02-15 12:00:00,8220,60,0,0.0,0.0,0.0,60,0,0.0,0.0,0.0,60,0,0.0,0.0,0.0,60,0,0.0,0.0,337.4,60,0,342.9,323.3,0,0,0,28.1,60,0,10.2,60,0,10.4,10.1,7.4,60,0,7.6,7.1,3.9,60,0,4.6,3.0,64.6,60,0,69.0,60.0,28.1,60,0,39.0,18.0,239,0.0,1021.4,60,0,1021.4,0,1007.1,60,0,46.2,60,0
86282,2013-02-16 00:00:00,8230,60,0,0.0,0.0,0.0,60,0,0.0,0.0,0.0,60,0,0.0,0.0,0.0,60,0,0.0,0.0,337.4,60,0,342.9,323.3,0,0,0,28.1,60,0,10.2,60,0,10.4,10.1,7.4,60,0,7.6,7.1,3.9,60,0,4.6,3.0,64.6,60,0,69.0,60.0,28.1,60,0,39.0,18.0,239,0.0,1021.4,60,0,1021.4,0,1007.1,60,0,46.2,60,0
86282,2013-02-16 12:00:00,8240,60,0,0.0,0.0,0.0,60,0,0.0,0.0,0.0,60,0,0.0,0.0,0.0,60,0,0.0,0.0,337.4,60,0,342.9,323.3,0,0,0,28.1,60,0,10.2,60,0,10.4,10.1,7.4,60,0,7.6,7.1,3.9,60,0,4.6,3.0,64.6,60,0,69.0,60.0,28.1,60,0,39.0,18.0,239,0.0,1021.4,60,0,1021.4,0,1007.1,60,0,46.2,60,0
86282,2013-02-17 00:00:00,8250,60,0,0.0,0.0,0.0,60,0,0.0,0.0,0.0,60,0,0.0,0.0,0.0,60,0,0.0,0.0,337.4,60,0,342.9,323.3,0,0,0,28.1,60,0,10.2,60,0,10.4,10.1,7.4,60,0,7.6,7.1,3.9,60,0,4.6,3.0,64.6,60,0,69.0,60.0,28.1,60,0,39.0,18.0,239,0.0,1021.4,60,0,1021.4,0,1007.1,60,0,46.2,60,0
86282,2013-02-17 12:00:00,8260,60,0,0.0,0.0,0.0,60,0,0.0,0.0,0.0,60,0,0.0,0.0,0.0,60,0,0.0,0.0,337.4,60,0,342.9,323.3,0,0,0,28.1,60,0,10.2,60,0,10.4,10.1,7.4,60,0,7.6,7.1,3.9,60,0,4.6,3.0,64.6,60,0,69.0,60.0,28.1,60,0,39.0,18.0,239,0.0,1021.4,60,0,1021.4,0,1007.1,60,0,46.2,60,0
86282,2013-02-18 00:00:00,8270,60,0,0.0,0.0,0.0,60,0,0.0,0.0,0.0,60,0,0.0,0.0,0.0,60,0,0.0,0.0,337.4,60,0,342.9,323.3,0,0,0,28.1,60,0,10.2,60,0,10.4,10.1,7.4,60,0,7.6,7.1,3.9,60,0,4.6,3.0,64.6,60,0,69.0,60.0,28.1,60,0,39.0,18.0,239,0.0,1021.4,60,0,1021.4,0,1007.1,60,0,46.2,60,0
86282,2013-02-18 12:00:00,8280,60,0,0.0,0.0,0.0,60,0,0.0,0.0,0.0,60,0,0.0,0.0,0.0,60,0,0.0,0.0,337.4,60,0,342.9,323.3,0,0,0,28.1,60,0,10.2,60,0,10.4,10.1,7.4,60,0,7.6,7.1,3.9,60,0,4.6,3.0,64.6,60,0,69.0,60.0,28.1,60,0,39.0,18.0,239,0.0,1021.4,60,0,1021.4,0,1007.1,60,0,46.2,60,0
86282,2013-02-19 00:00:00,8290,60,0,0.0,0.0,0.0,60,0,0.0,0.0,0.0,60,0,0.0,0.0,0.0,60,0,0.0,0.0,337.4,60,0,342.9,323.3,0,0,0,28.1,60,0,10.2,60,0,10.4,10.1,7.4,60,0,7.6,7.1,3.9,60,0,4.6,3.0,64.6,60,0,69.0,60.0,28.1,60,0,39.0,18.0,239,0.0,1021.4,60,0,1021.4,0,1007.1,60,0,46.2,60,0
86282,2013-02-19 12:00:00,8300,60,0,0.0,0.0,0.0,60,0,0.0,0.0,0.0,60,0,0.0,0.0,0.0,60,0,0.0,0.0,337.4,60,0,342.9,323.3,0,0,0,28.1,60,0,10.2,60,0,10.4,10.1,7.4,60,0,7.6,7.1,3.9,60,0,4.6,3.0,64.6,60,0,69.0,60.0,28.1,60,0,39.0,18.0,239,0.0,1021.4,60,0,1021.4,0,1007.1,60,0,46.2,60,0
86282,2013-02-20 00:00:00,8310,60,0,0.0,0.0,0.0,60,0,0.0,0.0,0.0,60,0,0.0,0.0,0.0,60,0,0.0,0.0,337.4,60,0,342.9,323.3,0,0,0,28.1,60,0,10.2,60,0,10.4,10.1,7.4,60,0,7.6,7.1,3.9,60,0,4.6,3.0,64.6,60,0,69.0,60.0,28.1,60,0,39.0,18.0,239,0.0,1021.4,60,0,1021.4,0,1007.1,60,0,46.2,60,0
86282,2013-02-20 12:00:00,8320,60,0,0.0,0.0,0.0,60,0,0.0,0.0,0.0,60,0,0.0,0.0,0.0,60,0,0.0,0.0,337.4,60,0,342.9,323.3,0,0,0,28.1,60,0,10.2,60,0,10.4,10.1,7.4,60,0,7.6,7.1,3.9,60,0,4.6,3.0,64.6,60,0,69.0,60.0,28.1,60,0,39.0,18.0,239,0.0,1021.4,60,0,1021.4,0,1007.1,60,0,46.2,60,0
86282,2013-02-21 00:00:00,8330,60,0,0.0,0.0,0.0,60,0,0.0,0.0,0.0,60,0,0.0,0.0,0.0,60,0,0.0,0.0,337.4,60,0,342.9,323.3,0,0,0,28.1,60,0,10.2,60,0,10.4,10.1,7.4,60,0,7.6,7.1,3.9,60,0,4.6,3.0,64.6,60,0,69.0,60.0,28.1,60,0,39.0,18.0,239,0.0,1021.4,60,0,1021.4,0,1007.1,60,0,46.2,60,0
86282,2013-02-21 12:00:00,8340,60,0,0.0,0.0,0.0,60,0,0.0,0.0,0.0,60,0,0.0,0.0,0.0,60,0,0.0,0.0,337.4,60,0,342.9,323.3,0,0,0,28.1,60,0,10.2,60,0,10.4,10.1,7.4,60,0,7.6,7.1,3.9,60,0,4.6,3.0,64.6,60,0,69.0,60.0,28.1,60,0,39.0,18.0,239,0.0,1021.4,60,0,1021.4,0,1007.1,60,0,46.2,60,0
86282,2013-02-22 00:00:00,8350,60,0,0.0,0.0,0.0,60,0,0.0,0.0,0.0,60,0,0.0,0.0,0.0,60,0,0.0,0.0,337.4,60,0,342.9,323.3,0,0,0,28.1,60,0,10.2,60,0,10.4,10.1,7.4,60,0,7.6,7.1,3.9,60,0,4.6,3.0,64.6,60,0,69.0,60.0,28.1,60,0,39.0,18.0,239,0.0,1021.4,60,0,1021.4,0,1007.1,60,0,46.2,60,0
86282,2013-02-22 12:00:00,8360,60,0,0.0,0.0,0.0,60,0,0.0,0.0,0.0,60,0,0.0,0.0,0.0,60,0,0.0,0.0,337.4,60,0,342.9,323.3,0,0,0,28.1,60,0,10.2,60,0,10.4,10.1,7.4,60,0,7.6,7.1,3.9,60,0,4.6,3.0,64.6,60,0,69.0,60.0,28.1,60,0,39.0,18.0,239,0.0,1021.4,60,0,1021.4,0,1007.1,60,0,46.2,60,0
86282,2013-02-23 00:00:00,8370,60,0,0.0,0.0,0.0,60,0,0.0,0.0,0.0,60,0,0.0,0.0,0.0,60,0,0.0,0.0,337.4,60,0,342.9,323.3,0,0,0,28.1,60,0,10.2,60,0,10.4,10.1,7.4,60,0,7.6,7.1,3.9,60,0,4.6,3.0,64.6,60,0,69.0,60.0,28.1,60,0,39.0,18.0,239,0.0,1021.4,60,0,1021.4,0,1007.1,60,0,46.2,60,0
86282,2013-02-23 12:00:00,8380,60,0,0.0,0.0,0.0,60,0,0.0,0.0,0.0,60,0,0.0,0.0,0.0,60,0,0.0,0.0,337.4,60,0,342.9,323.3,0,0,0,28.1,60,0,10.2,60,0,10.4,10.1,7.4,60,0,7.6,7.1,3.9,60,0,4.6,3.0,64.6,60,0,69.0,60.0,28.1,60,0,39.0,18.0,239,0.0,1021.4,60,0,1021.4,0,1007.1,60,0,46.2,60,0
86282,2013-02-24 00:00:00,8390,60,0,0.0,0.0,0.0,60,0,0.0,0.0,0.0,60,0,0.0,0.0,0.0,60,0,0.0,0.0,337.4,60,0,342.9,323.3,0,0,0,28.1,60,0,10.2,60,0,10.4,10.1,7.4,60,0,7.6,7.1,3.9,60,0,4.6,3.0,64.6,60,0,69.0,60.0,28.1,60,0,39.0,18.0,239,0.0,1021.4,60,0,1021.4,0,1007.1,60,0,46.2,60,0
86282,2013-02-24 12:00:00,8400,60,0,0.0,0.0,0.0,60,0,0.0,0.0,0.0,60,0,0.0,0.0,0.0,60,0,0.0,0.0,337.4,60,0,342.9,323.3,0,0,0,28.1,60,0,10.2,60,0,10.4,10.1,7.4,60,0,7.6,7.1,3.9,60,0,4.6,3.0,64.6,60,0,69.0,60.0,28.1,60,0,39.0,18.0,239,0.0,1021.4,60,0,1021.4,0,1007.1,60,0,46.2,60,0
86282,2013-02-25 00:00:00,8410,60,0,0.0,0.0,0.0,60,0,0.0,0.0,0.0,60,0,0.0,0.0,0.0,60,0,0.0,0.0,337.4,60,0,342.9,323.3,0,0,0,28.1,60,0,10.2,60,0,10.4,10.1,7.4,60,0,7.6,7.1,3.9,60,0,4.6,3.0,64.6,60,0,69.0,60.0,28.1,60,0,39.0,18.0,239,0.0,1021.4,60,0,1021.4,0,1007.1,60,0,46.2,60,0
86282,2013-02-25 12:00:00,8420,60,0,0.0,0.0,0.0,60,0,0.0,0.0,0.0,60,0,0.0,0.0,0.0,60,0,0.0,0.0,337.4,60,0,342.9,323.3,0,0,0,28.1,60,0,10.2,60,0,10.4,10.1,7.4,60,0,7.6,7.1,3.9,60,0,4.6,3.0,64.6,60,0,69.0,60.0,28.1,60,0,39.0,18.0,239,0.0,1021.4,60,0,1021.4,0,1007.1,60,0,46.2,60,0
86282,2013-02-26 00:00:00,8430,60,0,0.0,0.0,0.0,60,0,0.0,0.0,0.0,60,0,0.0,0.0,0.0,60,0,0.0,0.0,337.4,60,0,342.9,323.3,0,0,0,28.1,60,0,10.2,60,0,10.4,10.1,7.4,60,0,7.6,7.1,3.9,60,0,4.6,3.0,64.6,60,0,69.0,60.0,28.1,60,0,39.0,18.0,239,0.0,1021.4,60,0,1021.4,0,1007.1,60,0,46.2,60,0
86282,2013-02-26 12:00:00,8440,60,0,0.0,0.0,0.0,60,0,0.0,0.0,0.0,60,0,0.0,0.0,0.0,60,0,0.0,0.0,337.4,60,0,342.9,323.3,0,0,0,28.1,60,0,10.2,60,0,10.4,10.1,7.4,60,0,7.6,7.1,3.9,60,0,4.6,3.0,64.6,60,0,69.0,60.0,28.1,60,0,39.0,18.0,239,0.0,1021.4,60,0,1021.4,0,1007.1,60,0,46.2,60,0
86282,2013-02-27 00:00:00,8450,60,0,0.0,0.0,0.0,60,0,0.0,0.0,0.0,60,0,0.0,0.0,0.0,60,0,0.0,0.0,337.4,60,0,342.9,323.3,0,0,0,28.1,60,0,10.2,60,0,10.4,10.1,7.4,60,0,7.6,7.1,3.9,60,0,4.6,3.0,64.6,60,0,69.0,60.0,28.1,60,0,39.0,18.0,239,0.0,1021.4,60,0,1021.4,0,1007.1,60,0,46.2,60,0
86282,2013-02-27 12:00:00,8460,60,0,0.0,0.0,0.0,60,0,0.0,0.0,0.0,60,0,0.0,0.0,0.0,60,0,0.0,0.0,337.4,60,0,342.9,323.3,0,0,0,28.1,60,0,10.2,60,0,10.4,10.1,7.4,60,0,7.6,7.1,3.9,60,0,4.6,3.0,64.6,60,0,69.0,60.0,28.1,60,0,39.0,18.0,239,0.0,1021.4,60,0,1021.4,0,1007.1,60,0,46.2,60,0
86282,2013-02-28 00:00:00,8470,60,0,0.0,0.0,0.0,60,0,0.0,0.0,0.0,60,0,0.0,0.0,0.0,60,0,0.0,0.0,337.4,60,0,342.9,323.3,0,0,0,28.1,60,0,10.2,60,0,10.4,10.1,7.4,60,0,7.6,7.1,3.9,60,0,4.6,3.0,64.6,60,0,69.0,60.0,28.1,60,0,39.0,18.0,239,0.0,1021.4,60,0,1021.4,0,1007.1,60,0,46.2,60,0
86282,2013-02-28 12:00:00,8480,60,0,0.0,0.0,0.0,60,0,0.0,0.0,0.0,60,0,0.0,0.0,0.0,60,0,0.0,0.0,337.4,60,0,342.9,323.3,0,0,0,28.1,60,0,10.2,60,0,10.4,10.1,7.4,60,0,7.6,7.1,3.9,60,0,4.6,3.0,64.6,60,0,69.0,60.0,28.1,60,0,39.0,18.0,239,0.0,1021.4,60,0,1021.4,0,1007.1,60,0,46.2,60,0
86282,2013-03-01 00:00:00,8490,60,0,0.0,0.0,0.0,60,0,0.0,0.0,0.0,60,0,0.0,0.0,0.0,60,0,0.0,0.0,337.4,60,0,342.9,323.3,0,0,0,28.1,60,0,10.2,60,0,10.4,10.1,7.4,60,0,7.6,7.1,3.9,60,0,4.6,3.0,64.6,60,0,69.0,60.0,28.1,60,0,39.0,18.0,239,0.0,1021.4,60,0,1021.4,0,1007.1,60,0,46.2,60,0
86282,2013-03-01 12:00:00,8500,60,0,0.0,0.0,0.0,60,0,0.0,0.0,0.0,60,0,0.0,0.0,0.0,60,0,0.0,0.0,337.4,60,0,342.9,323.3,0,0,0,28.1,60,0,10.2,60,0,10.4,10.1,7.4,60,0,7.6,7.1,3.9,60,0,4.6,3.0,64.6,60,0,69.0,60.0,28.1,60,0,39.0,18.0,239,0.0,1021.4,60,0,1021.4,0,1007.1,60,0,46.2,60,0
86282,2013-03-02 00:00:00,8510,60,0,0.0,0.0,0.0,60,0,0.0,0.0,0.0,60,0,0.0,0.0,0.0,60,0,0.0,0.0,337.4,60,0,342.9,323.3,0,0,0,28.1,60,0,10.2,60,0,10.4,10.1,7.4,60,0,7.6,7.1,3.9,60,0,4.6,3.0,64.6,60,0,69.0,60.0,28.1,60,0,39.0,18.0,239,0.0,1021.4,60,0,1021.4,0,1007.1,60,0,46.2,60,0
86282,2013-03-02 12:00:00,8520,60,0,0.0,0.0,0.0,60,0,0.0,0.0,0.0,60,0,0.0,0.0,0.0,60,0,0.0,0.0,337.4,60,0,342.9,323.3,0,0,0,28.1,60,0,10.2,60,0,10.4,10.1,7.4,60,0,7.6,7.1,3.9,60,0,4.6,3.0,64.6,60,0,69.0,60.0,28.1,60,0,39.0,18.0,239,0.0,1021.4,60,0,1021.4,0,1007.1,60,0,46.2,60,0
86282,2013-03-03 00:00:00,8530,60,0,0.0,0.0,0.0,60,0,0.0,0.0,0.0,60,0,0.0,0.0,0.0,60,0,0.0,0.0,337.4,60,0,342.9,323.3,0,0,0,28.1,60,0,10.2,60,0,10.4,10.1,7.4,60,0,7.6,7.1,3.9,60,0,4.6,3.0,64.6,60,0,69.0,60.0,28.1,60,0,39.0,18.0,239,0.0,1021.4,60,0,1021.4,0,1007.1,60,0,46.2,60,0
86282,2013-03-03 12:00:00,8540,60,0,0.0,0.0,0.0,60,0,0.0,0.0,0.0,60,0,0.0,0.0,0.0,60,0,0.0,0.0,337.4,60,0,342.9,323.3,0,0,0,28.1,60,0,10.2,60,0,10.4,10.1,7.4,60,0,7.6,7.1,3.9,60,0,4.6,3.0,64.6,60,0,69.0,60.0,28.1,60,0,39.0,18.0,239,0.0,1021.4,60,0,1021.4,0,1007.1,60,0,46.2,60,0
86282,2013-03-04 00:00:00,8550,60,0,0.0,0.0,0.0,60,0,0.0,0.0,0.0,60,0,0.0,0.0,0.0,60,0,0.0,0.0,337.4,60,0,342.9,323.3,0,0,0,28.1,60,0,10.2,60,0,10.4,10.1,7.4,60,0,7.6,7.1,3.9,60,0,4.6,3.0,64.6,60,0,69.0,60.0,28.1,60,0,39.0,18.0,239,0.0,1021.4,60,0,1021.4,0,1007.1,60,0,46.2,60,0
86282,2013-03-04 12:00:00,8560,60,0,0.0,0.0,0.0,60,0,0.0,0.0,0.0,60,0,0.0,0.0,0.0,60,0,0.0,0.0,337.4,60,0,342.9,323.3,0,0,0,28.1,60,0,10.2,60,0,10.4,10.1,7.4,60,0,7.6,7.1,3.9,60,0,4.6,3.0,64.6,60,0,69.0,60.0,28.1,60,0,39.0,18.0,239,0.0,1021.4,60,0,1021.4,0,1007.1,60,0,46.2,60,0
86282,2013-03-05 00:00:00,8570,60,0,0.0,0.0,0.0,60,0,0.0,0.0,0.0,60,0,0.0,0.0,0.0,60,0,0.0,0.0,337.4,60,0,342.9,323.3,0,0,0,28.1,60,0,10.2,60,0,10.4,10.1,7.4,60,0,7.6,7.1,3.9,60,0,4.6,3.0,64.6,60,0,69.0,60.0,28.1,60,0,39.0,18.0,239,0.0,1021.4,60,0,1021.4,0,1007.1,60,0,46.2,60,0
86282,2013-03-05 12:00:00,8580,60,0,0.0,0.0,0.0,60,0,0.0,0.0,0.0,60,0,0.0,0.0,0.0,60,0,0.0,0.0,337.4,60,0,342.9,323.3,0,0,0,28.1,60,0,10.2,60,0,10.4,10.1,7.4,60,0,7.6,7.1,3.9,60,0,4.6,3.0,64.6,60,0,69.0,60.0,28.1,60,0,39.0,18.0,239,0.0,1021.4,60,0,1021.4,0,1007.1,60,0,46.2,60,0
86282,2013-03-06 00:00:00,8590,60,0,0.0,0.0,0.0,60,0,0.0,0.0,0.0,60,0,0.0,0.0,0.0,60,0,0.0,0.0,337.4,60,0,342.9,323.3,0,0,0,28.1,60,0,10.2,60,0,10.4,10.1,7.4,60,0,7.6,7.1,3.9,60,0,4.6,3.0,64.6,60,0,69.0,60.0,28.1,60,0,39.0,18.0,239,0.0,1021.4,60,0,1021.4,0,1007.1,60,0,46.2,60,0
86282,2013-03-06 12:00:00,8600,60,0,0.0,0.0,0.0,60,0,0.0,0.0,0.0,60,0,0.0,0.0,0.0,60,0,0.0,0.0,337.4,60,0,342.9,323.3,0,0,0,28.1,60,0,10.2,60,0,10.4,10.1,7.4,60,0,7.6,7.1,3.9,60,0,4.6,3.0,64.6,60,0,69.0,60.0,28.1,60,0,39.0,18.0,239,0.0,1021.4,60,0,1021.4,0,1007.1,60,0,46.2,60,0
86282,2013-03-07 00:00:00,8610,60,0,0.0,0.0,0.0,60,0,0.0,0.0,0.0,60,0,0.0,0.0,0.0,60,0,0.0,0.0,337.4,60,0,342.9,323.3,0,0,0,28.1,60,0,10.2,60,0,10.4,10.1,7.4,60,0,7.6,7.1,3.9,60,0,4.6,3.0,64.6,60,0,69.0,60.0,28.1,60,0,39.0,18.0,239,0.0,1021.4,60,0,1021.4,0,1007.1,60,0,46.2,60,0
86282,2013-03-07 12:00:00,8620,60,0,0.0,0.0,0.0,60,0,0.0,0.0,0.0,60,0,0.0,0.0,0.0,60,0,0.0,0.0,337.4,60,0,342.9,323.3,0,0,0,28.1,60,0,10.2,60,0,10.4,10.1,7.4,60,0,7.6,7.1,3.9,60,0,4.6,3.0,64.6,60,0,69.0,60.0,28.1,60,0,39.0,18.0,239,0.0,1021.4,60,0,1021.4,0,1007.1,60,0,46.2,60,0
86282,2013-03-08 00:00:00,8630,60,0,0.0,0.0,0.0,60,0,0.0,0.0,0.0,60,0,0.0,0.0,0.0,60,0,0.0,0.0,337.4,60,0,342.9,323.3,0,0,0,28.1,60,0,10.2,60,0,10.4,10.1,7.4,60,0,7.6,7.1,3.9,60,0,4.6,3.0,64.6,60,0,69.0,60.0,28.1,60,0,39.0,18.0,239,0.0,1021.4,60,0,1021.4,0,1007.1,60,0,46.2,60,0
86282,2013-03-08 12:00:00,8640,60,0,0.0,0.0,0.0,60,0,0.0,0.0,0.0,60,0,0.0,0.0,0.0,60,0,0.0,0.0,337.4,60,0,342.9,323.3,0,0,0,28.1,60,0,10.2,60,0,10.4,10.1,7.4,60,0,7.6,7.1,3.9,60,0,4.6,3.0,64.6,60,0,69.0,60.0,28.1,60,0,39.0,18.0,239,0.0,1021.4,60,0,1021.4,0,1007.1,60,0,46.2,60,0
86282,2013-03-09 00:00:00,8650,60,0,0.0,0.0,0.0,60,0,0.0,0.0,0.0,60,0,0.0,0.0,0.0,60,0,0.0,0.0,337.4,60,0,342.9,323.3,0,0,0,28.1,60,0,10.2,60,0,10.4,10.1,7.4,60,0,7.6,7.1,3.9,60,0,4.6,3.0,64.6,60,0,69.0,60.0,28.1,60,0,39.0,18.0,239,0.0,1021.4,60,0,1021.4,0,1007.1,60,0,46.2,60,0
86282,2013-03-09 12:00:00,8660,60,0,0.0,0.0,0.0,60,0,0.0,0.0,0.0,60,0,0.0,0.0,0.0,60,0,0.0,0.0,337.4,60,0,342.9,323.3,0,0,0,28.1,60,0,10.2,60,0,10.4,10.1,7.4,60,0,7.6,7.1,3.9,60,0,4.6,3.0,64.6,60,0,69.0,60.0,28.1,60,0,39.0,18.0,239,0.0,1021.4,60,0,1021.4,0,1007.1,60,0,46.2,60,0
86282,2013-03-10 00:00:00,8670,60,0,0.0,0.0,0.0,60,0,0.0,0.0,0.0,60,0,0.0,0.0,0.0,60,0,0.0,0.0,337.4,60,0,342.9,323.3,0,0,0,28.1,60,0,10.2,60,0,10.4,10.1,7.4,60,0,7.6,7.1,3.9,60,0,4.6,3.0,64.6,60,0,69.0,60.0,28.1,60,0,39.0,18.0,239,0.0,1021.4,60,0,1021.4,0,1007.1,60,0,46.2,60,0
86282,2013-03-10 12:00:00,8680,60,0,0.0,0.0,0.0,60,0,0.0,0.0,0.0,60,0,0.0,0.0,0.0,60,0,0.0,0.0,337.4,60,0,342.9,323.3,0,0,0,28.1,60,0,10.2,60,0,10.4,10.1,7.4,60,0,7.6,7.1,3.9,60,0,4.6,3.0,64.6,60,0,69.0,60.0,28.1,60,0,39.0,18.0,239,0.0,1021.4,60,0,1021.4,0,1007.1,60,0,46.2,60,0
86282,2013-03-11 00:00:00,8690,60,0,0.0,0.0,0.0,60,0,0.0,0.0,0.0,60,0,0.0,0.0,0.0,60,0,0.0,0.0,337.4,60,0,342.9,323.3,0,0,0,28.1,60,0,10.2,60,0,10.4,10.1,7.4,60,0,7.6,7.1,3.9,60,0,4.6,3.0,64.6,60,0,69.0,60.0,28.1,60,0,39.0,18.0,239,0.0,1021.4,60,0,1021.4,0,1007.1,60,0,46.2,60,0
86282,2013-03-11 12:00:00,8700,60,0,0.0,0.0,0.0,60,0,0.0,0.0,0.0,60,0,0.0,0.0,0.0,60,0,0.0,0.0,337.4,60,0,342.9,323.3,0,0,0,28.1,60,0,10.2,60,0,10.4,10.1,7.4,60,0,7.6,7.1,3.9,60,0,4.6,3.0,64.6,60,0,69.0,60.0,28.1,60,0,39.0,18.0,239,0.0,1021.4,60,0,1021.4,0,1007.1,60,0,46.2,60,0
86282,2013-03-12 00:00:00,8710,60,0,0.0,0.0,0.0,60,0,0.0,0.0,0.0,60,0,0.0,0.0,0.0,60,0,0.0,0.0,337.4,60,0,342.9,323.3,0,0,0,28.1,60,0,10.2,60,0,10.4,10.1,7.4,60,0,7.6,7.1,3.9,60,0,4.6,3.0,64.6,60,0,69.0,60.0,28.1,60,0,39.0,18.0,239,0.0,1021.4,60,0,1021.4,0,1007.1,60,0,46.2,60,0
86282,2013-03-12 12:00:00,8720,60,0,0.0,0.0,0.0,60,0,0.0,0.0,0.0,60,0,0.0,0.0,0.0,60,0,0.0,0.0,337.4,60,0,342.9,323.3,0,0,0,28.1,60,0,10.2,60,0,10.4,10.1,7.4,60,0,7.6,7.1,3.9,60,0,4.6,3.0,64.6,60,0,69.0,60.0,28.1,60,0,39.0,18.0,239,0.0,1021.4,60,0,1021.4,0,1007.1,60,0,46.2,60,0
86282,2013-03-13 00:00:00,8730,60,0,0.0,0.0,0.0,60,0,0.0,0.0,0.0,60,0,0.0,0.0,0.0,60,0,0.0,0.0,337.4,60,0,342.9,323.3,0,0,0,28.1,60,0,10.2,60,0,10.4,10.1,7.4,60,0,7.6,7.1,3.9,60,0,4.6,3.0,64.6,60,0,69.0,60.0,28.1,60,0,39.0,18.0,239,0.0,1021.4,60,0,1021.4,0,1007.1,60,0,46.2,60,0
86282,2013-03-13 12:00:00,8740,60,0,0.0,0.0,0.0,60,0,0.0,0.0,0.0,60,0,0.0,0.0,0.0,60,0,0.0,0.0,337.4,60,0,342.9,323.3,0,0,0,28.1,60,0,10.2,60,0,10.4,10.1,7.4,60,0,7.6,7.1,3.9,60,0,4.6,3.0,64.6,60,0,69.0,60.0,28.1,60,0,39.0,18.0,239,0.0,1021.4,60,0,1021.4,0,1007.1,60,0,46.2,60,0
86282,2013-03-14 00:00:00,8750,60,0,0.0,0.0,0.0,60,0,0.0,0.0,0.0,60,0,0.0,0.0,0.0,60,0,0.0,0.0,337.4,60,0,342.9,323.3,0,0,0,28.1,60,0,10.2,60,0,10.4,10.1,7.4,60,0,7.6,7.1,3.9,60,0,4.6,3.0,64.6,60,0,69.0,60.0,28.1,60,0,39.0,18.0,239,0.0,1021.4,60,0,1021.4,0,1007.1,60,0,46.2,60,0
86282,2013-03-14 12:00:00,8760,60,0,0.0,0.0,0.0,60,0,0.0,0.0,0.0,60,0,0.0,0.0,0.0,60,0,0.0,0.0,337.4,60,0,342.9,323.3,0,0,0,28.1,60,0,10.2,60,0,10.4,10.1,7.4,60,0,7.6,7.1,3.9,60,0,4.6,3.0,64.6,60,0,69.0,60.0,28.1,60,0,39.0,18.0,239,0.0,1021.4,60,0,1021.4,0,1007.1,60,0,46.2,60,0
86282,2013-03-15 00:00:00,8770,60,0,0.0,0.0,0.0,60,0,0.0,0.0,0.0,60,0,0.0,0.0,0.0,60,0,0.0,0.0,337.4,60,0,342.9,323.3,0,0,0,28.1,60,0,10.2,60,0,10.4,10.1,7.4,60,0,7.6,7.1,3.9,60,0,4.6,3.0,64.6,60,0,69.0,60.0,28.1,60,0,39.0,18.0,239,0.0,1021.4,60,0,1021.4,0,1007.1,60,0,46.2,60,0
86282,2013-03-15 12:00:00,8780,60,0,0.0,0.0,0.0,60,0,0.0,0.0,0.0,60,0,0.0,0.0,0.0,60,0,0.0,0.0,337.4,60,0,342.9,323.3,0,0,0,28.1,60,0,10.2,60,0,10.4,10.1,7.4,60,0,7.6,7.1,3.9,60,0,4.6,3.0,64.6,60,0,69.0,60.0,28.1,60,0,39.0,18.0,239,0.0,1021.4,60,0,1021.4,0,1007.1,60,0,46.2,60,0
86282,2013-03-16 00:00:00,8790,60,0,0.0,0.0,0.0,60,0,0.0,0.0,0.0,60,0,0.0,0.0,0.0,60,0,0.0,0.0,337.4,60,0,342.9,323.3,0,0,0,28.1,60,0,10.2,60,0,10.4,10.1,7.4,60,0,7.6,7.1,3.9,60,0,4.6,3.0,64.6,60,0,69.0,60.0,28.1,60,0,39.0,18.0,239,0.0,1021.4,60,0,1021.4,0,1007.1,60,0,46.2,60,0
86282,2013-03-16 12:00:00,8800,60,0,0.0,0.0,0.0,60,0,0.0,0.0,0.0,60,0,0.0,0.0,0.0,60,0,0.0,0.0,337.4,60,0,342.9,323.3,0,0,0,28.1,60,0,10.2,60,0,10.4,10.1,7.4,60,0,7.6,7.1,3.9,60,0,4.6,3.0,64.6,60,0,69.0,60.0,28.1,60,0,39.0,18.0,239,0.0,1021.4,60,0,1021.4,0,1007.1,60,0,46.2,60,0
86282,2013-03-17 00:00:00,8810,60,0,0.0,0.0,0.0,60,0,0.0,0.0,0.0,60,0,0.0,0.0,0.0,60,0,0.0,0.0,337.4,60,0,342.9,323.3,0,0,0,28.1,60,0,10.2,60,0,10.4,10.1,7.4,60,0,7.6,7.1,3.9,60,0,4.6,3.0,64.6,60,0,69.0,60.0,28.1,60,0,39.0,18.0,239,0.0,1021.4,60,0,1021.4,0,1007.1,60,0,46.2,60,0
86282,2013-03-17 12:00:00,8820,60,0,0.0,0.0,0.0,60,0,0.0,0.0,0.0,60,0,0.0,0.0,0.0,60,0,0.0,0.0,337.4,60,0,342.9,323.3,0,0,0,28.1,60,0,10.2,60,0,10.4,10.1,7.4,60,0,7.6,7.1,3.9,60,0,4.6,3.0,64.6,60,0,69.0,60.0,28.1,60,0,39.0,18.0,239,0.0,1021.4,60,0,1021.4,0,1007.1,60,0,46.2,60,0
86282,2013-03-18 00:00:00,8830,60,0,0.0,0.0,0.0,60,0,0.0,0.0,0.0,60,0,0.0,0.0,0.0,60,0,0.0,0.0,337.4,60,0,342.9,323.3,0,0,0,28.1,60,0,10.2,60,0,10.4,10.1,7.4,60,0,7.6,7.1,3.9,60,0,4.6,3.0,64.6,60,0,69.0,60.0,28.1,60,0,39.0,18.0,239,0.0,1021.4,60,0,1021.4,0,1007.1,60,0,46.2,60,0
86282,2013-03-18 12:00:00,8840,60,0,0.0,0.0,0.0,60,0,0.0,0.0,0.0,60,0,0.0,0.0,0.0,60,0,0.0,0.0,337.4,60,0,342.9,323.3,0,0,0,28.1,60,0,10.2,60,0,10.4,10.1,7.4,60,0,7.6,7.1,3.9,60,0,4.6,3.0,64.6,60,0,69.0,60.0,28.1,60,0,39.0,18.0,239,0.0,1021.4,60,0,1021.4,0,1007.1,60,0,46.2,60,0
86282,2013-03-19 00:00:00,8850,60,0,0.0,0.0,0.0,60,0,0.0,0.0,0.0,60,0,0.0,0.0,0.0,60,0,0.0,0.0,337.4,60,0,342.9,323.3,0,0,0,28.1,60,0,10.2,60,0,10.4,10.1,7.4,60,0,7.6,7.1,3.9,60,0,4.6,3.0,64.6,60,0,69.0,60.0,28.1,60,0,39.0,18.0,239,0.0,1021.4,60,0,1021.4,0,1007.1,60,0,46.2,60,0
86282,2013-03-19 12:00:00,8860,60,0,0.0,0.0,0.0,60,0,0.0,0.0,0.0,60,0,0.0,0.0,0.0,60,0,0.0,0.0,337.4,60,0,342.9,323.3,0,0,0,28.1,60,0,10.2,60,0,10.4,10.1,7.4,60,0,7.6,7.1,3.9,60,0,4.6,3.0,64.6,60,0,69.0,60.0,28.1,60,0,39.0,18.0,239,0.0,1021.4,60,0,1021.4,0,1007.1,60,0,46.2,60,0
86282,2013-03-20 00:00:00,8870,60,0,0.0,0.0,0.0,60,0,0.0,0.0,0.0,60,0,0.0,0.0,0.0,60,0,0.0,0.0,337.4,60,0,342.9,323.3,0,0,0,28.1,60,0,10.2,60,0,10.4,10.1,7.4,60,0,7.6,7.1,3.9,60,0,4.6,3.0,64.6,60,0,69.0,60.0,28.1,60,0,39.0,18.0,239,0.0,1021.4,60,0,1021.4,0,1007.1,60,0,46.2,60,0
86282,2013-03-20 12:00:00,8880,60,0,0.0,0.0,0.0,60,0,0.0,0.0,0.0,60,0,0.0,0.0,0.0,60,0,0.0,0.0,337.4,60,0,342.9,323.3,0,0,0,28.1,60,0,10.2,60,0,10.4,10.1,7.4,60,0,7.6,7.1,3.9,60,0,4.6,3.0,64.6,60,0,69.0,60.0,28.1,60,0,39.0,18.0,239,0.0,1021.4,60,0,1021.4,0,1007.1,60,0,46.2,60,0
86282,2013-03-21 00:00:00,8890,60,0,0.0,0.0,0.0,60,0,0.0,0.0,0.0,60,0,0.0,0.0,0.0,60,0,0.0,0.0,337.4,60,0,342.9,323.3,0,0,0,28.1,60,0,10.2,60,0,10.4,10.1,7.4,60,0,7.6,7.1,3.9,60,0,4.6,3.0,64.6,60,0,69.0,60.0,28.1,60,0,39.0,18.0,239,0.0,1021.4,60,0,1021.4,0,1007.1,60,0,46.2,60,0
86282,2013-03-21 12:00:00,8900,60,0,0.0,0.0,0.0,60,0,0.0,0.0,0.0,60,0,0.0,0.0,0.0,60,0,0.0,0.0,337.4,60,0,342.9,323.3,0,0,0,28.1,60,0,10.2,60,0,10.4,10.1,7.4,60,0,7.6,7.1,3.9,60,0,4.6,3.0,64.6,60,0,69.0,60.0,28.1,60,0,39.0,18.0,239,0.0,1021.4,60,0,1021.4,0,1007.1,60,0,46.2,60,0
86282,2013-03-22 00:00:00,8910,60,0,0.0,0.0,0.0,60,0,0.0,0.0,0.0,60,0,0.0,0.0,0.0,60,0,0.0,0.0,337.4,60,0,342.9,323.3,0,0,0,28.1,60,0,10.2,60,0,10.4,10.1,7.4,60,0,7.6,7.1,3.9,60,0,4.6,3.0,64.6,60,0,69.0,60.0,28.1,60,0,39.0,18.0,239,0.0,1021.4,60,0,1021.4,0,1007.1,60,0,46.2,60,0
86282,2013-03-22 12:00:00,8920,60,0,0.0,0.0,0.0,60,0,0.0,0.0,0.0,60,0,0.0,0.0,0.0,60,0,0.0,0.0,337.4,60,0,342.9,323.3,0,0,0,28.1,60,0,10.2,60,0,10.4,10.1,7.4,60,0,7.6,7.1,3.9,60,0,4.6,3.0,64.6,60,0,69.0,60.0,28.1,60,0,39.0,18.0,239,0.0,1021.4,60,0,1021.4,0,1007.1,60,0,46.2,60,0
86282,2013-03-23 00:00:00,8930,60,0,0.0,0.0,0.0,60,0,0.0,0.0,0.0,60,0,0.0,0.0,0.0,60,0,0.0,0.0,337.4,60,0,342.9,323.3,0,0,0,28.1,60,0,10.2,60,0,10.4,10.1,7.4,60,0,7.6,7.1,3.9,60,0,4.6,3.0,64.6,60,0,69.0,60.0,28.1,60,0,39.0,18.0,239,0.0,1021.4,60,0,1021.4,0,1007.1,60,0,46.2,60,0
86282,2013-03-23 12:00:00,8940,60,0,0.0,0.0,0.0,60,0,0.0,0.0,0.0,60,0,0.0,0.0,0.0,60,0,0.0,0.0,337.4,60,0,342.9,323.3,0,0,0,28.1,60,0,10.2,60,0,10.4,10.1,7.4,60,0,7.6,7.1,3.9,60,0,4.6,3.0,64.6,60,0,69.0,60.0,28.1,60,0,39.0,18.0,239,0.0,1021.4,60,0,1021.4,0,1007.1,60,0,46.2,60,0
86282,2013-03-24 00:00:00,8950,60,0,0.0,0.0,0.0,60,0,0.0,0.0,0.0,60,0,0.0,0.0,0.0,60,0,0.0,0.0,337.4,60,0,342.9,323.3,0,0,0,28.1,60,0,10.2,60,0,10.4,10.1,7.4,60,0,7.6,7.1,3.9,60,0,4.6,3.0,64.6,60,0,69.0,60.0,28.1,60,0,39.0,18.0,239,0.0,1021.4,60,0,1021.4,0,1007.1,60,0,46.2,60,0
86282,2013-03-24 12:00:00,8960,60,0,0.0,0.0,0.0,60,0,0.0,0.0,0.0,60,0,0.0,0.0,0.0,60,0,0.0,0.0,337.4,60,0,342.9,323.3,0,0,0,28.1,60,0,10.2,60,0,10.4,10.1,7.4,60,0,7.6,7.1,3.9,60,0,4.6,3.0,64.6,60,0,69.0,60.0,28.1,60,0,39.0,18.0,239,0.0,1021.4,60,0,1021.4,0,1007.1,60,0,46.2,60,0
86282,2013-03-25 00:00:00,8970,60,0,0.0,0.0,0.0,60,0,0.0,0.0,0.0,60,0,0.0,0.0,0.0,60,0,0.0,0.0,337.4,60,0,342.9,323.3,0,0,0,28.1,60,0,10.2,60,0,10.4,10.1,7.4,60,0,7.6,7.1,3.9,60,0,4.6,3.0,64.6,60,0,69.0,60.0,28.1,60,0,39.0,18.0,239,0.0,1021.4,60,0,1021.4,0,1007.1,60,0,46.2,60,0
86282,2013-03-25 12:00:00,8980,60,0,0.0,0.0,0.0,60,0,0.0,0.0,0.0,60,0,0.0,0.0,0.0,60,0,0.0,0.0,337.4,60,0,342.9,323.3,0,0,0,28.1,60,0,10.2,60,0,10.4,10.1,7.4,60,0,7.6,7.1,3.9,60,0,4.6,3.0,64.6,60,0,69.0,60.0,28.1,60,0,39.0,18.0,239,0.0,1021.4,60,0,1021.4,0,1007.1,60,0,46.2,60,0
86282,2013-03-26 00:00:00,8990,60,0,0.0,0.0,0.0,60,0,0.0,0.0,0.0,60,0,0.0,0.0,0.0,60,0,0.0,0.0,337.4,60,0,342.9,323.3,0,0,0,28.1,60,0,10.2,60,0,10.4,10.1,7.4,60,0,7.6,7.1,3.9,60,0,4.6,3.0,64.6,60,0,69.0,60.0,28.1,60,0,39.0,18.0,239,0.0,1021.4,60,0,1021.4,0,1007.1,60,0,46.2,60,0
86282,2013-03-26 12:00:00,9000,60,0,0.0,0.0,0.0,60,0,0.0,0.0,0.0,60,0,0.0,0.0,0.0,60,0,0.0,0.0,337.4,60,0,342.9,323.3,0,0,0,28.1,60,0,10.2,60,0,10.4,10.1,7.4,60,0,7.6,7.1,3.9,60,0,4.6,3.0,64.6,60,0,69.0,60.0,28.1,60,0,39.0,18.0,239,0.0,1021.4,60,0,1021.4,0,1007.1,60,0,46.2,60,0
86282,2013-03-27 00:00:00,9010,60,0,0.0,0.0,0.0,60,0,0.0,0.0,0.0,60,0,0.0,0.0,0.0,60,0,0.0,0.0,337.4,60,0,342.9,323.3,0,0,0,28.1,60,0,10.2,60,0,10.4,10.1,7.4,60,0,7.6,7.1,3.9,60,0,4.6,3.0,64.6,60,0,69.0,60.0,28.1,60,0,39.0,18.0,239,0.0,1021.4,60,0,1021.4,0,1007.1,60,0,46.2,60,0
86282,2013-03-27 12:00:00,9020,60,0,0.0,0.0,0.0,60,0,0.0,0.0,0.0,60,0,0.0,0.0,0.0,60,0,0.0,0.0,337.4,60,0,342.9,323.3,0,0,0,28.1,60,0,10.2,60,0,10.4,10.1,7.4,60,0,7.6,7.1,3.9,60,0,4.6,3.0,64.6,60,0,69.0,60.0,28.1,60,0,39.0,18.0,239,0.0,1021.4,60,0,1021.4,0,1007.1,60,0,46.2,60,0
86282,2013-03-28 00:00:00,9030,60,0,0.0,0.0,0.0,60,0,0.0,0.0,0.0,60,0,0.0,0.0,0.0,60,0,0.0,0.0,337.4,60,0,342.9,323.3,0,0,0,28.1,60,0,10.2,60,0,10.4,10.1,7.4,60,0,7.6,7.1,3.9,60,0,4.6,3.0,64.6,60,0,69.0,60.0,28.1,60,0,39.0,18.0,239,0.0,1021.4,60,0,1021.4,0,1007.1,60,0,46.2,60,0
86282,2013-03-28 12:00:00,9040,60,0,0.0,0.0,0.0,60,0,0.0,0.0,0.0,60,0,0.0,0.0,0.0,60,0,0.0,0.0,337.4,60,0,342.9,323.3,0,0,0,28.1,60,0,10.2,60,0,10.4,10.1,7.4,60,0,7.6,7.1,3.9,60,0,4.6,3.0,64.6,60,0,69.0,60.0,28.1,60,0,39.0,18.0,239,0.0,1021.4,60,0,1021.4,0,1007.1,60,0,46.2,60,0
86282,2013-03-29 00:00:00,9050,60,0,0.0,0.0,0.0,60,0,0.0,0.0,0.0,60,0,0.0,0.0,0.0,60,0,0.0,0.0,337.4,60,0,342.9,323.3,0,0,0,28.1,60,0,10.2,60,0,10.4,10.1,7.4,60,0,7.6,7.1,3.9,60,0,4.6,3.0,64.6,60,0,69.0,60.0,28.1,60,0,39.0,18.0,239,0.0,1021.4,60,0,1021.4,0,1007.1,60,0,46.2,60,0
86282,2013-03-29 12:00:00,9060,60,0,0.0,0.0,0.0,60,0,0.0,0.0,0.0,60,0,0.0,0.0,0.0,60,0,0.0,0.0,337.4,60,0,342.9,323.3,0,0,0,28.1,60,0,10.2,60,0,10.4,10.1,7.4,60,0,7.6,7.1,3.9,60,0,4.6,3.0,64.6,60,0,69.0,60.0,28.1,60,0,39.0,18.0,239,0.0,1021.4,60,0,1021.4,0,1007.1,60,0,46.2,60,0
86282,2013-03-30 00:00:00,9070,60,0,0.0,0.0,0.0,60,0,0.0,0.0,0.0,60,0,0.0,0.0,0.0,60,0,0.0,0.0,337.4,60,0,342.9,323.3,0,0,0,28.1,60,0,10.2,60,0,10.4,10.1,7.4,60,0,7.6,7.1,3.9,60,0,4.6,3.0,64.6,60,0,69.0,60.0,28.1,60,0,39.0,18.0,239,0.0,1021.4,60,0,1021.4,0,1007.1,60,0,46.2,60,0
86282,2013-03-30 12:00:00,9080,60,0,0.0,0.0,0.0,60,0,0.0,0.0,0.0,60,0,0.0,0.0,0.0,60,0,0.0,0.0,337.4,60,0,342.9,323.3,0,0,0,28.1,60,0,10.2,60,0,10.4,10.1,7.4,60,0,7.6,7.1,3.9,60,0,4.6,3.0,64.6,60,0,69.0,60.0,28.1,60,0,39.0,18.0,239,0.0,1021.4,60,0,1021.4,0,1007.1,60,0,46.2,60,0
86282,2013-03-31 00:00:00,9090,60,0,0.0,0.0,0.0,60,0,0.0,0.0,0.0,60,0,0.0,0.0,0.0,60,0,0.0,0.0,337.4,60,0,342.9,323.3,0,0,0,28.1,60,0,10.2,60,0,10.4,10.1,7.4,60,0,7.6,7.1,3.9,60,0,4.6,3.0,64.6,60,0,69.0,60.0,28.1,60,0,39.0,18.0,239,0.0,1021.4,60,0,1021.4,0,1007.1,60,0,46.2,60,0
86282,2013-03-31 12:00:00,9100,60,0,0.0,0.0,0.0,60,0,0.0,0.0,0.0,60,0,0.0,0.0,0.0,60,0,0.0,0.0,337.4,60,0,342.9,323.3,0,0,0,28.1,60,0,10.2,60,0,10.4,10.1,7.4,60,0,7.6,7.1,3.9,60,0,4.6,3.0,64.6,60,0,69.0,60.0,28.1,60,0,39.0,18.0,239,0.0,1021.4,60,0,1021.4,0,1007.1,60,0,46.2,60,0
86282,2013-04-01 00:00:00,9110,60,0,0.0,0.0,0.0,60,0,0.0,0.0,0.0,60,0,0.0,0.0,0.0,60,0,0.0,0.0,337.4,60,0,342.9,323.3,0,0,0,28.1,60,0,10.2,60,0,10.4,10.1,7.4,60,0,7.6,7.1,3.9,60,0,4.6,3.0,64.6,60,0,69.0,60.0,28.1,60,0,39.0,18.0,239,0.0,1021.4,60,0,1021.4,0,1007.1,60,0,46.2,60,0
86282,2013-04-01 12:00:00,9120,60,0,0.0,0.0,0.0,60,0,0.0,0.0,0.0,60,0,0.0,0.0,0.0,60,0,0.0,0.0,337.4,60,0,342.9,323.3,0,0,0,28.1,60,0,10.2,60,0,10.4,10.1,7.4,60,0,7.6,7.1,3.9,60,0,4.6,3.0,64.6,60,0,69.0,60.0,28.1,60,0,39.0,18.0,239,0.0,1021.4,60,0,1021.4,0,1007.1,60,0,46.2,60,0
86282,2013-04-02 00:00:00,9130,60,0,0.0,0.0,0.0,60,0,0.0,0.0,0.0,60,0,0.0,0.0,0.0,60,0,0.0,0.0,337.4,60,0,342.9,323.3,0,0,0,28.1,60,0,10.2,60,0,10.4,10.1,7.4,60,0,7.6,7.1,3.9,60,0,4.6,3.0,64.6,60,0,69.0,60.0,28.1,60,0,39.0,18.0,239,0.0,1021.4,60,0,1021.4,0,1007.1,60,0,46.2,60,0
86282,2013-04-02 12:00:00,9140,60,0,0.0,0.0,0.0,60,0,0.0,0.0,0.0,60,0,0.0,0.0,0.0,60,0,0.0,0.0,337.4,60,0,342.9,323.3,0,0,0,28.1,60,0,10.2,60,0,10.4,10.1,7.4,60,0,7.6,7.1,3.9,60,0,4.6,3.0,64.6,60,0,69.0,60.0,28.1,60,0,39.0,18.0,239,0.0,1021.4,60,0,1021.4,0,1007.1,60,0,46.2,60,0
86282,2013-04-03 00:00:00,9150,60,0,0.0,0.0,0.0,60,0,0.0,0.0,0.0,60,0,0.0,0.0,0.0,60,0,0.0,0.0,337.4,60,0,342.9,323.3,0,0,0,28.1,60,0,10.2,60,0,10.4,10.1,7.4,60,0,7.6,7.1,3.9,60,0,4.6,3.0,64.6,60,0,69.0,60.0,28.1,60,0,39.0,18.0,239,0.0,1021.4,60,0,1021.4,0,1007.1,60,0,46.2,60,0
86282,2013-04-03 12:00:00,9160,60,0,0.0,0.0,0.0,60,0,0.0,0.0,0.0,60,0,0.0,0.0,0.0,60,0,0.0,0.0,337.4,60,0,342.9,323.3,0,0,0,28.1,60,0,10.2,60,0,10.4,10.1,7.4,60,0,7.6,7.1,3.9,60,0,4.6,3.0,64.6,60,0,69.0,60.0,28.1,60,0,39.0,18.0,239,0.0,1021.4,60,0,1021.4,0,1007.1,60,0,46.2,60,0
86282,2013-04-04 00:00:00,9170,60,0,0.0,0.0,0.0,60,0,0.0,0.0,0.0,60,0,0.0,0.0,0.0,60,0,0.0,0.0,337.4,60,0,342.9,323.3,0,0,0,28.1,60,0,10.2,60,0,10.4,10.1,7.4,60,0,7.6,7.1,3.9,60,0,4.6,3.0,64.6,60,0,69.0,60.0,28.1,60,0,39.0,18.0,239,0.0,1021.4,60,0,1021.4,0,1007.1,60,0,46.2,60,0
86282,2013-04-04 12:00:00,9180,60,0,0.0,0.0,0.0,60,0,0.0,0.0,0.0,60,0,0.0,0.0,0.0,60,0,0.0,0.0,337.4,60,0,342.9,323.3,0,0,0,28.1,60,0,10.2,60,0,10.4,10.1,7.4,60,0,7.6,7.1,3.9,60,0,4.6,3.0,64.6,60,0,69.0,60.0,28.1,60,0,39.0,18.0,239,0.0,1021.4,60,0,1021.4,0,1007.1,60,0,46.2,60,0
86282,2013-04-05 00:00:00,9190,60,0,0.0,0.0,0.0,60,0,0.0,0.0,0.0,60,0,0.0,0.0,0.0,60,0,0.0,0.0,337.4,60,0,342.9,323.3,0,0,0,28.1,60,0,10.2,60,0,10.4,10.1,7.4,60,0,7.6,7.1,3.9,60,0,4.6,3.0,64.6,60,0,69.0,60.0,28.1,60,0,39.0,18.0,239,0.0,1021.4,60,0,1021.4,0,1007.1,60,0,46.2,60,0
86282,2013-04-05 12:00:00,9200,60,0,0.0,0.0,0.0,60,0,0.0,0.0,0.0,60,0,0.0,0.0,0.0,60,0,0.0,0.0,337.4,60,0,342.9,323.3,0,0,0,28.1,60,0,10.2,60,0,10.4,10.1,7.4,60,0,7.6,7.1,3.9,60,0,4.6,3.0,64.6,60,0,69.0,60.0,28.1,60,0,39.0,18.0,239,0.0,1021.4,60,0,1021.4,0,1007.1,60,0,46.2,60,0
86282,2013-04-06 00:00:00,9210,60,0,0.0,0.0,0.0,60,0,0.0,0.0,0.0,60,0,0.0,0.0,0.0,60,0,0.0,0.0,337.4,60,0,342.9,323.3,0,0,0,28.1,60,0,10.2,60,0,10.4,10.1,7.4,60,0,7.6,7.1,3.9,60,0,4.6,3.0,64.6,60,0,69.0,60.0,28.1,60,0,39.0,18.0,239,0.0,1021.4,60,0,1021.4,0,1007.1,60,0,46.2,60,0
86282,2013-04-06 12:00:00,9220,60,0,0.0,0.0,0.0,60,0,0.0,0.0,0.0,60,0,0.0,0.0,0.0,60,0,0.0,0.0,337.4,60,0,342.9,323.3,0,0,0,28.1,60,0,10.2,60,0,10.4,10.1,7.4,60,0,7.6,7.1,3.9,60,0,4.6,3.0,64.6,60,0,69.0,60.0,28.1,60,0,39.0,18.0,239,0.0,1021.4,60,0,1021.4,0,1007.1,60,0,46.2,60,0
86282,2013-04-07 00:00:00,9230,60,0,0.0,0.0,0.0,60,0,0.0,0.0,0.0,60,0,0.0,0.0,0.0,60,0,0.0,0.0,337.4,60,0,342.9,323.3,0,0,0,28.1,60,0,10.2,60,0,10.4,10.1,7.4,60,0,7.6,7.1,3.9,60,0,4.6,3.0,64.6,60,0,69.0,60.0,28.1,60,0,39.0,18.0,239,0.0,1021.4,60,0,1021.4,0,1007.1,60,0,46.2,60,0
86282,2013-04-07 12:00:00,9240,60,0,0.0,0.0,0.0,60,0,0.0,0.0,0.0,60,0,0.0,0.0,0.0,60,0,0.0,0.0,337.4,60,0,342.9,323.3,0,0,0,28.1,60,0,10.2,60,0,10.4,10.1,7.4,60,0,7.6,7.1,3.9,60,0,4.6,3.0,64.6,60,0,69.0,60.0,28.1,60,0,39.0,18.0,239,0.0,1021.4,60,0,1021.4,0,1007.1,60,0,46.2,60,0
86282,2013-04-08 00:00:00,9250,60,0,0.0,0.0,0.0,60,0,0.0,0.0,0.0,60,0,0.0,0.0,0.0,60,0,0.0,0.0,337.4,60,0,342.9,323.3,0,0,0,28.1,60,0,10.2,60,0,10.4,10.1,7.4,60,0,7.6,7.1,3.9,60,0,4.6,3.0,64.6,60,0,69.0,60.0,28.1,60,0,39.0,18.0,239,0.0,1021.4,60,0,1021.4,0,1007.1,60,0,46.2,60,0
86282,2013-04-08 12:00:00,9260,60,0,0.0,0.0,0.0,60,0,0.0,0.0,0.0,60,0,0.0,0.0,0.0,60,0,0.0,0.0,337.4,60,0,342.9,323.3,0,0,0,28.1,60,0,10.2,60,0,10.4,10.1,7.4,60,0,7.6,7.1,3.9,60,0,4.6,3.0,64.6,60,0,69.0,60.0,28.1,60,0,39.0,18.0,239,0.0,1021.4,60,0,1021.4,0,1007.1,60,0,46.2,60,0
86282,2013-04-09 00:00:00,9270,60,0,0.0,0.0,0.0,60,0,0.0,0.0,0.0,60,0,0.0,0.0,0.0,60,0,0.0,0.0,337.4,60,0,342.9,323.3,0,0,0,28.1,60,0,10.2,60,0,10.4,10.1,7.4,60,0,7.6,7.1,3.9,60,0,4.6,3.0,64.6,60,0,69.0,60.0,28.1,60,0,39.0,18.0,239,0.0,1021.4,60,0,1021.4,0,1007.1,60,0,46.2,60,0
86282,2013-04-09 12:00:00,9280,60,0,0.0,0.0,0.0,60,0,0.0,0.0,0.0,60,0,0.0,0.0,0.0,60,0,0.0,0.0,337.4,60,0,342.9,323.3,0,0,0,28.1,60,0,10.2,60,0,10.4,10.1,7.4,60,0,7.6,7.1,3.9,60,0,4.6,3.0,64.6,60,0,69.0,60.0,28.1,60,0,39.0,18.0,239,0.0,1021.4,60,0,1021.4,0,1007.1,60,0,46.2,60,0
86282,2013-04-10 00:00:00,9290,60,0,0.0,0.0,0.0,60,0,0.0,0.0,0.0,60,0,0.0,0.0,0.0,60,0,0.0,0.0,337.4,60,0,342.9,323.3,0,0,0,28.1,60,0,10.2,60,0,10.4,10.1,7.4,60,0,7.6,7.1,3.9,60,0,4.6,3.0,64.6,60,0,69.0,60.0,28.1,60,0,39.0,18.0,239,0.0,1021.4,60,0,1021.4,0,1007.1,60,0,46.2,60,0
86282,2013-04-10 12:00:00,9300,60,0,0.0,0.0,0.0,60,0,0.0,0.0,0.0,60,0,0.0,0.0,0.0,60,0,0.0,0.0,337.4,60,0,342.9,323.3,0,0,0,28.1,60,0,10.2,60,0,10.4,10.1,7.4,60,0,7.6,7.1,3.9,60,0,4.6,3.0,64.6,60,0,69.0,60.0,28.1,60,0,39.0,18.0,239,0.0,1021.4,60,0,1021.4,0,1007.1,60,0,46.2,60,0
86282,2013-04-11 00:00:00,9310,60,0,0.0,0.0,0.0,60,0,0.0,0.0,0.0,60,0,0.0,0.0,0.0,60,0,0.0,0.0,337.4,60,0,342.9,323.3,0,0,0,28.1,60,0,10.2,60,0,10.4,10.1,7.4,60,0,7.6,7.1,3.9,60,0,4.6,3.0,64.6,60,0,69.0,60.0,28.1,60,0,39.0,18.0,239,0.0,1021.4,60,0,1021.4,0,1007.1,60,0,46.2,60,0
86282,2013-04-11 12:00:00,9320,60,0,0.0,0.0,0.0,60,0,0.0,0.0,0.0,60,0,0.0,0.0,0.0,60,0,0.0,0.0,337.4,60,0,342.9,323.3,0,0,0,28.1,60,0,10.2,60,0,10.4,10.1,7.4,60,0,7.6,7.1,3.9,60,0,4.6,3.0,64.6,60,0,69.0,60.0,28.1,60,0,39.0,18.0,239,0.0,1021.4,60,0,1021.4,0,1007.1,60,0,46.2,60,0
86282,2013-04-12 00:00:00,9330,60,0,0.0,0.0,0.0,60,0,0.0,0.0,0.0,60,0,0.0,0.0,0.0,60,0,0.0,0.0,337.4,60,0,342.9,323.3,0,0,0,28.1,60,0,10.2,60,0,10.4,10.1,7.4,60,0,7.6,7.1,3.9,60,0,4.6,3.0,64.6,60,0,69.0,60.0,28.1,60,0,39.0,18.0,239,0.0,1021.4,60,0,1021.4,0,1007.1,60,0,46.2,60,0
86282,2013-04-12 12:00:00,9340,60,0,0.0,0.0,0.0,60,0,0.0,0.0,0.0,60,0,0.0,0.0,0.0,60,0,0.0,0.0,337.4,60,0,342.9,323.3,0,0,0,28.1,60,0,10.2,60,0,10.4,10.1,7.4,60,0,7.6,7.1,3.9,60,0,4.6,3.0,64.6,60,0,69.0,60.0,28.1,60,0,39.0,18.0,239,0.0,1021.4,60,0,1021.4,0,1007.1,60,0,46.2,60,0
86282,2013-04-13 00:00:00,9350,60,0,0.0,0.0,0.0,60,0,0.0,0.0,0.0,60,0,0.0,0.0,0.0,60,0,0.0,0.0,337.4,60,0,342.9,323.3,0,0,0,28.1,60,0,10.2,60,0,10.4,10.1,7.4,60,0,7.6,7.1,3.9,60,0,4.6,3.0,64.6,60,0,69.0,60.0,28.1,60,0,39.0,18.0,239,0.0,1021.4,60,0,1021.4,0,1007.1,60,0,46.2,60,0
86282,2013-04-13 12:00:00,9360,60,0,0.0,0.0,0.0,60,0,0.0,0.0,0.0,60,0,0.0,0.0,0.0,60,0,0.0,0.0,337.4,60,0,342.9,323.3,0,0,0,28.1,60,0,10.2,60,0,10.4,10.1,7.4,60,0,7.6,7.1,3.9,60,0,4.6,3.0,64.6,60,0,69.0,60.0,28.1,60,0,39.0,18.0,239,0.0,1021.4,60,0,1021.4,0,1007.1,60,0,46.2,60,0
86282,2013-04-14 00:00:00,9370,60,0,0.0,0.0,0.0,60,0,0.0,0.0,0.0,60,0,0.0,0.0,0.0,60,0,0.0,0.0,337.4,60,0,342.9,323.3,0,0,0,28.1,60,0,10.2,60,0,10.4,10.1,7.4,60,0,7.6,7.1,3.9,60,0,4.6,3.0,64.6,60,0,69.0,60.0,28.1,60,0,39.0,18.0,239,0.0,1021.4,60,0,1021.4,0,1007.1,60,0,46.2,60,0
86282,2013-04-14 12:00:00,9380,60,0,0.0,0.0,0.0,60,0,0.0,0.0,0.0,60,0,0.0,0.0,0.0,60,0,0.0,0.0,337.4,60,0,342.9,323.3,0,0,0,28.1,60,0,10.2,60,0,10.4,10.1,7.4,60,0,7.6,7.1,3.9,60,0,4.6,3.0,64.6,60,0,69.0,60.0,28.1,60,0,39.0,18.0,239,0.0,1021.4,60,0,1021.4,0,1007.1,60,0,46.2,60,0
86282,2013-04-15 00:00:00,9390,60,0,0.0,0.0,0.0,60,0,0.0,0.0,0.0,60,0,0.0,0.0,0.0,60,0,0.0,0.0,337.4,60,0,342.9,323.3,0,0,0,28.1,60,0,10.2,60,0,10.4,10.1,7.4,60,0,7.6,7.1,3.9,60,0,4.6,3.0,64.6,60,0,69.0,60.0,28.1,60,0,39.0,18.0,239,0.0,1021.4,60,0,1021.4,0,1007.1,60,0,46.2,60,0
86282,2013-04-15 12:00:00,9400,60,0,0.0,0.0,0.0,60,0,0.0,0.0,0.0,60,0,0.0,0.0,0.0,60,0,0.0,0.0,337.4,60,0,342.9,323.3,0,0,0,28.1,60,0,10.2,60,0,10.4,10.1,7.4,60,0,7.6,7.1,3.9,60,0,4.6,3.0,64.6,60,0,69.0,60.0,28.1,60,0,39.0,18.0,239,0.0,1021.4,60,0,1021.4,0,1007.1,60,0,46.2,60,0
86282,2013-04-16 00:00:00,9410,60,0,0.0,0.0,0.0,60,0,0.0,0.0,0.0,60,0,0.0,0.0,0.0,60,0,0.0,0.0,337.4,60,0,342.9,323.3,0,0,0,28.1,60,0,10.2,60,0,10.4,10.1,7.4,60,0,7.6,7.1,3.9,60,0,4.6,3.0,64.6,60,0,69.0,60.0,28.1,60,0,39.0,18.0,239,0.0,1021.4,60,0,1021.4,0,1007.1,60,0,46.2,60,0
86282,2013-04-16 12:00:00,9420,60,0,0.0,0.0,0.0,60,0,0.0,0.0,0.0,60,0,0.0,0.0,0.0,60,0,0.0,0.0,337.4,60,0,342.9,323.3,0,0,0,28.1,60,0,10.2,60,0,10.4,10.1,7.4,60,0,7.6,7.1,3.9,60,0,4.6,3.0,64.6,60,0,69.0,60.0,28.1,60,0,39.0,18.0,239,0.0,1021.4,60,0,1021.4,0,1007.1,60,0,46.2,60,0
86282,2013-04-17 00:00:00,9430,60,0,0.0,0.0,0.0,60,0,0.0,0.0,0.0,60,0,0.0,0.0,0.0,60,0,0.0,0.0,337.4,60,0,342.9,323.3,0,0,0,28.1,60,0,10.2,60,0,10.4,10.1,7.4,60,0,7.6,7.1,3.9,60,0,4.6,3.0,64.6,60,0,69.0,60.0,28.1,60,0,39.0,18.0,239,0.0,1021.4,60,0,1021.4,0,1007.1,60,0,46.2,60,0
86282,2013-04-17 12:00:00,9440,60,0,0.0,0.0,0.0,60,0,0.0,0.0,0.0,60,0,0.0,0.0,0.0,60,0,0.0,0.0,337.4,60,0,342.9,323.3,0,0,0,28.1,60,0,10.2,60,0,10.4,10.1,7.4,60,0,7.6,7.1,3.9,60,0,4.6,3.0,64.6,60,0,69.0,60.0,28.1,60,0,39.0,18.0,239,0.0,1021.4,60,0,1021.4,0,1007.1,60,0,46.2,60,0
86282,2013-04-18 00:00:00,9450,60,0,0.0,0.0,0.0,60,0,0.0,0.0,0.0,60,0,0.0,0.0,0.0,60,0,0.0,0.0,337.4,60,0,342.9,323.3,0,0,0,28.1,60,0,10.2,60,0,10.4,10.1,7.4,60,0,7.6,7.1,3.9,60,0,4.6,3.0,64.6,60,0,69.0,60.0,28.1,60,0,39.0,18.0,239,0.0,1021.4,60,0,1021.4,0,1007.1,60,0,46.2,60,0
86282,2013-04-18 12:00:00,9460,60,0,0.0,0.0,0.0,60,0,0.0,0.0,0.0,60,0,0.0,0.0,0.0,60,0,0.0,0.0,337.4,60,0,342.9,323.3,0,0,0,28.1,60,0,10.2,60,0,10.4,10.1,7.4,60,0,7.6,7.1,3.9,60,0,4.6,3.0,64.6,60,0,69.0,60.0,28.1,60,0,39.0,18.0,239,0.0,1021.4,60,0,1021.4,0,1007.1,60,0,46.2,60,0
86282,2013-04-19 00:00:00,9470,60,0,0.0,0.0,0.0,60,0,0.0,0.0,0.0,60,0,0.0,0.0,0.0,60,0,0.0,0.0,337.4,60,0,342.9,323.3,0,0,0,28.1,60,0,10.2,60,0,10.4,10.1,7.4,60,0,7.6,7.1,3.9,60,0,4.6,3.0,64.6,60,0,69.0,60.0,28.1,60,0,39.0,18.0,239,0.0,1021.4,60,0,1021.4,0,1007.1,60,0,46.2,60,0
86282,2013-04-19 12:00:00,9480,60,0,0.0,0.0,0.0,60,0,0.0,0.0,0.0,60,0,0.0,0.0,0.0,60,0,0.0,0.0,337.4,60,0,342.9,323.3,0,0,0,28.1,60,0,10.2,60,0,10.4,10.1,7.4,60,0,7.6,7.1,3.9,60,0,4.6,3.0,64.6,60,0,69.0,60.0,28.1,60,0,39.0,18.0,239,0.0,1021.4,60,0,1021.4,0,1007.1,60,0,46.2,60,0
86282,2013-04-20 00:00:00,9490,60,0,0.0,0.0,0.0,60,0,0.0,0.0,0.0,60,0,0.0,0.0,0.0,60,0,0.0,0.0,337.4,60,0,342.9,323.3,0,0,0,28.1,60,0,10.2,60,0,10.4,10.1,7.4,60,0,7.6,7.1,3.9,60,0,4.6,3.0,64.6,60,0,69.0,60.0,28.1,60,0,39.0,18.0,239,0.0,1021.4,60,0,1021.4,0,1007.1,60,0,46.2,60,0
86282,2013-04-20 12:00:00,9500,60,0,0.0,0.0,0.0,60,0,0.0,0.0,0.0,60,0,0.0,0.0,0.0,60,0,0.0,0.0,337.4,60,0,342.9,323.3,0,0,0,28.1,60,0,10.2,60,0,10.4,10.1,7.4,60,0,7.6,7.1,3.9,60,0,4.6,3.0,64.6,60,0,69.0,60.0,28.1,60,0,39.0,18.0,239,0.0,1021.4,60,0,1021.4,0,1007.1,60,0,46.2,60,0
86282,2013-04-21 00:00:00,9510,60,0,0.0,0.0,0.0,60,0,0.0,0.0,0.0,60,0,0.0,0.0,0.0,60,0,0.0,0.0,337.4,60,0,342.9,323.3,0,0,0,28.1,60,0,10.2,60,0,10.4,10.1,7.4,60,0,7.6,7.1,3.9,60,0,4.6,3.0,64.6,60,0,69.0,60.0,28.1,60,0,39.0,18.0,239,0.0,1021.4,60,0,1021.4,0,1007.1,60,0,46.2,60,0
86282,2013-04-21 12:00:00,9520,60,0,0.0,0.0,0.0,60,0,0.0,0.0,0.0,60,0,0.0,0.0,0.0,60,0,0.0,0.0,337.4,60,0,342.9,323.3,0,0,0,28.1,60,0,10.2,60,0,10.4,10.1,7.4,60,0,7.6,7.1,3.9,60,0,4.6,3.0,64.6,60,0,69.0,60.0,28.1,60,0,39.0,18.0,239,0.0,1021.4,60,0,1021.4,0,1007.1,60,0,46.2,60,0
86282,2013-04-22 00:00:00,9530,60,0,0.0,0.0,0.0,60,0,0.0,0.0,0.0,60,0,0.0,0.0,0.0,60,0,0.0,0.0,337.4,60,0,342.9,323.3,0,0,0,28.1,60,0,10.2,60,0,10.4,10.1,7.4,60,0,7.6,7.1,3.9,60,0,4.6,3.0,64.6,60,0,69.0,60.0,28.1,60,0,39.0,18.0,239,0.0,1021.4,60,0,1021.4,0,1007.1,60,0,46.2,60,0
86282,2013-04-22 12:00:00,9540,60,0,0.0,0.0,0.0,60,0,0.0,0.0,0.0,60,0,0.0,0.0,0.0,60,0,0.0,0.0,337.4,60,0,342.9,323.3,0,0,0,28.1,60,0,10.2,60,0,10.4,10.1,7.4,60,0,7.6,7.1,3.9,60,0,4.6,3.0,64.6,60,0,69.0,60.0,28.1,60,0,39.0,18.0,239,0.0,1021.4,60,0,1021.4,0,1007.1,60,0,46.2,60,0
86282,2013-04-23 00:00:00,9550,60,0,0.0,0.0,0.0,60,0,0.0,0.0,0.0,60,0,0.0,0.0,0.0,60,0,0.0,0.0,337.4,60,0,342.9,323.3,0,0,0,28.1,60,0,10.2,60,0,10.4,10.1,7.4,60,0,7.6,7.1,3.9,60,0,4.6,3.0,64.6,60,0,69.0,60.0,28.1,60,0,39.0,18.0,239,0.0,1021.4,60,0,1021.4,0,1007.1,60,0,46.2,60,0
86282,2013-04-23 12:00:00,9560,60,0,0.0,0.0,0.0,60,0,0.0,0.0,0.0,60,0,0.0,0.0,0.0,60,0,0.0,0.0,337.4,60,0,342.9,323.3,0,0,0,28.1,60,0,10.2,60,0,10.4,10.1,7.4,60,0,7.6,7.1,3.9,60,0,4.6,3.0,64.6,60,0,69.0,60.0,28.1,60,0,39.0,18.0,239,0.0,1021.4,60,0,1021.4,0,1007.1,60,0,46.2,60,0
86282,2013-04-24 00:00:00,9570,60,0,0.0,0.0,0.0,60,0,0.0,0.0,0.0,60,0,0.0,0.0,0.0,60,0,0.0,0.0,337.4,60,0,342.9,323.3,0,0,0,28.1,60,0,10.2,60,0,10.4,10.1,7.4,60,0,7.6,7.1,3.9,60,0,4.6,3.0,64.6,60,0,69.0,60.0,28.1,60,0,39.0,18.0,239,0.0,1021.4,60,0,1021.4,0,1007.1,60,0,46.2,60,0
86282,2013-04-24 12:00:00,9580,60,0,0.0,0.0,0.0,60,0,0.0,0.0,0.0,60,0,0.0,0.0,0.0,60,0,0.0,0.0,337.4,60,0,342.9,323.3,0,0,0,28.1,60,0,10.2,60,0,10.4,10.1,7.4,60,0,7.6,7.1,3.9,60,0,4.6,3.0,64.6,60,0,69.0,60.0,28.1,60,0,39.0,18.0,239,0.0,1021.4,60,0,1021.4,0,1007.1,60,0,46.2,60,0
86282,2013-04-25 00:00:00,9590,60,0,0.0,0.0,0.0,60,0,0.0,0.0,0.0,60,0,0.0,0.0,0.0,60,0,0.0,0.0,337.4,60,0,342.9,323.3,0,0,0,28.1,60,0,10.2,60,0,10.4,10.1,7.4,60,0,7.6,7.1,3.9,60,0,4.6,3.0,64.6,60,0,69.0,60.0,28.1,60,0,39.0,18.0,239,0.0,1021.4,60,0,1021.4,0,1007.1,60,0,46.2,60,0
86282,2013-04-25 12:00:00,9600,60,0,0.0,0.0,0.0,60,0,0.0,0.0,0.0,60,0,0.0,0.0,0.0,60,0,0.0,0.0,337.4,60,0,342.9,323.3,0,0,0,28.1,60,0,10.2,60,0,10.4,10.1,7.4,60,0,7.6,7.1,3.9,60,0,4.6,3.0,64.6,60,0,69.0,60.0,28.1,60,0,39.0,18.0,239,0.0,1021.4,60,0,1021.4,0,1007.1,60,0,46.2,60,0
86282,2013-04-26 00:00:00,9610,60,0,0.0,0.0,0.0,60,0,0.0,0.0,0.0,60,0,0.0,0.0,0.0,60,0,0.0,0.0,337.4,60,0,342.9,323.3,0,0,0,28.1,60,0,10.2,60,0,10.4,10.1,7.4,60,0,7.6,7.1,3.9,60,0,4.6,3.0,64.6,60,0,69.0,60.0,28.1,60,0,39.0,18.0,239,0.0,1021.4,60,0,1021.4,0,1007.1,60,0,46.2,60,0
86282,2013-04-26 12:00:00,9620,60,0,0.0,0.0,0.0,60,0,0.0,0.0,0.0,60,0,0.0,0.0,0.0,60,0,0.0,0.0,337.4,60,0,342.9,323.3,0,0,0,28.1,60,0,10.2,60,0,10.4,10.1,7.4,60,0,7.6,7.1,3.9,60,0,4.6,3.0,64.6,60,0,69.0,60.0,28.1,60,0,39.0,18.0,239,0.0,1021.4,60,0,1021.4,0,1007.1,60,0,46.2,60,0
86282,2013-04-27 00:00:00,9630,60,0,0.0,0.0,0.0,60,0,0.0,0.0,0.0,60,0,0.0,0.0,0.0,60,0,0.0,0.0,337.4,60,0,342.9,323.3,0,0,0,28.1,60,0,10.2,60,0,10.4,10.1,7.4,60,0,7.6,7.1,3.9,60,0,4.6,3.0,64.6,60,0,69.0,60.0,28.1,60,0,39.0,18.0,239,0.0,1021.4,60,0,1021.4,0,1007.1,60,0,46.2,60,0
86282,2013-04-27 12:00:00,9640,60,0,0.0,0.0,0.0,60,0,0.0,0.0,0.0,60,0,0.0,0.0,0.0,60,0,0.0,0.0,337.4,60,0,342.9,323.3,0,0,0,28.1,60,0,10.2,60,0,10.4,10.1,7.4,60,0,7.6,7.1,3.9,60,0,4.6,3.0,64.6,60,0,69.0,60.0,28.1,60,0,39.0,18.0,239,0.0,1021.4,60,0,1021.4,0,1007.1,60,0,46.2,60,0
86282,2013-04-28 00:00:00,9650,60,0,0.0,0.0,0.0,60,0,0.0,0.0,0.0,60,0,0.0,0.0,0.0,60,0,0.0,0.0,337.4,60,0,342.9,323.3,0,0,0,28.1,60,0,10.2,60,0,10.4,10.1,7.4,60,0,7.6,7.1,3.9,60,0,4.6,3.0,64.6,60,0,69.0,60.0,28.1,60,0,39.0,18.0,239,0.0,1021.4,60,0,1021.4,0,1007.1,60,0,46.2,60,0
86282,2013-04-28 12:00:00,9660,60,0,0.0,0.0,0.0,60,0,0.0,0.0,0.0,60,0,0.0,0.0,0.0,60,0,0.0,0.0,337.4,60,0,342.9,323.3,0,0,0,28.1,60,0,10.2,60,0,10.4,10.1,7.4,60,0,7.6,7.1,3.9,60,0,4.6,3.0,64.6,60,0,69.0,60.0,28.1,60,0,39.0,18.0,239,0.0,1021.4,60,0,1021.4,0,1007.1,60,0,46.2,60,0
86282,2013-04-29 00:00:00,9670,60,0,0.0,0.0,0.0,60,0,0.0,0.0,0.0,60,0,0.0,0.0,0.0,60,0,0.0,0.0,337.4,60,0,342.9,323.3,0,0,0,28.1,60,0,10.2,60,0,10.4,10.1,7.4,60,0,7.6,7.1,3.9,60,0,4.6,3.0,64.6,60,0,69.0,60.0,28.1,60,0,39.0,18.0,239,0.0,1021.4,60,0,1021.4,0,1007.1,60,0,46.2,60,0
86282,2013-04-29 12:00:00,9680,60,0,0.0,0.0,0.0,60,0,0.0,0.0,0.0,60,0,0.0,0.0,0.0,60,0,0.0,0.0,337.4,60,0,342.9,323.3,0,0,0,28.1,60,0,10.2,60,0,10.4,10.1,7.4,60,0,7.6,7.1,3.9,60,0,4.6,3.0,64.6,60,0,69.0,60.0,28.1,60,0,39.0,18.0,239,0.0,1021.4,60,0,1021.4,0,1007.1,60,0,46.2,60,0
86282,2013-04-30 00:00:00,9690,60,0,0.0,0.0,0.0,60,0,0.0,0.0,0.0,60,0,0.0,0.0,0.0,60,0,0.0,0.0,337.4,60,0,342.9,323.3,0,0,0,28.1,60,0,10.2,60,0,10.4,10.1,7.4,60,0,7.6,7.1,3.9,60,0,4.6,3.0,64.6,60,0,69.0,60.0,28.1,60,0,39.0,18.0,239,0.0,1021.4,60,0,1021.4,0,1007.1,60,0,46.2,60,0
86282,2013-04-30 12:00:00,9700,60,0,0.0,0.0,0.0,60,0,0.0,0.0,0.0,60,0,0.0,0.0,0.0,60,0,0.0,0.0,337.4,60,0,342.9,323.3,0,0,0,28.1,60,0,10.2,60,0,10.4,10.1,7.4,60,0,7.6,7.1,3.9,60,0,4.6,3.0,64.6,60,0,69.0,60.0,28.1,60,0,39.0,18.0,239,0.0,1021.4,60,0,1021.4,0,1007.1,60,0,46.2,60,0
86282,2013-05-01 00:00:00,9710,60,0,0.0,0.0,0.0,60,0,0.0,0.0,0.0,60,0,0.0,0.0,0.0,60,0,0.0,0.0,337.4,60,0,342.9,323.3,0,0,0,28.1,60,0,10.2,60,0,10.4,10.1,7.4,60,0,7.6,7.1,3.9,60,0,4.6,3.0,64.6,60,0,69.0,60.0,28.1,60,0,39.0,18.0,239,0.0,1021.4,60,0,1021.4,0,1007.1,60,0,46.2,60,0
86282,2013-05-01 12:00:00,9720,60,0,0.0,0.0,0.0,60,0,0.0,0.0,0.0,60,0,0.0,0.0,0.0,60,0,0.0,0.0,337.4,60,0,342.9,323.3,0,0,0,28.1,60,0,10.2,60,0,10.4,10.1,7.4,60,0,7.6,7.1,3.9,60,0,4.6,3.0,64.6,60,0,69.0,60.0,28.1,60,0,39.0,18.0,239,0.0,1021.4,60,0,1021.4,0,1007.1,60,0,46.2,60,0
86282,2013-05-02 00:00:00,9730,60,0,0.0,0.0,0.0,60,0,0.0,0.0,0.0,60,0,0.0,0.0,0.0,60,0,0.0,0.0,337.4,60,0,342.9,323.3,0,0,0,28.1,60,0,10.2,60,0,10.4,10.1,7.4,60,0,7.6,7.1,3.9,60,0,4.6,3.0,64.6,60,0,69.0,60.0,28.1,60,0,39.0,18.0,239,0.0,1021.4,60,0,1021.4,0,1007.1,60,0,46.2,60,0
86282,2013-05-02 12:00:00,9740,60,0,0.0,0.0,0.0,60,0,0.0,0.0,0.0,60,0,0.0,0.0,0.0,60,0,0.0,0.0,337.4,60,0,342.9,323.3,0,0,0,28.1,60,0,10.2,60,0,10.4,10.1,7.4,60,0,7.6,7.1,3.9,60,0,4.6,3.0,64.6,60,0,69.0,60.0,28.1,60,0,39.0,18.0,239,0.0,1021.4,60,0,1021.4,0,1007.1,60,0,46.2,60,0
86282,2013-05-03 00:00:00,9750,60,0,0.0,0.0,0.0,60,0,0.0,0.0,0.0,60,0,0.0,0.0,0.0,60,0,0.0,0.0,337.4,60,0,342.9,323.3,0,0,0,28.1,60,0,10.2,60,0,10.4,10.1,7.4,60,0,7.6,7.1,3.9,60,0,4.6,3.0,64.6,60,0,69.0,60.0,28.1,60,0,39.0,18.0,239,0.0,1021.4,60,0,1021.4,0,1007.1,60,0,46.2,60,0
86282,2013-05-03 12:00:00,9760,60,0,0.0,0.0,0.0,60,0,0.0,0.0,0.0,60,0,0.0,0.0,0.0,60,0,0.0,0.0,337.4,60,0,342.9,323.3,0,0,0,28.1,60,0,10.2,60,0,10.4,10.1,7.4,60,0,7.6,7.1,3.9,60,0,4.6,3.0,64.6,60,0,69.0,60.0,28.1,60,0,39.0,18.0,239,0.0,1021.4,60,0,1021.4,0,1007.1,60,0,46.2,60,0
86282,2013-05-04 00:00:00,9770,60,0,0.0,0.0,0.0,60,0,0.0,0.0,0.0,60,0,0.0,0.0,0.0,60,0,0.0,0.0,337.4,60,0,342.9,323.3,0,0,0,28.1,60,0,10.2,60,0,10.4,10.1,7.4,60,0,7.6,7.1,3.9,60,0,4.6,3.0,64.6,60,0,69.0,60.0,28.1,60,0,39.0,18.0,239,0.0,1021.4,60,0,1021.4,0,1007.1,60,0,46.2,60,0
86282,2013-05-04 12:00:00,9780,60,0,0.0,0.0,0.0,60,0,0.0,0.0,0.0,60,0,0.0,0.0,0.0,60,0,0.0,0.0,337.4,60,0,342.9,323.3,0,0,0,28.1,60,0,10.2,60,0,10.4,10.1,7.4,60,0,7.6,7.1,3.9,60,0,4.6,3.0,64.6,60,0,69.0,60.0,28.1,60,0,39.0,18.0,239,0.0,1021.4,60,0,1021.4,0,1007.1,60,0,46.2,60,0
86282,2013-05-05 00:00:00,9790,60,0,0.0,0.0,0.0,60,0,0.0,0.0,0.0,60,0,0.0,0.0,0.0,60,0,0.0,0.0,337.4,60,0,342.9,323.3,0,0,0,28.1,60,0,10.2,60,0,10.4,10.1,7.4,60,0,7.6,7.1,3.9,60,0,4.6,3.0,64.6,60,0,69.0,60.0,28.1,60,0,39.0,18.0,239,0.0,1021.4,60,0,1021.4,0,1007.1,60,0,46.2,60,0
86282,2013-05-05 12:00:00,9800,60,0,0.0,0.0,0.0,60,0,0.0,0.0,0.0,60,0,0.0,0.0,0.0,60,0,0.0,0.0,337.4,60,0,342.9,323.3,0,0,0,28.1,60,0,10.2,60,0,10.4,10.1,7.4,60,0,7.6,7.1,3.9,60,0,4.6,3.0,64.6,60,0,69.0,60.0,28.1,60,0,39.0,18.0,239,0.0,1021.4,60,0,1021.4,0,1007.1,60,0,46.2,60,0
86282,2013-05-06 00:00:00,9810,60,0,0.0,0.0,0.0,60,0,0.0,0.0,0.0,60,0,0.0,0.0,0.0,60,0,0.0,0.0,337.4,60,0,342.9,323.3,0,0,0,28.1,60,0,10.2,60,0,10.4,10.1,7.4,60,0,7.6,7.1,3.9,60,0,4.6,3.0,64.6,60,0,69.0,60.0,28.1,60,0,39.0,18.0,239,0.0,1021.4,60,0,1021.4,0,1007.1,60,0,46.2,60,0
86282,2013-05-06 12:00:00,9820,60,0,0.0,0.0,0.0,60,0,0.0,0.0,0.0,60,0,0.0,0.0,0.0,60,0,0.0,0.0,337.4,60,0,342.9,323.3,0,0,0,28.1,60,0,10.2,60,0,10.4,10.1,7.4,60,0,7.6,7.1,3.9,60,0,4.6,3.0,64.6,60,0,69.0,60.0,28.1,60,0,39.0,18.0,239,0.0,1021.4,60,0,1021.4,0,1007.1,60,0,46.2,60,0
86282,2013-05-07 00:00:00,9830,60,0,0.0,0.0,0.0,60,0,0.0,0.0,0.0,60,0,0.0,0.0,0.0,60,0,0.0,0.0,337.4,60,0,342.9,323.3,0,0,0,28.1,60,0,10.2,60,0,10.4,10.1,7.4,60,0,7.6,7.1,3.9,60,0,4.6,3.0,64.6,60,0,69.0,60.0,28.1,60,0,39.0,18.0,239,0.0,1021.4,60,0,1021.4,0,1007.1,60,0,46.2,60,0
86282,2013-05-07 12:00:00,9840,60,0,0.0,0.0,0.0,60,0,0.0,0.0,0.0,60,0,0.0,0.0,0.0,60,0,0.0,0.0,337.4,60,0,342.9,323.3,0,0,0,28.1,60,0,10.2,60,0,10.4,10.1,7.4,60,0,7.6,7.1,3.9,60,0,4.6,3.0,64.6,60,0,69.0,60.0,28.1,60,0,39.0,18.0,239,0.0,1021.4,60,0,1021.4,0,1007.1,60,0,46.2,60,0
86282,2013-05-08 00:00:00,9850,60,0,0.0,0.0,0.0,60,0,0.0,0.0,0.0,60,0,0.0,0.0,0.0,60,0,0.0,0.0,337.4,60,0,342.9,323.3,0,0,0,28.1,60,0,10.2,60,0,10.4,10.1,7.4,60,0,7.6,7.1,3.9,60,0,4.6,3.0,64.6,60,0,69.0,60.0,28.1,60,0,39.0,18.0,239,0.0,1021.4,60,0,1021.4,0,1007.1,60,0,46.2,60,0
86282,2013-05-08 12:00:00,9860,60,0,0.0,0.0,0.0,60,0,0.0,0.0,0.0,60,0,0.0,0.0,0.0,60,0,0.0,0.0,337.4,60,0,342.9,323.3,0,0,0,28.1,60,0,10.2,60,0,10.4,10.1,7.4,60,0,7.6,7.1,3.9,60,0,4.6,3.0,64.6,60,0,69.0,60.0,28.1,60,0,39.0,18.0,239,0.0,1021.4,60,0,1021.4,0,1007.1,60,0,46.2,60,0
86282,2013-05-09 00:00:00,9870,60,0,0.0,0.0,0.0,60,0,0.0,0.0,0.0,60,0,0.0,0.0,0.0,60,0,0.0,0.0,337.4,60,0,342.9,323.3,0,0,0,28.1,60,0,10.2,60,0,10.4,10.1,7.4,60,0,7.6,7.1,3.9,60,0,4.6,3.0,64.6,60,0,69.0,60.0,28.1,60,0,39.0,18.0,239,0.0,1021.4,60,0,1021.4,0,1007.1,60,0,46.2,60,0
86282,2013-05-09 12:00:00,9880,60,0,0.0,0.0,0.0,60,0,0.0,0.0,0.0,60,0,0.0,0.0,0.0,60,0,0.0,0.0,337.4,60,0,342.9,323.3,0,0,0,28.1,60,0,10.2,60,0,10.4,10.1,7.4,60,0,7.6,7.1,3.9,60,0,4.6,3.0,64.6,60,0,69.0,60.0,28.1,60,0,39.0,18.0,239,0.0,1021.4,60,0,1021.4,0,1007.1,60,0,46.2,60,0
86282,2013-05-10 00:00:00,9890,60,0,0.0,0.0,0.0,60,0,0.0,0.0,0.0,60,0,0.0,0.0,0.0,60,0,0.0,0.0,337.4,60,0,342.9,323.3,0,0,0,28.1,60,0,10.2,60,0,10.4,10.1,7.4,60,0,7.6,7.1,3.9,60,0,4.6,3.0,64.6,60,0,69.0,60.0,28.1,60,0,39.0,18.0,239,0.0,1021.4,60,0,1021.4,0,1007.1,60,0,46.2,60,0
86282,2013-05-10 12:00:00,9900,60,0,0.0,0.0,0.0,60,0,0.0,0.0,0.0,60,0,0.0,0.0,0.0,60,0,0.0,0.0,337.4,60,0,342.9,323.3,0,0,0,28.1,60,0,10.2,60,0,10.4,10.1,7.4,60,0,7.6,7.1,3.9,60,0,4.6,3.0,64.6,60,0,69.0,60.0,28.1,60,0,39.0,18.0,239,0.0,1021.4,60,0,1021.4,0,1007.1,60,0,46.2,60,0
86282,2013-05-11 00:00:00,9910,60,0,0.0,0.0,0.0,60,0,0.0,0.0,0.0,60,0,0.0,0.0,0.0,60,0,0.0,0.0,337.4,60,0,342.9,323.3,0,0,0,28.1,60,0,10.2,60,0,10.4,10.1,7.4,60,0,7.6,7.1,3.9,60,0,4.6,3.0,64.6,60,0,69.0,60.0,28.1,60,0,39.0,18.0,239,0.0,1021.4,60,0,1021.4,0,1007.1,60,0,46.2,60,0
86282,2013-05-11 12:00:00,9920,60,0,0.0,0.0,0.0,60,0,0.0,0.0,0.0,60,0,0.0,0.0,0.0,60,0,0.0,0.0,337.4,60,0,342.9,323.3,0,0,0,28.1,60,0,10.2,60,0,10.4,10.1,7.4,60,0,7.6,7.1,3.9,60,0,4.6,3.0,64.6,60,0,69.0,60.0,28.1,60,0,39.0,18.0,239,0.0,1021.4,60,0,1021.4,0,1007.1,60,0,46.2,60,0
86282,2013-05-12 00:00:00,9930,60,0,0.0,0.0,0.0,60,0,0.0,0.0,0.0,60,0,0.0,0.0,0.0,60,0,0.0,0.0,337.4,60,0,342.9,323.3,0,0,0,28.1,60,0,10.2,60,0,10.4,10.1,7.4,60,0,7.6,7.1,3.9,60,0,4.6,3.0,64.6,60,0,69.0,60.0,28.1,60,0,39.0,18.0,239,0.0,1021.4,60,0,1021.4,0,1007.1,60,0,46.2,60,0
86282,2013-05-12 12:00:00,9940,60,0,0.0,0.0,0.0,60,0,0.0,0.0,0.0,60,0,0.0,0.0,0.0,60,0,0.0,0.0,337.4,60,0,342.9,323.3,0,0,0,28.1,60,0,10.2,60,0,10.4,10.1,7.4,60,0,7.6,7.1,3.9,60,0,4.6,3.0,64.6,60,0,69.0,60.0,28.1,60,0,39.0,18.0,239,0.0,1021.4,60,0,1021.4,0,1007.1,60,0,46.2,60,0
86282,2013-05-13 00:00:00,9950,60,0,0.0,0.0,0.0,60,0,0.0,0.0,0.0,60,0,0.0,0.0,0.0,60,0,0.0,0.0,337.4,60,0,342.9,323.3,0,0,0,28.1,60,0,10.2,60,0,10.4,10.1,7.4,60,0,7.6,7.1,3.9,60,0,4.6,3.0,64.6,60,0,69.0,60.0,28.1,60,0,39.0,18.0,239,0.0,1021.4,60,0,1021.4,0,1007.1,60,0,46.2,60,0
86282,2013-05-13 12:00:00,9960,60,0,0.0,0.0,0.0,60,0,0.0,0.0,0.0,60,0,0.0,0.0,0.0,60,0,0.0,0.0,337.4,60,0,342.9,323.3,0,0,0,28.1,60,0,10.2,60,0,10.4,10.1,7.4,60,0,7.6,7.1,3.9,60,0,4.6,3.0,64.6,60,0,69.0,60.0,28.1,60,0,39.0,18.0,239,0.0,1021.4,60,0,1021.4,0,1007.1,60,0,46.2,60,0
86282,2013-05-14 00:00:00,9970,60,0,0.0,0.0,0.0,60,0,0.0,0.0,0.0,60,0,0.0,0.0,0.0,60,0,0.0,0.0,337.4,60,0,342.9,323.3,0,0,0,28.1,60,0,10.2,60,0,10.4,10.1,7.4,60,0,7.6,7.1,3.9,60,0,4.6,3.0,64.6,60,0,69.0,60.0,28.1,60,0,39.0,18.0,239,0.0,1021.4,60,0,1021.4,0,1007.1,60,0,46.2,60,0
86282,2013-05-14 12:00:00,9980,60,0,0.0,0.0,0.0,60,0,0.0,0.0,0.0,60,0,0.0,0.0,0.0,60,0,0.0,0.0,337.4,60,0,342.9,323.3,0,0,0,28.1,60,0,10.2,60,0,10.4,10.1,7.4,60,0,7.6,7.1,3.9,60,0,4.6,3.0,64.6,60,0,69.0,60.0,28.1,60,0,39.0,18.0,239,0.0,1021.4,60,0,1021.4,0,1007.1,60,0,46.2,60,0
86282,2013-05-15 00:00:00,9990,60,0,0.0,0.0,0.0,60,0,0.0,0.0,0.0,60,0,0.0,0.0,0.0,60,0,0.0,0.0,337.4,60,0,342.9,323.3,0,0,0,28.1,60,0,10.2,60,0,10.4,10.1,7.4,60,0,7.6,7.1,3.9,60,0,4.6,3.0,64.6,60,0,69.0,60.0,28.1,60,0,39.0,18.0,239,0.0,1021.4,60,0,1021.4,0,1007.1,60,0,46.2,60,0
86282,2013-05-15 12:00:00,10000,60,0,0.0,0.0,0.0,60,0,0.0,0.0,0.0,60,0,0.0,0.0,0.0,60,0,0.0,0.0,337.4,60,0,342.9,323.3,0,0,0,28.1,60,0,10.2,60,0,10.4,10.1,7.4,60,0,7.6,7.1,3.9,60,0,4.6,3.0,64.6,60,0,69.0,60.0,28.1,60,0,39.0,18.0,239,0.0,1021.4,60,0,1021.4,0,1007.1,60,0,46.2,60,0
86282,2013-05-16 00:00:00,10010,60,0,0.0,0.0,0.0,60,0,0.0,0.0,0.0,60,0,0.0,0.0,0.0,60,0,0.0,0.0,337.4,60,0,342.9,323.3,0,0,0,28.1,60,0,10.2,60,0,10.4,10.1,7.4,60,0,7.6,7.1,3.9,60,0,4.6,3.0,64.6,60,0,69.0,60.0,28.1,60,0,39.0,18.0,239,0.0,1021.4,60,0,1021.4,0,1007.1,60,0,46.2,60,0
86282,2013-05-16 12:00:00,10020,60,0,0.0,0.0,0.0,60,0,0.0,0.0,0.0,60,0,0.0,0.0,0.0,60,0,0.0,0.0,337.4,60,0,342.9,323.3,0,0,0,28.1,60,0,10.2,60,0,10.4,10.1,7.4,60,0,7.6,7.1,3.9,60,0,4.6,3.0,64.6,60,0,69.0,60.0,28.1,60,0,39.0,18.0,239,0.0,1021.4,60,0,1021.4,0,1007.1,60,0,46.2,60,0
86282,2013-05-17 00:00:00,10030,60,0,0.0,0.0,0.0,60,0,0.0,0.0,0.0,60,0,0.0,0.0,0.0,60,0,0.0,0.0,337.4,60,0,342.9,323.3,0,0,0,28.1,60,0,10.2,60,0,10.4,10.1,7.4,60,0,7.6,7.1,3.9,60,0,4.6,3.0,64.6,60,0,69.0,60.0,28.1,60,0,39.0,18.0,239,0.0,1021.4,60,0,1021.4,0,1007.1,60,0,46.2,60,0
86282,2013-05-17 12:00:00,10040,60,0,0.0,0.0,0.0,60,0,0.0,0.0,0.0,60,0,0.0,0.0,0.0,60,0,0.0,0.0,337.4,60,0,342.9,323.3,0,0,0,28.1,60,0,10.2,60,0,10.4,10.1,7.4,60,0,7.6,7.1,3.9,60,0,4.6,3.0,64.6,60,0,69.0,60.0,28.1,60,0,39.0,18.0,239,0.0,1021.4,60,0,1021.4,0,1007.1,60,0,46.2,60,0
86282,2013-05-18 00:00:00,10050,60,0,0.0,0.0,0.0,60,0,0.0,0.0,0.0,60,0,0.0,0.0,0.0,60,0,0.0,0.0,337.4,60,0,342.9,323.3,0,0,0,28.1,60,0,10.2,60,0,10.4,10.1,7.4,60,0,7.6,7.1,3.9,60,0,4.6,3.0,64.6,60,0,69.0,60.0,28.1,60,0,39.0,18.0,239,0.0,1021.4,60,0,1021.4,0,1007.1,60,0,46.2,60,0
86282,2013-05-18 12:00:00,10060,60,0,0.0,0.0,0.0,60,0,0.0,0.0,0.0,60,0,0.0,0.0,0.0,60,0,0.0,0.0,337.4,60,0,342.9,323.3,0,0,0,28.1,60,0,10.2,60,0,10.4,10.1,7.4,60,0,7.6,7.1,3.9,60,0,4.6,3.0,64.6,60,0,69.0,60.0,28.1,60,0,39.0,18.0,239,0.0,1021.4,60,0,1021.4,0,1007.1,60,0,46.2,60,0
86282,2013-05-19 00:00:00,10070,60,0,0.0,0.0,0.0,60,0,0.0,0.0,0.0,60,0,0.0,0.0,0.0,60,0,0.0,0.0,337.4,60,0,342.9,323.3,0,0,0,28.1,60,0,10.2,60,0,10.4,10.1,7.4,60,0,7.6,7.1,3.9,60,0,4.6,3.0,64.6,60,0,69.0,60.0,28.1,60,0,39.0,18.0,239,0.0,1021.4,60,0,1021.4,0,1007.1,60,0,46.2,60,0
86282,2013-05-19 12:00:00,10080,60,0,0.0,0.0,0.0,60,0,0.0,0.0,0.0,60,0,0.0,0.0,0.0,60,0,0.0,0.0,337.4,60,0,342.9,323.3,0,0,0,28.1,60,0,10.2,60,0,10.4,10.1,7.4,60,0,7.6,7.1,3.9,60,0,4.6,3.0,64.6,60,0,69.0,60.0,28.1,60,0,39.0,18.0,239,0.0,1021.4,60,0,1021.4,0,1007.1,60,0,46.2,60,0
86282,2013-05-20 00:00:00,10090,60,0,0.0,0.0,0.0,60,0,0.0,0.0,0.0,60,0,0.0,0.0,0.0,60,0,0.0,0.0,337.4,60,0,342.9,323.3,0,0,0,28.1,60,0,10.2,60,0,10.4,10.1,7.4,60,0,7.6,7.1,3.9,60,0,4.6,3.0,64.6,60,0,69.0,60.0,28.1,60,0,39.0,18.0,239,0.0,1021.4,60,0,1021.4,0,1007.1,60,0,46.2,60,0
86282,2013-05-20 12:00:00,10100,60,0,0.0,0.0,0.0,60,0,0.0,0.0,0.0,60,0,0.0,0.0,0.0,60,0,0.0,0.0,337.4,60,0,342.9,323.3,0,0,0,28.1,60,0,10.2,60,0,10.4,10.1,7.4,60,0,7.6,7.1,3.9,60,0,4.6,3.0,64.6,60,0,69.0,60.0,28.1,60,0,39.0,18.0,239,0.0,1021.4,60,0,1021.4,0,1007.1,60,0,46.2,60,0
86282,2013-05-21 00:00:00,10110,60,0,0.0,0.0,0.0,60,0,0.0,0.0,0.0,60,0,0.0,0.0,0.0,60,0,0.0,0.0,337.4,60,0,342.9,323.3,0,0,0,28.1,60,0,10.2,60,0,10.4,10.1,7.4,60,0,7.6,7.1,3.9,60,0,4.6,3.0,64.6,60,0,69.0,60.0,28.1,60,0,39.0,18.0,239,0.0,1021.4,60,0,1021.4,0,1007.1,60,0,46.2,60,0
86282,2013-05-21 12:00:00,10120,60,0,0.0,0.0,0.0,60,0,0.0,0.0,0.0,60,0,0.0,0.0,0.0,60,0,0.0,0.0,337.4,60,0,342.9,323.3,0,0,0,28.1,60,0,10.2,60,0,10.4,10.1,7.4,60,0,7.6,7.1,3.9,60,0,4.6,3.0,64.6,60,0,69.0,60.0,28.1,60,0,39.0,18.0,239,0.0,1021.4,60,0,1021.4,0,1007.1,60,0,46.2,60,0
86282,2013-05-22 00:00:00,10130,60,0,0.0,0.0,0.0,60,0,0.0,0.0,0.0,60,0,0.0,0.0,0.0,60,0,0.0,0.0,337.4,60,0,342.9,323.3,0,0,0,28.1,60,0,10.2,60,0,10.4,10.1,7.4,60,0,7.6,7.1,3.9,60,0,4.6,3.0,64.6,60,0,69.0,60.0,28.1,60,0,39.0,18.0,239,0.0,1021.4,60,0,1021.4,0,1007.1,60,0,46.2,60,0
86282,2013-05-22 12:00:00,10140,60,0,0.0,0.0,0.0,60,0,0.0,0.0,0.0,60,0,0.0,0.0,0.0,60,0,0.0,0.0,337.4,60,0,342.9,323.3,0,0,0,28.1,60,0,10.2,60,0,10.4,10.1,7.4,60,0,7.6,7.1,3.9,60,0,4.6,3.0,64.6,60,0,69.0,60.0,28.1,60,0,39.0,18.0,239,0.0,1021.4,60,0,1021.4,0,1007.1,60,0,46.2,60,0
86282,2013-05-23 00:00:00,10150,60,0,0.0,0.0,0.0,60,0,0.0,0.0,0.0,60,0,0.0,0.0,0.0,60,0,0.0,0.0,337.4,60,0,342.9,323.3,0,0,0,28.1,60,0,10.2,60,0,10.4,10.1,7.4,60,0,7.6,7.1,3.9,60,0,4.6,3.0,64.6,60,0,69.0,60.0,28.1,60,0,39.0,18.0,239,0.0,1021.4,60,0,1021.4,0,1007.1,60,0,46.2,60,0
86282,2013-05-23 12:00:00,10160,60,0,0.0,0.0,0.0,60,0,0.0,0.0,0.0,60,0,0.0,0.0,0.0,60,0,0.0,0.0,337.4,60,0,342.9,323.3,0,0,0,28.1,60,0,10.2,60,0,10.4,10.1,7.4,60,0,7.6,7.1,3.9,60,0,4.6,3.0,64.6,60,0,69.0,60.0,28.1,60,0,39.0,18.0,239,0.0,1021.4,60,0,1021.4,0,1007.1,60,0,46.2,60,0
86282,2013-05-24 00:00:00,10170,60,0,0.0,0.0,0.0,60,0,0.0,0.0,0.0,60,0,0.0,0.0,0.0,60,0,0.0,0.0,337.4,60,0,342.9,323.3,0,0,0,28.1,60,0,10.2,60,0,10.4,10.1,7.4,60,0,7.6,7.1,3.9,60,0,4.6,3.0,64.6,60,0,69.0,60.0,28.1,60,0,39.0,18.0,239,0.0,1021.4,60,0,1021.4,0,1007.1,60,0,46.2,60,0
86282,2013-05-24 12:00:00,10180,60,0,0.0,0.0,0.0,60,0,0.0,0.0,0.0,60,0,0.0,0.0,0.0,60,0,0.0,0.0,337.4,60,0,342.9,323.3,0,0,0,28.1,60,0,10.2,60,0,10.4,10.1,7.4,60,0,7.6,7.1,3.9,60,0,4.6,3.0,64.6,60,0,69.0,60.0,28.1,60,0,39.0,18.0,239,0.0,1021.4,60,0,1021.4,0,1007.1,60,0,46.2,60,0
86282,2013-05-25 00:00:00,10190,60,0,0.0,0.0,0.0,60,0,0.0,0.0,0.0,60,0,0.0,0.0,0.0,60,0,0.0,0.0,337.4,60,0,342.9,323.3,0,0,0,28.1,60,0,10.2,60,0,10.4,10.1,7.4,60,0,7.6,7.1,3.9,60,0,4.6,3.0,64.6,60,0,69.0,60.0,28.1,60,0,39.0,18.0,239,0.0,1021.4,60,0,1021.4,0,1007.1,60,0,46.2,60,0
86282,2013-05-25 12:00:00,10200,60,0,0.0,0.0,0.0,60,0,0.0,0.0,0.0,60,0,0.0,0.0,0.0,60,0,0.0,0.0,337.4,60,0,342.9,323.3,0,0,0,28.1,60,0,10.2,60,0,10.4,10.1,7.4,60,0,7.6,7.1,3.9,60,0,4.6,3.0,64.6,60,0,69.0,60.0,28.1,60,0,39.0,18.0,239,0.0,1021.4,60,0,1021.4,0,1007.1,60,0,46.2,60,0
86282,2013-05-26 00:00:00,10210,60,0,0.0,0.0,0.0,60,0,0.0,0.0,0.0,60,0,0.0,0.0,0.0,60,0,0.0,0.0,337.4,60,0,342.9,323.3,0,0,0,28.1,60,0,10.2,60,0,10.4,10.1,7.4,60,0,7.6,7.1,3.9,60,0,4.6,3.0,64.6,60,0,69.0,60.0,28.1,60,0,39.0,18.0,239,0.0,1021.4,60,0,1021.4,0,1007.1,60,0,46.2,60,0
86282,2013-05-26 12:00:00,10220,60,0,0.0,0.0,0.0,60,0,0.0,0.0,0.0,60,0,0.0,0.0,0.0,60,0,0.0,0.0,337.4,60,0,342.9,323.3,0,0,0,28.1,60,0,10.2,60,0,10.4,10.1,7.4,60,0,7.6,7.1,3.9,60,0,4.6,3.0,64.6,60,0,69.0,60.0,28.1,60,0,39.0,18.0,239,0.0,1021.4,60,0,1021.4,0,1007.1,60,0,46.2,60,0
86282,2013-05-27 00:00:00,10230,60,0,0.0,0.0,0.0,60,0,0.0,0.0,0.0,60,0,0.0,0.0,0.0,60,0,0.0,0.0,337.4,60,0,342.9,323.3,0,0,0,28.1,60,0,10.2,60,0,10.4,10.1,7.4,60,0,7.6,7.1,3.9,60,0,4.6,3.0,64.6,60,0,69.0,60.0,28.1,60,0,39.0,18.0,239,0.0,1021.4,60,0,1021.4,0,1007.1,60,0,46.2,60,0
86282,2013-05-27 12:00:00,10240,60,0,0.0,0.0,0.0,60,0,0.0,0.0,0.0,60,0,0.0,0.0,0.0,60,0,0.0,0.0,337.4,60,0,342.9,323.3,0,0,0,28.1,60,0,10.2,60,0,10.4,10.1,7.4,60,0,7.6,7.1,3.9,60,0,4.6,3.0,64.6,60,0,69.0,60.0,28.1,60,0,39.0,18.0,239,0.0,1021.4,60,0,1021.4,0,1007.1,60,0,46.2,60,0
86282,2013-05-28 00:00:00,10250,60,0,0.0,0.0,0.0,60,0,0.0,0.0,0.0,60,0,0.0,0.0,0.0,60,0,0.0,0.0,337.4,60,0,342.9,323.3,0,0,0,28.1,60,0,10.2,60,0,10.4,10.1,7.4,60,0,7.6,7.1,3.9,60,0,4.6,3.0,64.6,60,0,69.0,60.0,28.1,60,0,39.0,18.0,239,0.0,1021.4,60,0,1021.4,0,1007.1,60,0,46.2,60,0
86282,2013-05-28 12:00:00,10260,60,0,0.0,0.0,0.0,60,0,0.0,0.0,0.0,60,0,0.0,0.0,0.0,60,0,0.0,0.0,337.4,60,0,342.9,323.3,0,0,0,28.1,60,0,10.2,60,0,10.4,10.1,7.4,60,0,7.6,7.1,3.9,60,0,4.6,3.0,64.6,60,0,69.0,60.0,28.1,60,0,39.0,18.0,239,0.0,1021.4,60,0,1021.4,0,1007.1,60,0,46.2,60,0
86282,2013-05-29 00:00:00,10270,60,0,0.0,0.0,0.0,60,0,0.0,0.0,0.0,60,0,0.0,0.0,0.0,60,0,0.0,0.0,337.4,60,0,342.9,323.3,0,0,0,28.1,60,0,10.2,60,0,10.4,10.1,7.4,60,0,7.6,7.1,3.9,60,0,4.6,3.0,64.6,60,0,69.0,60.0,28.1,60,0,39.0,18.0,239,0.0,1021.4,60,0,1021.4,0,1007.1,60,0,46.2,60,0
86282,2013-05-29 12:00:00,10280,60,0,0.0,0.0,0.0,60,0,0.0,0.0,0.0,60,0,0.0,0.0,0.0,60,0,0.0,0.0,337.4,60,0,342.9,323.3,0,0,0,28.1,60,0,10.2,60,0,10.4,10.1,7.4,60,0,7.6,7.1,3.9,60,0,4.6,3.0,64.6,60,0,69.0,60.0,28.1,60,0,39.0,18.0,239,0.0,1021.4,60,0,1021.4,0,1007.1,60,0,46.2,60,0
86282,2013-05-30 00:00:00,10290,60,0,0.0,0.0,0.0,60,0,0.0,0.0,0.0,60,0,0.0,0.0,0.0,60,0,0.0,0.0,337.4,60,0,342.9,323.3,0,0,0,28.1,60,0,10.2,60,0,10.4,10.1,7.4,60,0,7.6,7.1,3.9,60,0,4.6,3.0,64.6,60,0,69.0,60.0,28.1,60,0,39.0,18.0,239,0.0,1021.4,60,0,1021.4,0,1007.1,60,0,46.2,60,0
86282,2013-05-30 12:00:00,10300,60,0,0.0,0.0,0.0,60,0,0.0,0.0,0.0,60,0,0.0,0.0,0.0,60,0,0.0,0.0,337.4,60,0,342.9,323.3,0,0,0,28.1,60,0,10.2,60,0,10.4,10.1,7.4,60,0,7.6,7.1,3.9,60,0,4.6,3.0,64.6,60,0,69.0,60.0,28.1,60,0,39.0,18.0,239,0.0,1021.4,60,0,1021.4,0,1007.1,60,0,46.2,60,0
86282,2013-05-31 00:00:00,10310,60,0,0.0,0.0,0.0,60,0,0.0,0.0,0.0,60,0,0.0,0.0,0.0,60,0,0.0,0.0,337.4,60,0,342.9,323.3,0,0,0,28.1,60,0,10.2,60,0,10.4,10.1,7.4,60,0,7.6,7.1,3.9,60,0,4.6,3.0,64.6,60,0,69.0,60.0,28.1,60,0,39.0,18.0,239,0.0,1021.4,60,0,1021.4,0,1007.1,60,0,46.2,60,0
86282,2013-05-31 12:00:00,10320,60,0,0.0,0.0,0.0,60,0,0.0,0.0,0.0,60,0,0.0,0.0,0.0,60,0,0.0,0.0,337.4,60,0,342.9,323.3,0,0,0,28.1,60,0,10.2,60,0,10.4,10.1,7.4,60,0,7.6,7.1,3.9,60,0,4.6,3.0,64.6,60,0,69.0,60.0,28.1,60,0,39.0,18.0,239,0.0,1021.4,60,0,1021.4,0,1007.1,60,0,46.2,60,0
86282,2013-06-01 00:00:00,10330,60,0,0.0,0.0,0.0,60,0,0.0,0.0,0.0,60,0,0.0,0.0,0.0,60,0,0.0,0.0,337.4,60,0,342.9,323.3,0,0,0,28.1,60,0,10.2,60,0,10.4,10.1,7.4,60,0,7.6,7.1,3.9,60,0,4.6,3.0,64.6,60,0,69.0,60.0,28.1,60,0,39.0,18.0,239,0.0,1021.4,60,0,1021.4,0,1007.1,60,0,46.2,60,0
86282,2013-06-01 12:00:00,10340,60,0,0.0,0.0,0.0,60,0,0.0,0.0,0.0,60,0,0.0,0.0,0.0,60,0,0.0,0.0,337.4,60,0,342.9,323.3,0,0,0,28.1,60,0,10.2,60,0,10.4,10.1,7.4,60,0,7.6,7.1,3.9,60,0,4.6,3.0,64.6,60,0,69.0,60.0,28.1,60,0,39.0,18.0,239,0.0,1021.4,60,0,1021.4,0,1007.1,60,0,46.2,60,0
86282,2013-06-02 00:00:00,10350,60,0,0.0,0.0,0.0,60,0,0.0,0.0,0.0,60,0,0.0,0.0,0.0,60,0,0.0,0.0,337.4,60,0,342.9,323.3,0,0,0,28.1,60,0,10.2,60,0,10.4,10.1,7.4,60,0,7.6,7.1,3.9,60,0,4.6,3.0,64.6,60,0,69.0,60.0,28.1,60,0,39.0,18.0,239,0.0,1021.4,60,0,1021.4,0,1007.1,60,0,46.2,60,0
86282,2013-06-02 12:00:00,10360,60,0,0.0,0.0,0.0,60,0,0.0,0.0,0.0,60,0,0.0,0.0,0.0,60,0,0.0,0.0,337.4,60,0,342.9,323.3,0,0,0,28.1,60,0,10.2,60,0,10.4,10.1,7.4,60,0,7.6,7.1,3.9,60,0,4.6,3.0,64.6,60,0,69.0,60.0,28.1,60,0,39.0,18.0,239,0.0,1021.4,60,0,1021.4,0,1007.1,60,0,46.2,60,0
86282,2013-06-03 00:00:00,10370,60,0,0.0,0.0,0.0,60,0,0.0,0.0,0.0,60,0,0.0,0.0,0.0,60,0,0.0,0.0,337.4,60,0,342.9,323.3,0,0,0,28.1,60,0,10.2,60,0,10.4,10.1,7.4,60,0,7.6,7.1,3.9,60,0,4.6,3.0,64.6,60,0,69.0,60.0,28.1,60,0,39.0,18.0,239,0.0,1021.4,60,0,1021.4,0,1007.1,60,0,46.2,60,0
86282,2013-06-03 12:00:00,10380,60,0,0.0,0.0,0.0,60,0,0.0,0.0,0.0,60,0,0.0,0.0,0.0,60,0,0.0,0.0,337.4,60,0,342.9,323.3,0,0,0,28.1,60,0,10.2,60,0,10.4,10.1,7.4,60,0,7.6,7.1,3.9,60,0,4.6,3.0,64.6,60,0,69.0,60.0,28.1,60,0,39.0,18.0,239,0.0,1021.4,60,0,1021.4,0,1007.1,60,0,46.2,60,0
86282,2013-06-04 00:00:00,10390,60,0,0.0,0.0,0.0,60,0,0.0,0.0,0.0,60,0,0.0,0.0,0.0,60,0,0.0,0.0,337.4,60,0,342.9,323.3,0,0,0,28.1,60,0,10.2,60,0,10.4,10.1,7.4,60,0,7.6,7.1,3.9,60,0,4.6,3.0,64.6,60,0,69.0,60.0,28.1,60,0,39.0,18.0,239,0.0,1021.4,60,0,1021.4,0,1007.1,60,0,46.2,60,0
86282,2013-06-04 12:00:00,10400,60,0,0.0,0.0,0.0,60,0,0.0,0.0,0.0,60,0,0.0,0.0,0.0,60,0,0.0,0.0,337.4,60,0,342.9,323.3,0,0,0,28.1,60,0,10.2,60,0,10.4,10.1,7.4,60,0,7.6,7.1,3.9,60,0,4.6,3.0,64.6,60,0,69.0,60.0,28.1,60,0,39.0,18.0,239,0.0,1021.4,60,0,1021.4,0,1007.1,60,0,46.2,60,0
86282,2013-06-05 00:00:00,10410,60,0,0.0,0.0,0.0,60,0,0.0,0.0,0.0,60,0,0.0,0.0,0.0,60,0,0.0,0.0,337.4,60,0,342.9,323.3,0,0,0,28.1,60,0,10.2,60,0,10.4,10.1,7.4,60,0,7.6,7.1,3.9,60,0,4.6,3.0,64.6,60,0,69.0,60.0,28.1,60,0,39.0,18.0,239,0.0,1021.4,60,0,1021.4,0,1007.1,60,0,46.2,60,0
86282,2013-06-05 12:00:00,10420,60,0,0.0,0.0,0.0,60,0,0.0,0.0,0.0,60,0,0.0,0.0,0.0,60,0,0.0,0.0,337.4,60,0,342.9,323.3,0,0,0,28.1,60,0,10.2,60,0,10.4,10.1,7.4,60,0,7.6,7.1,3.9,60,0,4.6,3.0,64.6,60,0,69.0,60.0,28.1,60,0,39.0,18.0,239,0.0,1021.4,60,0,1021.4,0,1007.1,60,0,46.2,60,0
86282,2013-06-06 00:00:00,10430,60,0,0.0,0.0,0.0,60,0,0.0,0.0,0.0,60,0,0.0,0.0,0.0,60,0,0.0,0.0,337.4,60,0,342.9,323.3,0,0,0,28.1,60,0,10.2,60,0,10.4,10.1,7.4,60,0,7.6,7.1,3.9,60,0,4.6,3.0,64.6,60,0,69.0,60.0,28.1,60,0,39.0,18.0,239,0.0,1021.4,60,0,1021.4,0,1007.1,60,0,46.2,60,0
86282,2013-06-06 12:00:00,10440,60,0,0.0,0.0,0.0,60,0,0.0,0.0,0.0,60,0,0.0,0.0,0.0,60,0,0.0,0.0,337.4,60,0,342.9,323.3,0,0,0,28.1,60,0,10.2,60,0,10.4,10.1,7.4,60,0,7.6,7.1,3.9,60,0,4.6,3.0,64.6,60,0,69.0,60.0,28.1,60,0,39.0,18.0,239,0.0,1021.4,60,0,1021.4,0,1007.1,60,0,46.2,60,0
86282,2013-06-07 00:00:00,10450,60,0,0.0,0.0,0.0,60,0,0.0,0.0,0.0,60,0,0.0,0.0,0.0,60,0,0.0,0.0,337.4,60,0,342.9,323.3,0,0,0,28.1,60,0,10.2,60,0,10.4,10.1,7.4,60,0,7.6,7.1,3.9,60,0,4.6,3.0,64.6,60,0,69.0,60.0,28.1,60,0,39.0,18.0,239,0.0,1021.4,60,0,1021.4,0,1007.1,60,0,46.2,60,0
86282,2013-06-07 12:00:00,10460,60,0,0.0,0.0,0.0,60,0,0.0,0.0,0.0,60,0,0.0,0.0,0.0,60,0,0.0,0.0,337.4,60,0,342.9,323.3,0,0,0,28.1,60,0,10.2,60,0,10.4,10.1,7.4,60,0,7.6,7.1,3.9,60,0,4.6,3.0,64.6,60,0,69.0,60.0,28.1,60,0,39.0,18.0,239,0.0,1021.4,60,0,1021.4,0,1007.1,60,0,46.2,60,0
86282,2013-06-08 00:00:00,10470,60,0,0.0,0.0,0.0,60,0,0.0,0.0,0.0,60,0,0.0,0.0,0.0,60,0,0.0,0.0,337.4,60,0,342.9,323.3,0,0,0,28.1,60,0,10.2,60,0,10.4,10.1,7.4,60,0,7.6,7.1,3.9,60,0,4.6,3.0,64.6,60,0,69.0,60.0,28.1,60,0,39.0,18.0,239,0.0,1021.4,60,0,1021.4,0,1007.1,60,0,46.2,60,0
86282,2013-06-08 12:00:00,10480,60,0,0.0,0.0,0.0,60,0,0.0,0.0,0.0,60,0,0.0,0.0,0.0,60,0,0.0,0.0,337.4,60,0,342.9,323.3,0,0,0,28.1,60,0,10.2,60,0,10.4,10.1,7.4,60,0,7.6,7.1,3.9,60,0,4.6,3.0,64.6,60,0,69.0,60.0,28.1,60,0,39.0,18.0,239,0.0,1021.4,60,0,1021.4,0,1007.1,60,0,46.2,60,0
86282,2013-06-09 00:00:00,10490,60,0,0.0,0.0,0.0,60,0,0.0,0.0,0.0,60,0,0.0,0.0,0.0,60,0,0.0,0.0,337.4,60,0,342.9,323.3,0,0,0,28.1,60,0,10.2,60,0,10.4,10.1,7.4,60,0,7.6,7.1,3.9,60,0,4.6,3.0,64.6,60,0,69.0,60.0,28.1,60,0,39.0,18.0,239,0.0,1021.4,60,0,1021.4,0,1007.1,60,0,46.2,60,0
86282,2013-06-09 12:00:00,10500,60,0,0.0,0.0,0.0,60,0,0.0,0.0,0.0,60,0,0.0,0.0,0.0,60,0,0.0,0.0,337.4,60,0,342.9,323.3,0,0,0,28.1,60,0,10.2,60,0,10.4,10.1,7.4,60,0,7.6,7.1,3.9,60,0,4.6,3.0,64.6,60,0,69.0,60.0,28.1,60,0,39.0,18.0,239,0.0,1021.4,60,0,1021.4,0,1007.1,60,0,46.2,60,0
86282,2013-06-10 00:00:00,10510,60,0,0.0,0.0,0.0,60,0,0.0,0.0,0.0,60,0,0.0,0.0,0.0,60,0,0.0,0.0,337.4,60,0,342.9,323.3,0,0,0,28.1,60,0,10.2,60,0,10.4,10.1,7.4,60,0,7.6,7.1,3.9,60,0,4.6,3.0,64.6,60,0,69.0,60.0,28.1,60,0,39.0,18.0,239,0.0,1021.4,60,0,1021.4,0,1007.1,60,0,46.2,60,0
86282,2013-06-10 12:00:00,10520,60,0,0.0,0.0,0.0,60,0,0.0,0.0,0.0,60,0,0.0,0.0,0.0,60,0,0.0,0.0,337.4,60,0,342.9,323.3,0,0,0,28.1,60,0,10.2,60,0,10.4,10.1,7.4,60,0,7.6,7.1,3.9,60,0,4.6,3.0,64.6,60,0,69.0,60.0,28.1,60,0,39.0,18.0,239,0.0,1021.4,60,0,1021.4,0,1007.1,60,0,46.2,60,0
86282,2013-06-11 00:00:00,10530,60,0,0.0,0.0,0.0,60,0,0.0,0.0,0.0,60,0,0.0,0.0,0.0,60,0,0.0,0.0,337.4,60,0,342.9,323.3,0,0,0,28.1,60,0,10.2,60,0,10.4,10.1,7.4,60,0,7.6,7.1,3.9,60,0,4.6,3.0,64.6,60,0,69.0,60.0,28.1,60,0,39.0,18.0,239,0.0,1021.4,60,0,1021.4,0,1007.1,60,0,46.2,60,0
86282,2013-06-11 12:00:00,10540,60,0,0.0,0.0,0.0,60,0,0.0,0.0,0.0,60,0,0.0,0.0,0.0,60,0,0.0,0.0,337.4,60,0,342.9,323.3,0,0,0,28.1,60,0,10.2,60,0,10.4,10.1,7.4,60,0,7.6,7.1,3.9,60,0,4.6,3.0,64.6,60,0,69.0,60.0,28.1,60,0,39.0,18.0,239,0.0,1021.4,60,0,1021.4,0,1007.1,60,0,46.2,60,0
86282,2013-06-12 00:00:00,10550,60,0,0.0,0.0,0.0,60,0,0.0,0.0,0.0,60,0,0.0,0.0,0.0,60,0,0.0,0.0,337.4,60,0,342.9,323.3,0,0,0,28.1,60,0,10.2,60,0,10.4,10.1,7.4,60,0,7.6,7.1,3.9,60,0,4.6,3.0,64.6,60,0,69.0,60.0,28.1,60,0,39.0,18.0,239,0.0,1021.4,60,0,1021.4,0,1007.1,60,0,46.2,60,0
86282,2013-06-12 12:00:00,10560,60,0,0.0,0.0,0.0,60,0,0.0,0.0,0.0,60,0,0.0,0.0,0.0,60,0,0.0,0.0,337.4,60,0,342.9,323.3,0,0,0,28.1,60,0,10.2,60,0,10.4,10.1,7.4,60,0,7.6,7.1,3.9,60,0,4.6,3.0,64.6,60,0,69.0,60.0,28.1,60,0,39.0,18.0,239,0.0,1021.4,60,0,1021.4,0,1007.1,60,0,46.2,60,0
86282,2013-06-13 00:00:00,10570,60,0,0.0,0.0,0.0,60,0,0.0,0.0,0.0,60,0,0.0,0.0,0.0,60,0,0.0,0.0,337.4,60,0,342.9,323.3,0,0,0,28.1,60,0,10.2,60,0,10.4,10.1,7.4,60,0,7.6,7.1,3.9,60,0,4.6,3.0,64.6,60,0,69.0,60.0,28.1,60,0,39.0,18.0,239,0.0,1021.4,60,0,1021.4,0,1007.1,60,0,46.2,60,0
86282,2013-06-13 12:00:00,10580,60,0,0.0,0.0,0.0,60,0,0.0,0.0,0.0,60,0,0.0,0.0,0.0,60,0,0.0,0.0,337.4,60,0,342.9,323.3,0,0,0,28.1,60,0,10.2,60,0,10.4,10.1,7.4,60,0,7.6,7.1,3.9,60,0,4.6,3.0,64.6,60,0,69.0,60.0,28.1,60,0,39.0,18.0,239,0.0,1021.4,60,0,1021.4,0,1007.1,60,0,46.2,60,0
86282,2013-06-14 00:00:00,10590,60,0,0.0,0.0,0.0,60,0,0.0,0.0,0.0,60,0,0.0,0.0,0.0,60,0,0.0,0.0,337.4,60,0,342.9,323.3,0,0,0,28.1,60,0,10.2,60,0,10.4,10.1,7.4,60,0,7.6,7.1,3.9,60,0,4.6,3.0,64.6,60,0,69.0,60.0,28.1,60,0,39.0,18.0,239,0.0,1021.4,60,0,1021.4,0,1007.1,60,0,46.2,60,0
86282,2013-06-14 12:00:00,10600,60,0,0.0,0.0,0.0,60,0,0.0,0.0,0.0,60,0,0.0,0.0,0.0,60,0,0.0,0.0,337.4,60,0,342.9,323.3,0,0,0,28.1,60,0,10.2,60,0,10.4,10.1,7.4,60,0,7.6,7.1,3.9,60,0,4.6,3.0,64.6,60,0,69.0,60.0,28.1,60,0,39.0,18.0,239,0.0,1021.4,60,0,1021.4,0,1007.1,60,0,46.2,60,0
86282,2013-06-15 00:00:00,10610,60,0,0.0,0.0,0.0,60,0,0.0,0.0,0.0,60,0,0.0,0.0,0.0,60,0,0.0,0.0,337.4,60,0,342.9,323.3,0,0,0,28.1,60,0,10.2,60,0,10.4,10.1,7.4,60,0,7.6,7.1,3.9,60,0,4.6,3.0,64.6,60,0,69.0,60.0,28.1,60,0,39.0,18.0,239,0.0,1021.4,60,0,1021.4,0,1007.1,60,0,46.2,60,0
86282,2013-06-15 12:00:00,10620,60,0,0.0,0.0,0.0,60,0,0.0,0.0,0.0,60,0,0.0,0.0,0.0,60,0,0.0,0.0,337.4,60,0,342.9,323.3,0,0,0,28.1,60,0,10.2,60,0,10.4,10.1,7.4,60,0,7.6,7.1,3.9,60,0,4.6,3.0,64.6,60,0,69.0,60.0,28.1,60,0,39.0,18.0,239,0.0,1021.4,60,0,1021.4,0,1007.1,60,0,46.2,60,0
86282,2013-06-16 00:00:00,10630,60,0,0.0,0.0,0.0,60,0,0.0,0.0,0.0,60,0,0.0,0.0,0.0,60,0,0.0,0.0,337.4,60,0,342.9,323.3,0,0,0,28.1,60,0,10.2,60,0,10.4,10.1,7.4,60,0,7.6,7.1,3.9,60,0,4.6,3.0,64.6,60,0,69.0,60.0,28.1,60,0,39.0,18.0,239,0.0,1021.4,60,0,1021.4,0,1007.1,60,0,46.2,60,0
86282,2013-06-16 12:00:00,10640,60,0,0.0,0.0,0.0,60,0,0.0,0.0,0.0,60,0,0.0,0.0,0.0,60,0,0.0,0.0,337.4,60,0,342.9,323.3,0,0,0,28.1,60,0,10.2,60,0,10.4,10.1,7.4,60,0,7.6,7.1,3.9,60,0,4.6,3.0,64.6,60,0,69.0,60.0,28.1,60,0,39.0,18.0,239,0.0,1021.4,60,0,1021.4,0,1007.1,60,0,46.2,60,0
86282,2013-06-17 00:00:00,10650,60,0,0.0,0.0,0.0,60,0,0.0,0.0,0.0,60,0,0.0,0.0,0.0,60,0,0.0,0.0,337.4,60,0,342.9,323.3,0,0,0,28.1,60,0,10.2,60,0,10.4,10.1,7.4,60,0,7.6,7.1,3.9,60,0,4.6,3.0,64.6,60,0,69.0,60.0,28.1,60,0,39.0,18.0,239,0.0,1021.4,60,0,1021.4,0,1007.1,60,0,46.2,60,0
86282,2013-06-17 12:00:00,10660,60,0,0.0,0.0,0.0,60,0,0.0,0.0,0.0,60,0,0.0,0.0,0.0,60,0,0.0,0.0,337.4,60,0,342.9,323.3,0,0,0,28.1,60,0,10.2,60,0,10.4,10.1,7.4,60,0,7.6,7.1,3.9,60,0,4.6,3.0,64.6,60,0,69.0,60.0,28.1,60,0,39.0,18.0,239,0.0,1021.4,60,0,1021.4,0,1007.1,60,0,46.2,60,0
86282,2013-06-18 00:00:00,10670,60,0,0.0,0.0,0.0,60,0,0.0,0.0,0.0,60,0,0.0,0.0,0.0,60,0,0.0,0.0,337.4,60,0,342.9,323.3,0,0,0,28.1,60,0,10.2,60,0,10.4,10.1,7.4,60,0,7.6,7.1,3.9,60,0,4.6,3.0,64.6,60,0,69.0,60.0,28.1,60,0,39.0,18.0,239,0.0,1021.4,60,0,1021.4,0,1007.1,60,0,46.2,60,0
86282,2013-06-18 12:00:00,10680,60,0,0.0,0.0,0.0,60,0,0.0,0.0,0.0,60,0,0.0,0.0,0.0,60,0,0.0,0.0,337.4,60,0,342.9,323.3,0,0,0,28.1,60,0,10.2,60,0,10.4,10.1,7.4,60,0,7.6,7.1,3.9,60,0,4.6,3.0,64.6,60,0,69.0,60.0,28.1,60,0,39.0,18.0,239,0.0,1021.4,60,0,1021.4,0,1007.1,60,0,46.2,60,0
86282,2013-06-19 00:00:00,10690,60,0,0.0,0.0,0.0,60,0,0.0,0.0,0.0,60,0,0.0,0.0,0.0,60,0,0.0,0.0,337.4,60,0,342.9,323.3,0,0,0,28.1,60,0,10.2,60,0,10.4,10.1,7.4,60,0,7.6,7.1,3.9,60,0,4.6,3.0,64.6,60,0,69.0,60.0,28.1,60,0,39.0,18.0,239,0.0,1021.4,60,0,1021.4,0,1007.1,60,0,46.2,60,0
86282,2013-06-19 12:00:00,10700,60,0,0.0,0.0,0.0,60,0,0.0,0.0,0.0,60,0,0.0,0.0,0.0,60,0,0.0,0.0,337.4,60,0,342.9,323.3,0,0,0,28.1,60,0,10.2,60,0,10.4,10.1,7.4,60,0,7.6,7.1,3.9,60,0,4.6,3.0,64.6,60,0,69.0,60.0,28.1,60,0,39.0,18.0,239,0.0,1021.4,60,0,1021.4,0,1007.1,60,0,46.2,60,0
86282,2013-06-20 00:00:00,10710,60,0,0.0,0.0,0.0,60,0,0.0,0.0,0.0,60,0,0.0,0.0,0.0,60,0,0.0,0.0,337.4,60,0,342.9,323.3,0,0,0,28.1,60,0,10.2,60,0,10.4,10.1,7.4,60,0,7.6,7.1,3.9,60,0,4.6,3.0,64.6,60,0,69.0,60.0,28.1,60,0,39.0,18.0,239,0.0,1021.4,60,0,1021.4,0,1007.1,60,0,46.2,60,0
86282,2013-06-20 12:00:00,10720,60,0,0.0,0.0,0.0,60,0,0.0,0.0,0.0,60,0,0.0,0.0,0.0,60,0,0.0,0.0,337.4,60,0,342.9,323.3,0,0,0,28.1,60,0,10.2,60,0,10.4,10.1,7.4,60,0,7.6,7.1,3.9,60,0,4.6,3.0,64.6,60,0,69.0,60.0,28.1,60,0,39.0,18.0,239,0.0,1021.4,60,0,1021.4,0,1007.1,60,0,46.2,60,0
86282,2013-06-21 00:00:00,10730,60,0,0.0,0.0,0.0,60,0,0.0,0.0,0.0,60,0,0.0,0.0,0.0,60,0,0.0,0.0,337.4,60,0,342.9,323.3,0,0,0,28.1,60,0,10.2,60,0,10.4,10.1,7.4,60,0,7.6,7.1,3.9,60,0,4.6,3.0,64.6,60,0,69.0,60.0,28.1,60,0,39.0,18.0,239,0.0,1021.4,60,0,1021.4,0,1007.1,60,0,46.2,60,0
86282,2013-06-21 12:00:00,10740,60,0,0.0,0.0,0.0,60,0,0.0,0.0,0.0,60,0,0.0,0.0,0.0,60,0,0.0,0.0,337.4,60,0,342.9,323.3,0,0,0,28.1,60,0,10.2,60,0,10.4,10.1,7.4,60,0,7.6,7.1,3.9,60,0,4.6,3.0,64.6,60,0,69.0,60.0,28.1,60,0,39.0,18.0,239,0.0,1021.4,60,0,1021.4,0,1007.1,60,0,46.2,60,0
86282,2013-06-22 00:00:00,10750,60,0,0.0,0.0,0.0,60,0,0.0,0.0,0.0,60,0,0.0,0.0,0.0,60,0,0.0,0.0,337.4,60,0,342.9,323.3,0,0,0,28.1,60,0,10.2,60,0,10.4,10.1,7.4,60,0,7.6,7.1,3.9,60,0,4.6,3.0,64.6,60,0,69.0,60.0,28.1,60,0,39.0,18.0,239,0.0,1021.4,60,0,1021.4,0,1007.1,60,0,46.2,60,0
86282,2013-06-22 12:00:00,10760,60,0,0.0,0.0,0.0,60,0,0.0,0.0,0.0,60,0,0.0,0.0,0.0,60,0,0.0,0.0,337.4,60,0,342.9,323.3,0,0,0,28.1,60,0,10.2,60,0,10.4,10.1,7.4,60,0,7.6,7.1,3.9,60,0,4.6,3.0,64.6,60,0,69.0,60.0,28.1,60,0,39.0,18.0,239,0.0,1021.4,60,0,1021.4,0,1007.1,60,0,46.2,60,0
86282,2013-06-23 00:00:00,10770,60,0,0.0,0.0,0.0,60,0,0.0,0.0,0.0,60,0,0.0,0.0,0.0,60,0,0.0,0.0,337.4,60,0,342.9,323.3,0,0,0,28.1,60,0,10.2,60,0,10.4,10.1,7.4,60,0,7.6,7.1,3.9,60,0,4.6,3.0,64.6,60,0,69.0,60.0,28.1,60,0,39.0,18.0,239,0.0,1021.4,60,0,1021.4,0,1007.1,60,0,46.2,60,0
86282,2013-06-23 12:00:00,10780,60,0,0.0,0.0,0.0,60,0,0.0,0.0,0.0,60,0,0.0,0.0,0.0,60,0,0.0,0.0,337.4,60,0,342.9,323.3,0,0,0,28.1,60,0,10.2,60,0,10.4,10.1,7.4,60,0,7.6,7.1,3.9,60,0,4.6,3.0,64.6,60,0,69.0,60.0,28.1,60,0,39.0,18.0,239,0.0,1021.4,60,0,1021.4,0,1007.1,60,0,46.2,60,0
86282,2013-06-24 00:00:00,10790,60,0,0.0,0.0,0.0,60,0,0.0,0.0,0.0,60,0,0.0,0.0,0.0,60,0,0.0,0.0,337.4,60,0,342.9,323.3,0,0,0,28.1,60,0,10.2,60,0,10.4,10.1,7.4,60,0,7.6,7.1,3.9,60,0,4.6,3.0,64.6,60,0,69.0,60.0,28.1,60,0,39.0,18.0,239,0.0,1021.4,60,0,1021.4,0,1007.1,60,0,46.2,60,0
86282,2013-06-24 12:00:00,10800,60,0,0.0,0.0,0.0,60,0,0.0,0.0,0.0,60,0,0.0,0.0,0.0,60,0,0.0,0.0,337.4,60,0,342.9,323.3,0,0,0,28.1,60,0,10.2,60,0,10.4,10.1,7.4,60,0,7.6,7.1,3.9,60,0,4.6,3.0,64.6,60,0,69.0,60.0,28.1,60,0,39.0,18.0,239,0.0,1021.4,60,0,1021.4,0,1007.1,60,0,46.2,60,0
86282,2013-06-25 00:00:00,10810,60,0,0.0,0.0,0.0,60,0,0.0,0.0,0.0,60,0,0.0,0.0,0.0,60,0,0.0,0.0,337.4,60,0,342.9,323.3,0,0,0,28.1,60,0,10.2,60,0,10.4,10.1,7.4,60,0,7.6,7.1,3.9,60,0,4.6,3.0,64.6,60,0,69.0,60.0,28.1,60,0,39.0,18.0,239,0.0,1021.4,60,0,1021.4,0,1007.1,60,0,46.2,60,0
86282,2013-06-25 12:00:00,10820,60,0,0.0,0.0,0.0,60,0,0.0,0.0,0.0,60,0,0.0,0.0,0.0,60,0,0.0,0.0,337.4,60,0,342.9,323.3,0,0,0,28.1,60,0,10.2,60,0,10.4,10.1,7.4,60,0,7.6,7.1,3.9,60,0,4.6,3.0,64.6,60,0,69.0,60.0,28.1,60,0,39.0,18.0,239,0.0,1021.4,60,0,1021.4,0,1007.1,60,0,46.2,60,0
86282,2013-06-26 00:00:00,10830,60,0,0.0,0.0,0.0,60,0,0.0,0.0,0.0,60,0,0.0,0.0,0.0,60,0,0.0,0.0,337.4,60,0,342.9,323.3,0,0,0,28.1,60,0,10.2,60,0,10.4,10.1,7.4,60,0,7.6,7.1,3.9,60,0,4.6,3.0,64.6,60,0,69.0,60.0,28.1,60,0,39.0,18.0,239,0.0,1021.4,60,0,1021.4,0,1007.1,60,0,46.2,60,0
86282,2013-06-26 12:00:00,10840,60,0,0.0,0.0,0.0,60,0,0.0,0.0,0.0,60,0,0.0,0.0,0.0,60,0,0.0,0.0,337.4,60,0,342.9,323.3,0,0,0,28.1,60,0,10.2,60,0,10.4,10.1,7.4,60,0,7.6,7.1,3.9,60,0,4.6,3.0,64.6,60,0,69.0,60.0,28.1,60,0,39.0,18.0,239,0.0,1021.4,60,0,1021.4,0,1007.1,60,0,46.2,60,0
86282,2013-06-27 00:00:00,10850,60,0,0.0,0.0,0.0,60,0,0.0,0.0,0.0,60,0,0.0,0.0,0.0,60,0,0.0,0.0,337.4,60,0,342.9,323.3,0,0,0,28.1,60,0,10.2,60,0,10.4,10.1,7.4,60,0,7.6,7.1,3.9,60,0,4.6,3.0,64.6,60,0,69.0,60.0,28.1,60,0,39.0,18.0,239,0.0,1021.4,60,0,1021.4,0,1007.1,60,0,46.2,60,0
86282,2013-06-27 12:00:00,10860,60,0,0.0,0.0,0.0,60,0,0.0,0.0,0.0,60,0,0.0,0.0,0.0,60,0,0.0,0.0,337.4,60,0,342.9,323.3,0,0,0,28.1,60,0,10.2,60,0,10.4,10.1,7.4,60,0,7.6,7.1,3.9,60,0,4.6,3.0,64.6,60,0,69.0,60.0,28.1,60,0,39.0,18.0,239,0.0,1021.4,60,0,1021.4,0,1007.1,60,0,46.2,60,0
86282,2013-06-28 00:00:00,10870,60,0,0.0,0.0,0.0,60,0,0.0,0.0,0.0,60,0,0.0,0.0,0.0,60,0,0.0,0.0,337.4,60,0,342.9,323.3,0,0,0,28.1,60,0,10.2,60,0,10.4,10.1,7.4,60,0,7.6,7.1,3.9,60,0,4.6,3.0,64.6,60,0,69.0,60.0,28.1,60,0,39.0,18.0,239,0.0,1021.4,60,0,1021.4,0,1007.1,60,0,46.2,60,0
86282,2013-06-28 12:00:00,10880,60,0,0.0,0.0,0.0,60,0,0.0,0.0,0.0,60,0,0.0,0.0,0.0,60,0,0.0,0.0,337.4,60,0,342.9,323.3,0,0,0,28.1,60,0,10.2,60,0,10.4,10.1,7.4,60,0,7.6,7.1,3.9,60,0,4.6,3.0,64.6,60,0,69.0,60.0,28.1,60,0,39.0,18.0,239,0.0,1021.4,60,0,1021.4,0,1007.1,60,0,46.2,60,0
86282,2013-06-29 00:00:00,10890,60,0,0.0,0.0,0.0,60,0,0.0,0.0,0.0,60,0,0.0,0.0,0.0,60,0,0.0,0.0,337.4,60,0,342.9,323.3,0,0,0,28.1,60,0,10.2,60,0,10.4,10.1,7.4,60,0,7.6,7.1,3.9,60,0,4.6,3.0,64.6,60,0,69.0,60.0,28.1,60,0,39.0,18.0,239,0.0,1021.4,60,0,1021.4,0,1007.1,60,0,46.2,60,0
86282,2013-06-29 12:00:00,10900,60,0,0.0,0.0,0.0,60,0,0.0,0.0,0.0,60,0,0.0,0.0,0.0,60,0,0.0,0.0,337.4,60,0,342.9,323.3,0,0,0,28.1,60,0,10.2,60,0,10.4,10.1,7.4,60,0,7.6,7.1,3.9,60,0,4.6,3.0,64.6,60,0,69.0,60.0,28.1,60,0,39.0,18.0,239,0.0,1021.4,60,0,1021.4,0,1007.1,60,0,46.2,60,0
86282,2013-06-30 00:00:00,10910,60,0,0.0,0.0,0.0,60,0,0.0,0.0,0.0,60,0,0.0,0.0,0.0,60,0,0.0,0.0,337.4,60,0,342.9,323.3,0,0,0,28.1,60,0,10.2,60,0,10.4,10.1,7.4,60,0,7.6,7.1,3.9,60,0,4.6,3.0,64.6,60,0,69.0,60.0,28.1,60,0,39.0,18.0,239,0.0,1021.4,60,0,1021.4,0,1007.1,60,0,46.2,60,0
86282,2013-06-30 12:00:00,10920,60,0,0.0,0.0,0.0,60,0,0.0,0.0,0.0,60,0,0.0,0.0,0.0,60,0,0.0,0.0,337.4,60,0,342.9,323.3,0,0,0,28.1,60,0,10.2,60,0,10.4,10.1,7.4,60,0,7.6,7.1,3.9,60,0,4.6,3.0,64.6,60,0,69.0,60.0,28.1,60,0,39.0,18.0,239,0.0,1021.4,60,0,1021.4,0,1007.1,60,0,46.2,60,0
86282,2013-07-01 00:00:00,10930,60,0,0.0,0.0,0.0,60,0,0.0,0.0,0.0,60,0,0.0,0.0,0.0,60,0,0.0,0.0,337.4,60,0,342.9,323.3,0,0,0,28.1,60,0,10.2,60,0,10.4,10.1,7.4,60,0,7.6,7.1,3.9,60,0,4.6,3.0,64.6,60,0,69.0,60.0,28.1,60,0,39.0,18.0,239,0.0,1021.4,60,0,1021.4,0,1007.1,60,0,46.2,60,0
86282,2013-07-01 12:00:00,10940,60,0,0.0,0.0,0.0,60,0,0.0,0.0,0.0,60,0,0.0,0.0,0.0,60,0,0.0,0.0,337.4,60,0,342.9,323.3,0,0,0,28.1,60,0,10.2,60,0,10.4,10.1,7.4,60,0,7.6,7.1,3.9,60,0,4.6,3.0,64.6,60,0,69.0,60.0,28.1,60,0,39.0,18.0,239,0.0,1021.4,60,0,1021.4,0,1007.1,60,0,46.2,60,0
86282,2013-07-02 00:00:00,10950,60,0,0.0,0.0,0.0,60,0,0.0,0.0,0.0,60,0,0.0,0.0,0.0,60,0,0.0,0.0,337.4,60,0,342.9,323.3,0,0,0,28.1,60,0,10.2,60,0,10.4,10.1,7.4,60,0,7.6,7.1,3.9,60,0,4.6,3.0,64.6,60,0,69.0,60.0,28.1,60,0,39.0,18.0,239,0.0,1021.4,60,0,1021.4,0,1007.1,60,0,46.2,60,0
86282,2013-07-02 12:00:00,10960,60,0,0.0,0.0,0.0,60,0,0.0,0.0,0.0,60,0,0.0,0.0,0.0,60,0,0.0,0.0,337.4,60,0,342.9,323.3,0,0,0,28.1,60,0,10.2,60,0,10.4,10.1,7.4,60,0,7.6,7.1,3.9,60,0,4.6,3.0,64.6,60,0,69.0,60.0,28.1,60,0,39.0,18.0,239,0.0,1021.4,60,0,1021.4,0,1007.1,60,0,46.2,60,0
86282,2013-07-03 00:00:00,10970,60,0,0.0,0.0,0.0,60,0,0.0,0.0,0.0,60,0,0.0,0.0,0.0,60,0,0.0,0.0,337.4,60,0,342.9,323.3,0,0,0,28.1,60,0,10.2,60,0,10.4,10.1,7.4,60,0,7.6,7.1,3.9,60,0,4.6,3.0,64.6,60,0,69.0,60.0,28.1,60,0,39.0,18.0,239,0.0,1021.4,60,0,1021.4,0,1007.1,60,0,46.2,60,0
86282,2013-07-03 12:00:00,10980,60,0,0.0,0.0,0.0,60,0,0.0,0.0,0.0,60,0,0.0,0.0,0.0,60,0,0.0,0.0,337.4,60,0,342.9,323.3,0,0,0,28.1,60,0,10.2,60,0,10.4,10.1,7.4,60,0,7.6,7.1,3.9,60,0,4.6,3.0,64.6,60,0,69.0,60.0,28.1,60,0,39.0,18.0,239,0.0,1021.4,60,0,1021.4,0,1007.1,60,0,46.2,60,0
86282,2013-07-04 00:00:00,10990,60,0,0.0,0.0,0.0,60,0,0.0,0.0,0.0,60,0,0.0,0.0,0.0,60,0,0.0,0.0,337.4,60,0,342.9,323.3,0,0,0,28.1,60,0,10.2,60,0,10.4,10.1,7.4,60,0,7.6,7.1,3.9,60,0,4.6,3.0,64.6,60,0,69.0,60.0,28.1,60,0,39.0,18.0,239,0.0,1021.4,60,0,1021.4,0,1007.1,60,0,46.2,60,0
86282,2013-07-04 12:00:00,11000,60,0,0.0,0.0,0.0,60,0,0.0,0.0,0.0,60,0,0.0,0.0,0.0,60,0,0.0,0.0,337.4,60,0,342.9,323.3,0,0,0,28.1,60,0,10.2,60,0,10.4,10.1,7.4,60,0,7.6,7.1,3.9,60,0,4.6,3.0,64.6,60,0,69.0,60.0,28.1,60,0,39.0,18.0,239,0.0,1021.4,60,0,1021.4,0,1007.1,60,0,46.2,60,0
86282,2013-07-05 00:00:00,11010,60,0,0.0,0.0,0.0,60,0,0.0,0.0,0.0,60,0,0.0,0.0,0.0,60,0,0.0,0.0,337.4,60,0,342.9,323.3,0,0,0,28.1,60,0,10.2,60,0,10.4,10.1,7.4,60,0,7.6,7.1,3.9,60,0,4.6,3.0,64.6,60,0,69.0,60.0,28.1,60,0,39.0,18.0,239,0.0,1021.4,60,0,1021.4,0,1007.1,60,0,46.2,60,0
86282,2013-07-05 12:00:00,11020,60,0,0.0,0.0,0.0,60,0,0.0,0.0,0.0,60,0,0.0,0.0,0.0,60,0,0.0,0.0,337.4,60,0,342.9,323.3,0,0,0,28.1,60,0,10.2,60,0,10.4,10.1,7.4,60,0,7.6,7.1,3.9,60,0,4.6,3.0,64.6,60,0,69.0,60.0,28.1,60,0,39.0,18.0,239,0.0,1021.4,60,0,1021.4,0,1007.1,60,0,46.2,60,0
86282,2013-07-06 00:00:00,11030,60,0,0.0,0.0,0.0,60,0,0.0,0.0,0.0,60,0,0.0,0.0,0.0,60,0,0.0,0.0,337.4,60,0,342.9,323.3,0,0,0,28.1,60,0,10.2,60,0,10.4,10.1,7.4,60,0,7.6,7.1,3.9,60,0,4.6,3.0,64.6,60,0,69.0,60.0,28.1,60,0,39.0,18.0,239,0.0,1021.4,60,0,1021.4,0,1007.1,60,0,46.2,60,0
86282,2013-07-06 12:00:00,11040,60,0,0.0,0.0,0.0,60,0,0.0,0.0,0.0,60,0,0.0,0.0,0.0,60,0,0.0,0.0,337.4,60,0,342.9,323.3,0,0,0,28.1,60,0,10.2,60,0,10.4,10.1,7.4,60,0,7.6,7.1,3.9,60,0,4.6,3.0,64.6,60,0,69.0,60.0,28.1,60,0,39.0,18.0,239,0.0,1021.4,60,0,1021.4,0,1007.1,60,0,46.2,60,0
86282,2013-07-07 00:00:00,11050,60,0,0.0,0.0,0.0,60,0,0.0,0.0,0.0,60,0,0.0,0.0,0.0,60,0,0.0,0.0,337.4,60,0,342.9,323.3,0,0,0,28.1,60,0,10.2,60,0,10.4,10.1,7.4,60,0,7.6,7.1,3.9,60,0,4.6,3.0,64.6,60,0,69.0,60.0,28.1,60,0,39.0,18.0,239,0.0,1021.4,60,0,1021.4,0,1007.1,60,0,46.2,60,0
86282,2013-07-07 12:00:00,11060,60,0,0.0,0.0,0.0,60,0,0.0,0.0,0.0,60,0,0.0,0.0,0.0,60,0,0.0,0.0,337.4,60,0,342.9,323.3,0,0,0,28.1,60,0,10.2,60,0,10.4,10.1,7.4,60,0,7.6,7.1,3.9,60,0,4.6,3.0,64.6,60,0,69.0,60.0,28.1,60,0,39.0,18.0,239,0.0,1021.4,60,0,1021.4,0,1007.1,60,0,46.2,60,0
86282,2013-07-08 00:00:00,11070,60,0,0.0,0.0,0.0,60,0,0.0,0.0,0.0,60,0,0.0,0.0,0.0,60,0,0.0,0.0,337.4,60,0,342.9,323.3,0,0,0,28.1,60,0,10.2,60,0,10.4,10.1,7.4,60,0,7.6,7.1,3.9,60,0,4.6,3.0,64.6,60,0,69.0,60.0,28.1,60,0,39.0,18.0,239,0.0,1021.4,60,0,1021.4,0,1007.1,60,0,46.2,60,0
86282,2013-07-08 12:00:00,11080,60,0,0.0,0.0,0.0,60,0,0.0,0.0,0.0,60,0,0.0,0.0,0.0,60,0,0.0,0.0,337.4,60,0,342.9,323.3,0,0,0,28.1,60,0,10.2,60,0,10.4,10.1,7.4,60,0,7.6,7.1,3.9,60,0,4.6,3.0,64.6,60,0,69.0,60.0,28.1,60,0,39.0,18.0,239,0.0,1021.4,60,0,1021.4,0,1007.1,60,0,46.2,60,0
86282,2013-07-09 00:00:00,11090,60,0,0.0,0.0,0.0,60,0,0.0,0.0,0.0,60,0,0.0,0.0,0.0,60,0,0.0,0.0,337.4,60,0,342.9,323.3,0,0,0,28.1,60,0,10.2,60,0,10.4,10.1,7.4,60,0,7.6,7.1,3.9,60,0,4.6,3.0,64.6,60,0,69.0,60.0,28.1,60,0,39.0,18.0,239,0.0,1021.4,60,0,1021.4,0,1007.1,60,0,46.2,60,0
86282,2013-07-09 12:00:00,11100,60,0,0.0,0.0,0.0,60,0,0.0,0.0,0.0,60,0,0.0,0.0,0.0,60,0,0.0,0.0,337.4,60,0,342.9,323.3,0,0,0,28.1,60,0,10.2,60,0,10.4,10.1,7.4,60,0,7.6,7.1,3.9,60,0,4.6,3.0,64.6,60,0,69.0,60.0,28.1,60,0,39.0,18.0,239,0.0,1021.4,60,0,1021.4,0,1007.1,60,0,46.2,60,0
86282,2013-07-10 00:00:00,11110,60,0,0.0,0.0,0.0,60,0,0.0,0.0,0.0,60,0,0.0,0.0,0.0,60,0,0.0,0.0,337.4,60,0,342.9,323.3,0,0,0,28.1,60,0,10.2,60,0,10.4,10.1,7.4,60,0,7.6,7.1,3.9,60,0,4.6,3.0,64.6,60,0,69.0,60.0,28.1,60,0,39.0,18.0,239,0.0,1021.4,60,0,1021.4,0,1007.1,60,0,46.2,60,0
86282,2013-07-10 12:00:00,11120,60,0,0.0,0.0,0.0,60,0,0.0,0.0,0.0,60,0,0.0,0.0,0.0,60,0,0.0,0.0,337.4,60,0,342.9,323.3,0,0,0,28.1,60,0,10.2,60,0,10.4,10.1,7.4,60,0,7.6,7.1,3.9,60,0,4.6,3.0,64.6,60,0,69.0,60.0,28.1,60,0,39.0,18.0,239,0.0,1021.4,60,0,1021.4,0,1007.1,60,0,46.2,60,0
86282,2013-07-11 00:00:00,11130,60,0,0.0,0.0,0.0,60,0,0.0,0.0,0.0,60,0,0.0,0.0,0.0,60,0,0.0,0.0,337.4,60,0,342.9,323.3,0,0,0,28.1,60,0,10.2,60,0,10.4,10.1,7.4,60,0,7.6,7.1,3.9,60,0,4.6,3.0,64.6,60,0,69.0,60.0,28.1,60,0,39.0,18.0,239,0.0,1021.4,60,0,1021.4,0,1007.1,60,0,46.2,60,0
86282,2013-07-11 12:00:00,11140,60,0,0.0,0.0,0.0,60,0,0.0,0.0,0.0,60,0,0.0,0.0,0.0,60,0,0.0,0.0,337.4,60,0,342.9,323.3,0,0,0,28.1,60,0,10.2,60,0,10.4,10.1,7.4,60,0,7.6,7.1,3.9,60,0,4.6,3.0,64.6,60,0,69.0,60.0,28.1,60,0,39.0,18.0,239,0.0,1021.4,60,0,1021.4,0,1007.1,60,0,46.2,60,0
86282,2013-07-12 00:00:00,11150,60,0,0.0,0.0,0.0,60,0,0.0,0.0,0.0,60,0,0.0,0.0,0.0,60,0,0.0,0.0,337.4,60,0,342.9,323.3,0,0,0,28.1,60,0,10.2,60,0,10.4,10.1,7.4,60,0,7.6,7.1,3.9,60,0,4.6,3.0,64.6,60,0,69.0,60.0,28.1,60,0,39.0,18.0,239,0.0,1021.4,60,0,1021.4,0,1007.1,60,0,46.2,60,0
86282,2013-07-12 12:00:00,11160,60,0,0.0,0.0,0.0,60,0,0.0,0.0,0.0,60,0,0.0,0.0,0.0,60,0,0.0,0.0,337.4,60,0,342.9,323.3,0,0,0,28.1,60,0,10.2,60,0,10.4,10.1,7.4,60,0,7.6,7.1,3.9,60,0,4.6,3.0,64.6,60,0,69.0,60.0,28.1,60,0,39.0,18.0,239,0.0,1021.4,60,0,1021.4,0,1007.1,60,0,46.2,60,0
86282,2013-07-13 00:00:00,11170,60,0,0.0,0.0,0.0,60,0,0.0,0.0,0.0,60,0,0.0,0.0,0.0,60,0,0.0,0.0,337.4,60,0,342.9,323.3,0,0,0,28.1,60,0,10.2,60,0,10.4,10.1,7.4,60,0,7.6,7.1,3.9,60,0,4.6,3.0,64.6,60,0,69.0,60.0,28.1,60,0,39.0,18.0,239,0.0,1021.4,60,0,1021.4,0,1007.1,60,0,46.2,60,0
86282,2013-07-13 12:00:00,11180,60,0,0.0,0.0,0.0,60,0,0.0,0.0,0.0,60,0,0.0,0.0,0.0,60,0,0.0,0.0,337.4,60,0,342.9,323.3,0,0,0,28.1,60,0,10.2,60,0,10.4,10.1,7.4,60,0,7.6,7.1,3.9,60,0,4.6,3.0,64.6,60,0,69.0,60.0,28.1,60,0,39.0,18.0,239,0.0,1021.4,60,0,1021.4,0,1007.1,60,0,46.2,60,0
86282,2013-07-14 00:00:00,11190,60,0,0.0,0.0,0.0,60,0,0.0,0.0,0.0,60,0,0.0,0.0,0.0,60,0,0.0,0.0,337.4,60,0,342.9,323.3,0,0,0,28.1,60,0,10.2,60,0,10.4,10.1,7.4,60,0,7.6,7.1,3.9,60,0,4.6,3.0,64.6,60,0,69.0,60.0,28.1,60,0,39.0,18.0,239,0.0,1021.4,60,0,1021.4,0,1007.1,60,0,46.2,60,0
86282,2013-07-14 12:00:00,11200,60,0,0.0,0.0,0.0,60,0,0.0,0.0,0.0,60,0,0.0,0.0,0.0,60,0,0.0,0.0,337.4,60,0,342.9,323.3,0,0,0,28.1,60,0,10.2,60,0,10.4,10.1,7.4,60,0,7.6,7.1,3.9,60,0,4.6,3.0,64.6,60,0,69.0,60.0,28.1,60,0,39.0,18.0,239,0.0,1021.4,60,0,1021.4,0,1007.1,60,0,46.2,60,0
86282,2013-07-15 00:00:00,11210,60,0,0.0,0.0,0.0,60,0,0.0,0.0,0.0,60,0,0.0,0.0,0.0,60,0,0.0,0.0,337.4,60,0,342.9,323.3,0,0,0,28.1,60,0,10.2,60,0,10.4,10.1,7.4,60,0,7.6,7.1,3.9,60,0,4.6,3.0,64.6,60,0,69.0,60.0,28.1,60,0,39.0,18.0,239,0.0,1021.4,60,0,1021.4,0,1007.1,60,0,46.2,60,0
86282,2013-07-15 12:00:00,11220,60,0,0.0,0.0,0.0,60,0,0.0,0.0,0.0,60,0,0.0,0.0,0.0,60,0,0.0,0.0,337.4,60,0,342.9,323.3,0,0,0,28.1,60,0,10.2,60,0,10.4,10.1,7.4,60,0,7.6,7.1,3.9,60,0,4.6,3.0,64.6,60,0,69.0,60.0,28.1,60,0,39.0,18.0,239,0.0,1021.4,60,0,1021.4,0,1007.1,60,0,46.2,60,0
86282,2013-07-16 00:00:00,11230,60,0,0.0,0.0,0.0,60,0,0.0,0.0,0.0,60,0,0.0,0.0,0.0,60,0,0.0,0.0,337.4,60,0,342.9,323.3,0,0,0,28.1,60,0,10.2,60,0,10.4,10.1,7.4,60,0,7.6,7.1,3.9,60,0,4.6,3.0,64.6,60,0,69.0,60.0,28.1,60,0,39.0,18.0,239,0.0,1021.4,60,0,1021.4,0,1007.1,60,0,46.2,60,0
86282,2013-07-16 12:00:00,11240,60,0,0.0,0.0,0.0,60,0,0.0,0.0,0.0,60,0,0.0,0.0,0.0,60,0,0.0,0.0,337.4,60,0,342.9,323.3,0,0,0,28.1,60,0,10.2,60,0,10.4,10.1,7.4,60,0,7.6,7.1,3.9,60,0,4.6,3.0,64.6,60,0,69.0,60.0,28.1,60,0,39.0,18.0,239,0.0,1021.4,60,0,1021.4,0,1007.1,60,0,46.2,60,0
86282,2013-07-17 00:00:00,11250,60,0,0.0,0.0,0.0,60,0,0.0,0.0,0.0,60,0,0.0,0.0,0.0,60,0,0.0,0.0,337.4,60,0,342.9,323.3,0,0,0,28.1,60,0,10.2,60,0,10.4,10.1,7.4,60,0,7.6,7.1,3.9,60,0,4.6,3.0,64.6,60,0,69.0,60.0,28.1,60,0,39.0,18.0,239,0.0,1021.4,60,0,1021.4,0,1007.1,60,0,46.2,60,0
86282,2013-07-17 12:00:00,11260,60,0,0.0,0.0,0.0,60,0,0.0,0.0,0.0,60,0,0.0,0.0,0.0,60,0,0.0,0.0,337.4,60,0,342.9,323.3,0,0,0,28.1,60,0,10.2,60,0,10.4,10.1,7.4,60,0,7.6,7.1,3.9,60,0,4.6,3.0,64.6,60,0,69.0,60.0,28.1,60,0,39.0,18.0,239,0.0,1021.4,60,0,1021.4,0,1007.1,60,0,46.2,60,0
86282,2013-07-18 00:00:00,11270,60,0,0.0,0.0,0.0,60,0,0.0,0.0,0.0,60,0,0.0,0.0,0.0,60,0,0.0,0.0,337.4,60,0,342.9,323.3,0,0,0,28.1,60,0,10.2,60,0,10.4,10.1,7.4,60,0,7.6,7.1,3.9,60,0,4.6,3.0,64.6,60,0,69.0,60.0,28.1,60,0,39.0,18.0,239,0.0,1021.4,60,0,1021.4,0,1007.1,60,0,46.2,60,0
86282,2013-07-18 12:00:00,11280,60,0,0.0,0.0,0.0,60,0,0.0,0.0,0.0,60,0,0.0,0.0,0.0,60,0,0.0,0.0,337.4,60,0,342.9,323.3,0,0,0,28.1,60,0,10.2,60,0,10.4,10.1,7.4,60,0,7.6,7.1,3.9,60,0,4.6,3.0,64.6,60,0,69.0,60.0,28.1,60,0,39.0,18.0,239,0.0,1021.4,60,0,1021.4,0,1007.1,60,0,46.2,60,0
86282,2013-07-19 00:00:00,11290,60,0,0.0,0.0,0.0,60,0,0.0,0.0,0.0,60,0,0.0,0.0,0.0,60,0,0.0,0.0,337.4,60,0,342.9,323.3,0,0,0,28.1,60,0,10.2,60,0,10.4,10.1,7.4,60,0,7.6,7.1,3.9,60,0,4.6,3.0,64.6,60,0,69.0,60.0,28.1,60,0,39.0,18.0,239,0.0,1021.4,60,0,1021.4,0,1007.1,60,0,46.2,60,0
86282,2013-07-19 12:00:00,11300,60,0,0.0,0.0,0.0,60,0,0.0,0.0,0.0,60,0,0.0,0.0,0.0,60,0,0.0,0.0,337.4,60,0,342.9,323.3,0,0,0,28.1,60,0,10.2,60,0,10.4,10.1,7.4,60,0,7.6,7.1,3.9,60,0,4.6,3.0,64.6,60,0,69.0,60.0,28.1,60,0,39.0,18.0,239,0.0,1021.4,60,0,1021.4,0,1007.1,60,0,46.2,60,0
86282,2013-07-20 00:00:00,11310,60,0,0.0,0.0,0.0,60,0,0.0,0.0,0.0,60,0,0.0,0.0,0.0,60,0,0.0,0.0,337.4,60,0,342.9,323.3,0,0,0,28.1,60,0,10.2,60,0,10.4,10.1,7.4,60,0,7.6,7.1,3.9,60,0,4.6,3.0,64.6,60,0,69.0,60.0,28.1,60,0,39.0,18.0,239,0.0,1021.4,60,0,1021.4,0,1007.1,60,0,46.2,60,0
86282,2013-07-20 12:00:00,11320,60,0,0.0,0.0,0.0,60,0,0.0,0.0,0.0,60,0,0.0,0.0,0.0,60,0,0.0,0.0,337.4,60,0,342.9,323.3,0,0,0,28.1,60,0,10.2,60,0,10.4,10.1,7.4,60,0,7.6,7.1,3.9,60,0,4.6,3.0,64.6,60,0,69.0,60.0,28.1,60,0,39.0,18.0,239,0.0,1021.4,60,0,1021.4,0,1007.1,60,0,46.2,60,0
86282,2013-07-21 00:00:00,11330,60,0,0.0,0.0,0.0,60,0,0.0,0.0,0.0,60,0,0.0,0.0,0.0,60,0,0.0,0.0,337.4,60,0,342.9,323.3,0,0,0,28.1,60,0,10.2,60,0,10.4,10.1,7.4,60,0,7.6,7.1,3.9,60,0,4.6,3.0,64.6,60,0,69.0,60.0,28.1,60,0,39.0,18.0,239,0.0,1021.4,60,0,1021.4,0,1007.1,60,0,46.2,60,0
86282,2013-07-21 12:00:00,11340,60,0,0.0,0.0,0.0,60,0,0.0,0.0,0.0,60,0,0.0,0.0,0.0,60,0,0.0,0.0,337.4,60,0,342.9,323.3,0,0,0,28.1,60,0,10.2,60,0,10.4,10.1,7.4,60,0,7.6,7.1,3.9,60,0,4.6,3.0,64.6,60,0,69.0,60.0,28.1,60,0,39.0,18.0,239,0.0,1021.4,60,0,1021.4,0,1007.1,60,0,46.2,60,0
86282,2013-07-22 00:00:00,11350,60,0,0.0,0.0,0.0,60,0,0.0,0.0,0.0,60,0,0.0,0.0,0.0,60,0,0.0,0.0,337.4,60,0,342.9,323.3,0,0,0,28.1,60,0,10.2,60,0,10.4,10.1,7.4,60,0,7.6,7.1,3.9,60,0,4.6,3.0,64.6,60,0,69.0,60.0,28.1,60,0,39.0,18.0,239,0.0,1021.4,60,0,1021.4,0,1007.1,60,0,46.2,60,0
86282,2013-07-22 12:00:00,11360,60,0,0.0,0.0,0.0,60,0,0.0,0.0,0.0,60,0,0.0,0.0,0.0,60,0,0.0,0.0,337.4,60,0,342.9,323.3,0,0,0,28.1,60,0,10.2,60,0,10.4,10.1,7.4,60,0,7.6,7.1,3.9,60,0,4.6,3.0,64.6,60,0,69.0,60.0,28.1,60,0,39.0,18.0,239,0.0,1021.4,60,0,1021.4,0,1007.1,60,0,46.2,60,0
86282,2013-07-23 00:00:00,11370,60,0,0.0,0.0,0.0,60,0,0.0,0.0,0.0,60,0,0.0,0.0,0.0,60,0,0.0,0.0,337.4,60,0,342.9,323.3,0,0,0,28.1,60,0,10.2,60,0,10.4,10.1,7.4,60,0,7.6,7.1,3.9,60,0,4.6,3.0,64.6,60,0,69.0,60.0,28.1,60,0,39.0,18.0,239,0.0,1021.4,60,0,1021.4,0,1007.1,60,0,46.2,60,0
86282,2013-07-23 12:00:00,11380,60,0,0.0,0.0,0.0,60,0,0.0,0.0,0.0,60,0,0.0,0.0,0.0,60,0,0.0,0.0,337.4,60,0,342.9,323.3,0,0,0,28.1,60,0,10.2,60,0,10.4,10.1,7.4,60,0,7.6,7.1,3.9,60,0,4.6,3.0,64.6,60,0,69.0,60.0,28.1,60,0,39.0,18.0,239,0.0,1021.4,60,0,1021.4,0,1007.1,60,0,46.2,60,0
86282,2013-07-24 00:00:00,11390,60,0,0.0,0.0,0.0,60,0,0.0,0.0,0.0,60,0,0.0,0.0,0.0,60,0,0.0,0.0,337.4,60,0,342.9,323.3,0,0,0,28.1,60,0,10.2,60,0,10.4,10.1,7.4,60,0,7.6,7.1,3.9,60,0,4.6,3.0,64.6,60,0,69.0,60.0,28.1,60,0,39.0,18.0,239,0.0,1021.4,60,0,1021.4,0,1007.1,60,0,46.2,60,0
86282,2013-07-24 12:00:00,11400,60,0,0.0,0.0,0.0,60,0,0.0,0.0,0.0,60,0,0.0,0.0,0.0,60,0,0.0,0.0,337.4,60,0,342.9,323.3,0,0,0,28.1,60,0,10.2,60,0,10.4,10.1,7.4,60,0,7.6,7.1,3.9,60,0,4.6,3.0,64.6,60,0,69.0,60.0,28.1,60,0,39.0,18.0,239,0.0,1021.4,60,0,1021.4,0,1007.1,60,0,46.2,60,0
86282,2013-07-25 00:00:00,11410,60,0,0.0,0.0,0.0,60,0,0.0,0.0,0.0,60,0,0.0,0.0,0.0,60,0,0.0,0.0,337.4,60,0,342.9,323.3,0,0,0,28.1,60,0,10.2,60,0,10.4,10.1,7.4,60,0,7.6,7.1,3.9,60,0,4.6,3.0,64.6,60,0,69.0,60.0,28.1,60,0,39.0,18.0,239,0.0,1021.4,60,0,1021.4,0,1007.1,60,0,46.2,60,0
86282,2013-07-25 12:00:00,11420,60,0,0.0,0.0,0.0,60,0,0.0,0.0,0.0,60,0,0.0,0.0,0.0,60,0,0.0,0.0,337.4,60,0,342.9,323.3,0,0,0,28.1,60,0,10.2,60,0,10.4,10.1,7.4,60,0,7.6,7.1,3.9,60,0,4.6,3.0,64.6,60,0,69.0,60.0,28.1,60,0,39.0,18.0,239,0.0,1021.4,60,0,1021.4,0,1007.1,60,0,46.2,60,0
86282,2013-07-26 00:00:00,11430,60,0,0.0,0.0,0.0,60,0,0.0,0.0,0.0,60,0,0.0,0.0,0.0,60,0,0.0,0.0,337.4,60,0,342.9,323.3,0,0,0,28.1,60,0,10.2,60,0,10.4,10.1,7.4,60,0,7.6,7.1,3.9,60,0,4.6,3.0,64.6,60,0,69.0,60.0,28.1,60,0,39.0,18.0,239,0.0,1021.4,60,0,1021.4,0,1007.1,60,0,46.2,60,0
86282,2013-07-26 12:00:00,11440,60,0,0.0,0.0,0.0,60,0,0.0,0.0,0.0,60,0,0.0,0.0,0.0,60,0,0.0,0.0,337.4,60,0,342.9,323.3,0,0,0,28.1,60,0,10.2,60,0,10.4,10.1,7.4,60,0,7.6,7.1,3.9,60,0,4.6,3.0,64.6,60,0,69.0,60.0,28.1,60,0,39.0,18.0,239,0.0,1021.4,60,0,1021.4,0,1007.1,60,0,46.2,60,0
86282,2013-07-27 00:00:00,11450,60,0,0.0,0.0,0.0,60,0,0.0,0.0,0.0,60,0,0.0,0.0,0.0,60,0,0.0,0.0,337.4,60,0,342.9,323.3,0,0,0,28.1,60,0,10.2,60,0,10.4,10.1,7.4,60,0,7.6,7.1,3.9,60,0,4.6,3.0,64.6,60,0,69.0,60.0,28.1,60,0,39.0,18.0,239,0.0,1021.4,60,0,1021.4,0,1007.1,60,0,46.2,60,0
86282,2013-07-27 12:00:00,11460,60,0,0.0,0.0,0.0,60,0,0.0,0.0,0.0,60,0,0.0,0.0,0.0,60,0,0.0,0.0,337.4,60,0,342.9,323.3,0,0,0,28.1,60,0,10.2,60,0,10.4,10.1,7.4,60,0,7.6,7.1,3.9,60,0,4.6,3.0,64.6,60,0,69.0,60.0,28.1,60,0,39.0,18.0,239,0.0,1021.4,60,0,1021.4,0,1007.1,60,0,46.2,60,0
86282,2013-07-28 00:00:00,11470,60,0,0.0,0.0,0.0,60,0,0.0,0.0,0.0,60,0,0.0,0.0,0.0,60,0,0.0,0.0,337.4,60,0,342.9,323.3,0,0,0,28.1,60,0,10.2,60,0,10.4,10.1,7.4,60,0,7.6,7.1,3.9,60,0,4.6,3.0,64.6,60,0,69.0,60.0,28.1,60,0,39.0,18.0,239,0.0,1021.4,60,0,1021.4,0,1007.1,60,0,46.2,60,0
86282,2013-07-28 12:00:00,11480,60,0,0.0,0.0,0.0,60,0,0.0,0.0,0.0,60,0,0.0,0.0,0.0,60,0,0.0,0.0,337.4,60,0,342.9,323.3,0,0,0,28.1,60,0,10.2,60,0,10.4,10.1,7.4,60,0,7.6,7.1,3.9,60,0,4.6,3.0,64.6,60,0,69.0,60.0,28.1,60,0,39.0,18.0,239,0.0,1021.4,60,0,1021.4,0,1007.1,60,0,46.2,60,0
86282,2013-07-29 00:00:00,11490,60,0,0.0,0.0,0.0,60,0,0.0,0.0,0.0,60,0,0.0,0.0,0.0,60,0,0.0,0.0,337.4,60,0,342.9,323.3,0,0,0,28.1,60,0,10.2,60,0,10.4,10.1,7.4,60,0,7.6,7.1,3.9,60,0,4.6,3.0,64.6,60,0,69.0,60.0,28.1,60,0,39.0,18.0,239,0.0,1021.4,60,0,1021.4,0,1007.1,60,0,46.2,60,0
86282,2013-07-29 12:00:00,11500,60,0,0.0,0.0,0.0,60,0,0.0,0.0,0.0,60,0,0.0,0.0,0.0,60,0,0.0,0.0,337.4,60,0,342.9,323.3,0,0,0,28.1,60,0,10.2,60,0,10.4,10.1,7.4,60,0,7.6,7.1,3.9,60,0,4.6,3.0,64.6,60,0,69.0,60.0,28.1,60,0,39.0,18.0,239,0.0,1021.4,60,0,1021.4,0,1007.1,60,0,46.2,60,0
86282,2013-07-30 00:00:00,11510,60,0,0.0,0.0,0.0,60,0,0.0,0.0,0.0,60,0,0.0,0.0,0.0,60,0,0.0,0.0,337.4,60,0,342.9,323.3,0,0,0,28.1,60,0,10.2,60,0,10.4,10.1,7.4,60,0,7.6,7.1,3.9,60,0,4.6,3.0,64.6,60,0,69.0,60.0,28.1,60,0,39.0,18.0,239,0.0,1021.4,60,0,1021.4,0,1007.1,60,0,46.2,60,0
86282,2013-07-30 12:00:00,11520,60,0,0.0,0.0,0.0,60,0,0.0,0.0,0.0,60,0,0.0,0.0,0.0,60,0,0.0,0.0,337.4,60,0,342.9,323.3,0,0,0,28.1,60,0,10.2,60,0,10.4,10.1,7.4,60,0,7.6,7.1,3.9,60,0,4.6,3.0,64.6,60,0,69.0,60.0,28.1,60,0,39.0,18.0,239,0.0,1021.4,60,0,1021.4,0,1007.1,60,0,46.2,60,0
86282,2013-07-31 00:00:00,11530,60,0,0.0,0.0,0.0,60,0,0.0,0.0,0.0,60,0,0.0,0.0,0.0,60,0,0.0,0.0,337.4,60,0,342.9,323.3,0,0,0,28.1,60,0,10.2,60,0,10.4,10.1,7.4,60,0,7.6,7.1,3.9,60,0,4.6,3.0,64.6,60,0,69.0,60.0,28.1,60,0,39.0,18.0,239,0.0,1021.4,60,0,1021.4,0,1007.1,60,0,46.2,60,0
86282,2013-07-31 12:00:00,11540,60,0,0.0,0.0,0.0,60,0,0.0,0.0,0.0,60,0,0.0,0.0,0.0,60,0,0.0,0.0,337.4,60,0,342.9,323.3,0,0,0,28.1,60,0,10.2,60,0,10.4,10.1,7.4,60,0,7.6,7.1,3.9,60,0,4.6,3.0,64.6,60,0,69.0,60.0,28.1,60,0,39.0,18.0,239,0.0,1021.4,60,0,1021.4,0,1007.1,60,0,46.2,60,0
86282,2013-08-01 00:00:00,11550,60,0,0.0,0.0,0.0,60,0,0.0,0.0,0.0,60,0,0.0,0.0,0.0,60,0,0.0,0.0,337.4,60,0,342.9,323.3,0,0,0,28.1,60,0,10.2,60,0,10.4,10.1,7.4,60,0,7.6,7.1,3.9,60,0,4.6,3.0,64.6,60,0,69.0,60.0,28.1,60,0,39.0,18.0,239,0.0,1021.4,60,0,1021.4,0,1007.1,60,0,46.2,60,0
86282,2013-08-01 12:00:00,11560,60,0,0.0,0.0,0.0,60,0,0.0,0.0,0.0,60,0,0.0,0.0,0.0,60,0,0.0,0.0,337.4,60,0,342.9,323.3,0,0,0,28.1,60,0,10.2,60,0,10.4,10.1,7.4,60,0,7.6,7.1,3.9,60,0,4.6,3.0,64.6,60,0,69.0,60.0,28.1,60,0,39.0,18.0,239,0.0,1021.4,60,0,1021.4,0,1007.1,60,0,46.2,60,0
86282,2013-08-02 00:00:00,11570,60,0,0.0,0.0,0.0,60,0,0.0,0.0,0.0,60,0,0.0,0.0,0.0,60,0,0.0,0.0,337.4,60,0,342.9,323.3,0,0,0,28.1,60,0,10.2,60,0,10.4,10.1,7.4,60,0,7.6,7.1,3.9,60,0,4.6,3.0,64.6,60,0,69.0,60.0,28.1,60,0,39.0,18.0,239,0.0,1021.4,60,0,1021.4,0,1007.1,60,0,46.2,60,0
86282,2013-08-02 12:00:00,11580,60,0,0.0,0.0,0.0,60,0,0.0,0.0,0.0,60,0,0.0,0.0,0.0,60,0,0.0,0.0,337.4,60,0,342.9,323.3,0,0,0,28.1,60,0,10.2,60,0,10.4,10.1,7.4,60,0,7.6,7.1,3.9,60,0,4.6,3.0,64.6,60,0,69.0,60.0,28.1,60,0,39.0,18.0,239,0.0,1021.4,60,0,1021.4,0,1007.1,60,0,46.2,60,0
86282,2013-08-03 00:00:00,11590,60,0,0.0,0.0,0.0,60,0,0.0,0.0,0.0,60,0,0.0,0.0,0.0,60,0,0.0,0.0,337.4,60,0,342.9,323.3,0,0,0,28.1,60,0,10.2,60,0,10.4,10.1,7.4,60,0,7.6,7.1,3.9,60,0,4.6,3.0,64.6,60,0,69.0,60.0,28.1,60,0,39.0,18.0,239,0.0,1021.4,60,0,1021.4,0,1007.1,60,0,46.2,60,0
86282,2013-08-03 12:00:00,11600,60,0,0.0,0.0,0.0,60,0,0.0,0.0,0.0,60,0,0.0,0.0,0.0,60,0,0.0,0.0,337.4,60,0,342.9,323.3,0,0,0,28.1,60,0,10.2,60,0,10.4,10.1,7.4,60,0,7.6,7.1,3.9,60,0,4.6,3.0,64.6,60,0,69.0,60.0,28.1,60,0,39.0,18.0,239,0.0,1021.4,60,0,1021.4,0,1007.1,60,0,46.2,60,0
86282,2013-08-04 00:00:00,11610,60,0,0.0,0.0,0.0,60,0,0.0,0.0,0.0,60,0,0.0,0.0,0.0,60,0,0.0,0.0,337.4,60,0,342.9,323.3,0,0,0,28.1,60,0,10.2,60,0,10.4,10.1,7.4,60,0,7.6,7.1,3.9,60,0,4.6,3.0,64.6,60,0,69.0,60.0,28.1,60,0,39.0,18.0,239,0.0,1021.4,60,0,1021.4,0,1007.1,60,0,46.2,60,0
86282,2013-08-04 12:00:00,11620,60,0,0.0,0.0,0.0,60,0,0.0,0.0,0.0,60,0,0.0,0.0,0.0,60,0,0.0,0.0,337.4,60,0,342.9,323.3,0,0,0,28.1,60,0,10.2,60,0,10.4,10.1,7.4,60,0,7.6,7.1,3.9,60,0,4.6,3.0,64.6,60,0,69.0,60.0,28.1,60,0,39.0,18.0,239,0.0,1021.4,60,0,1021.4,0,1007.1,60,0,46.2,60,0
86282,2013-08-05 00:00:00,11630,60,0,0.0,0.0,0.0,60,0,0.0,0.0,0.0,60,0,0.0,0.0,0.0,60,0,0.0,0.0,337.4,60,0,342.9,323.3,0,0,0,28.1,60,0,10.2,60,0,10.4,10.1,7.4,60,0,7.6,7.1,3.9,60,0,4.6,3.0,64.6,60,0,69.0,60.0,28.1,60,0,39.0,18.0,239,0.0,1021.4,60,0,1021.4,0,1007.1,60,0,46.2,60,0
86282,2013-08-05 12:00:00,11640,60,0,0.0,0.0,0.0,60,0,0.0,0.0,0.0,60,0,0.0,0.0,0.0,60,0,0.0,0.0,337.4,60,0,342.9,323.3,0,0,0,28.1,60,0,10.2,60,0,10.4,10.1,7.4,60,0,7.6,7.1,3.9,60,0,4.6,3.0,64.6,60,0,69.0,60.0,28.1,60,0,39.0,18.0,239,0.0,1021.4,60,0,1021.4,0,1007.1,60,0,46.2,60,0
86282,2013-08-06 00:00:00,11650,60,0,0.0,0.0,0.0,60,0,0.0,0.0,0.0,60,0,0.0,0.0,0.0,60,0,0.0,0.0,337.4,60,0,342.9,323.3,0,0,0,28.1,60,0,10.2,60,0,10.4,10.1,7.4,60,0,7.6,7.1,3.9,60,0,4.6,3.0,64.6,60,0,69.0,60.0,28.1,60,0,39.0,18.0,239,0.0,1021.4,60,0,1021.4,0,1007.1,60,0,46.2,60,0
86282,2013-08-06 12:00:00,11660,60,0,0.0,0.0,0.0,60,0,0.0,0.0,0.0,60,0,0.0,0.0,0.0,60,0,0.0,0.0,337.4,60,0,342.9,323.3,0,0,0,28.1,60,0,10.2,60,0,10.4,10.1,7.4,60,0,7.6,7.1,3.9,60,0,4.6,3.0,64.6,60,0,69.0,60.0,28.1,60,0,39.0,18.0,239,0.0,1021.4,60,0,1021.4,0,1007.1,60,0,46.2,60,0
86282,2013-08-07 00:00:00,11670,60,0,0.0,0.0,0.0,60,0,0.0,0.0,0.0,60,0,0.0,0.0,0.0,60,0,0.0,0.0,337.4,60,0,342.9,323.3,0,0,0,28.1,60,0,10.2,60,0,10.4,10.1,7.4,60,0,7.6,7.1,3.9,60,0,4.6,3.0,64.6,60,0,69.0,60.0,28.1,60,0,39.0,18.0,239,0.0,1021.4,60,0,1021.4,0,1007.1,60,0,46.2,60,0
86282,2013-08-07 12:00:00,11680,60,0,0.0,0.0,0.0,60,0,0.0,0.0,0.0,60,0,0.0,0.0,0.0,60,0,0.0,0.0,337.4,60,0,342.9,323.3,0,0,0,28.1,60,0,10.2,60,0,10.4,10.1,7.4,60,0,7.6,7.1,3.9,60,0,4.6,3.0,64.6,60,0,69.0,60.0,28.1,60,0,39.0,18.0,239,0.0,1021.4,60,0,1021.4,0,1007.1,60,0,46.2,60,0
86282,2013-08-08 00:00:00,11690,60,0,0.0,0.0,0.0,60,0,0.0,0.0,0.0,60,0,0.0,0.0,0.0,60,0,0.0,0.0,337.4,60,0,342.9,323.3,0,0,0,28.1,60,0,10.2,60,0,10.4,10.1,7.4,60,0,7.6,7.1,3.9,60,0,4.6,3.0,64.6,60,0,69.0,60.0,28.1,60,0,39.0,18.0,239,0.0,1021.4,60,0,1021.4,0,1007.1,60,0,46.2,60,0
86282,2013-08-08 12:00:00,11700,60,0,0.0,0.0,0.0,60,0,0.0,0.0,0.0,60,0,0.0,0.0,0.0,60,0,0.0,0.0,337.4,60,0,342.9,323.3,0,0,0,28.1,60,0,10.2,60,0,10.4,10.1,7.4,60,0,7.6,7.1,3.9,60,0,4.6,3.0,64.6,60,0,69.0,60.0,28.1,60,0,39.0,18.0,239,0.0,1021.4,60,0,1021.4,0,1007.1,60,0,46.2,60,0
86282,2013-08-09 00:00:00,11710,60,0,0.0,0.0,0.0,60,0,0.0,0.0,0.0,60,0,0.0,0.0,0.0,60,0,0.0,0.0,337.4,60,0,342.9,323.3,0,0,0,28.1,60,0,10.2,60,0,10.4,10.1,7.4,60,0,7.6,7.1,3.9,60,0,4.6,3.0,64.6,60,0,69.0,60.0,28.1,60,0,39.0,18.0,239,0.0,1021.4,60,0,1021.4,0,1007.1,60,0,46.2,60,0
86282,2013-08-09 12:00:00,11720,60,0,0.0,0.0,0.0,60,0,0.0,0.0,0.0,60,0,0.0,0.0,0.0,60,0,0.0,0.0,337.4,60,0,342.9,323.3,0,0,0,28.1,60,0,10.2,60,0,10.4,10.1,7.4,60,0,7.6,7.1,3.9,60,0,4.6,3.0,64.6,60,0,69.0,60.0,28.1,60,0,39.0,18.0,239,0.0,1021.4,60,0,1021.4,0,1007.1,60,0,46.2,60,0
86282,2013-08-10 00:00:00,11730,60,0,0.0,0.0,0.0,60,0,0.0,0.0,0.0,60,0,0.0,0.0,0.0,60,0,0.0,0.0,337.4,60,0,342.9,323.3,0,0,0,28.1,60,0,10.2,60,0,10.4,10.1,7.4,60,0,7.6,7.1,3.9,60,0,4.6,3.0,64.6,60,0,69.0,60.0,28.1,60,0,39.0,18.0,239,0.0,1021.4,60,0,1021.4,0,1007.1,60,0,46.2,60,0
86282,2013-08-10 12:00:00,11740,60,0,0.0,0.0,0.0,60,0,0.0,0.0,0.0,60,0,0.0,0.0,0.0,60,0,0.0,0.0,337.4,60,0,342.9,323.3,0,0,0,28.1,60,0,10.2,60,0,10.4,10.1,7.4,60,0,7.6,7.1,3.9,60,0,4.6,3.0,64.6,60,0,69.0,60.0,28.1,60,0,39.0,18.0,239,0.0,1021.4,60,0,1021.4,0,1007.1,60,0,46.2,60,0
86282,2013-08-11 00:00:00,11750,60,0,0.0,0.0,0.0,60,0,0.0,0.0,0.0,60,0,0.0,0.0,0.0,60,0,0.0,0.0,337.4,60,0,342.9,323.3,0,0,0,28.1,60,0,10.2,60,0,10.4,10.1,7.4,60,0,7.6,7.1,3.9,60,0,4.6,3.0,64.6,60,0,69.0,60.0,28.1,60,0,39.0,18.0,239,0.0,1021.4,60,0,1021.4,0,1007.1,60,0,46.2,60,0
86282,2013-08-11 12:00:00,11760,60,0,0.0,0.0,0.0,60,0,0.0,0.0,0.0,60,0,0.0,0.0,0.0,60,0,0.0,0.0,337.4,60,0,342.9,323.3,0,0,0,28.1,60,0,10.2,60,0,10.4,10.1,7.4,60,0,7.6,7.1,3.9,60,0,4.6,3.0,64.6,60,0,69.0,60.0,28.1,60,0,39.0,18.0,239,0.0,1021.4,60,0,1021.4,0,1007.1,60,0,46.2,60,0
86282,2013-08-12 00:00:00,11770,60,0,0.0,0.0,0.0,60,0,0.0,0.0,0.0,60,0,0.0,0.0,0.0,60,0,0.0,0.0,337.4,60,0,342.9,323.3,0,0,0,28.1,60,0,10.2,60,0,10.4,10.1,7.4,60,0,7.6,7.1,3.9,60,0,4.6,3.0,64.6,60,0,69.0,60.0,28.1,60,0,39.0,18.0,239,0.0,1021.4,60,0,1021.4,0,1007.1,60,0,46.2,60,0
86282,2013-08-12 12:00:00,11780,60,0,0.0,0.0,0.0,60,0,0.0,0.0,0.0,60,0,0.0,0.0,0.0,60,0,0.0,0.0,337.4,60,0,342.9,323.3,0,0,0,28.1,60,0,10.2,60,0,10.4,10.1,7.4,60,0,7.6,7.1,3.9,60,0,4.6,3.0,64.6,60,0,69.0,60.0,28.1,60,0,39.0,18.0,239,0.0,1021.4,60,0,1021.4,0,1007.1,60,0,46.2,60,0
86282,2013-08-13 00:00:00,11790,60,0,0.0,0.0,0.0,60,0,0.0,0.0,0.0,60,0,0.0,0.0,0.0,60,0,0.0,0.0,337.4,60,0,342.9,323.3,0,0,0,28.1,60,0,10.2,60,0,10.4,10.1,7.4,60,0,7.6,7.1,3.9,60,0,4.6,3.0,64.6,60,0,69.0,60.0,28.1,60,0,39.0,18.0,239,0.0,1021.4,60,0,1021.4,0,1007.1,60,0,46.2,60,0
86282,2013-08-13 12:00:00,11800,60,0,0.0,0.0,0.0,60,0,0.0,0.0,0.0,60,0,0.0,0.0,0.0,60,0,0.0,0.0,337.4,60,0,342.9,323.3,0,0,0,28.1,60,0,10.2,60,0,10.4,10.1,7.4,60,0,7.6,7.1,3.9,60,0,4.6,3.0,64.6,60,0,69.0,60.0,28.1,60,0,39.0,18.0,239,0.0,1021.4,60,0,1021.4,0,1007.1,60,0,46.2,60,0
86282,2013-08-14 00:00:00,11810,60,0,0.0,0.0,0.0,60,0,0.0,0.0,0.0,60,0,0.0,0.0,0.0,60,0,0.0,0.0,337.4,60,0,342.9,323.3,0,0,0,28.1,60,0,10.2,60,0,10.4,10.1,7.4,60,0,7.6,7.1,3.9,60,0,4.6,3.0,64.6,60,0,69.0,60.0,28.1,60,0,39.0,18.0,239,0.0,1021.4,60,0,1021.4,0,1007.1,60,0,46.2,60,0
86282,2013-08-14 12:00:00,11820,60,0,0.0,0.0,0.0,60,0,0.0,0.0,0.0,60,0,0.0,0.0,0.0,60,0,0.0,0.0,337.4,60,0,342.9,323.3,0,0,0,28.1,60,0,10.2,60,0,10.4,10.1,7.4,60,0,7.6,7.1,3.9,60,0,4.6,3.0,64.6,60,0,69.0,60.0,28.1,60,0,39.0,18.0,239,0.0,1021.4,60,0,1021.4,0,1007.1,60,0,46.2,60,0
86282,2013-08-15 00:00:00,11830,60,0,0.0,0.0,0.0,60,0,0.0,0.0,0.0,60,0,0.0,0.0,0.0,60,0,0.0,0.0,337.4,60,0,342.9,323.3,0,0,0,28.1,60,0,10.2,60,0,10.4,10.1,7.4,60,0,7.6,7.1,3.9,60,0,4.6,3.0,64.6,60,0,69.0,60.0,28.1,60,0,39.0,18.0,239,0.0,1021.4,60,0,1021.4,0,1007.1,60,0,46.2,60,0
86282,2013-08-15 12:00:00,11840,60,0,0.0,0.0,0.0,60,0,0.0,0.0,0.0,60,0,0.0,0.0,0.0,60,0,0.0,0.0,337.4,60,0,342.9,323.3,0,0,0,28.1,60,0,10.2,60,0,10.4,10.1,7.4,60,0,7.6,7.1,3.9,60,0,4.6,3.0,64.6,60,0,69.0,60.0,28.1,60,0,39.0,18.0,239,0.0,1021.4,60,0,1021.4,0,1007.1,60,0,46.2,60,0
86282,2013-08-16 00:00:00,11850,60,0,0.0,0.0,0.0,60,0,0.0,0.0,0.0,60,0,0.0,0.0,0.0,60,0,0.0,0.0,337.4,60,0,342.9,323.3,0,0,0,28.1,60,0,10.2,60,0,10.4,10.1,7.4,60,0,7.6,7.1,3.9,60,0,4.6,3.0,64.6,60,0,69.0,60.0,28.1,60,0,39.0,18.0,239,0.0,1021.4,60,0,1021.4,0,1007.1,60,0,46.2,60,0
86282,2013-08-16 12:00:00,11860,60,0,0.0,0.0,0.0,60,0,0.0,0.0,0.0,60,0,0.0,0.0,0.0,60,0,0.0,0.0,337.4,60,0,342.9,323.3,0,0,0,28.1,60,0,10.2,60,0,10.4,10.1,7.4,60,0,7.6,7.1,3.9,60,0,4.6,3.0,64.6,60,0,69.0,60.0,28.1,60,0,39.0,18.0,239,0.0,1021.4,60,0,1021.4,0,1007.1,60,0,46.2,60,0
86282,2013-08-17 00:00:00,11870,60,0,0.0,0.0,0.0,60,0,0.0,0.0,0.0,60,0,0.0,0.0,0.0,60,0,0.0,0.0,337.4,60,0,342.9,323.3,0,0,0,28.1,60,0,10.2,60,0,10.4,10.1,7.4,60,0,7.6,7.1,3.9,60,0,4.6,3.0,64.6,60,0,69.0,60.0,28.1,60,0,39.0,18.0,239,0.0,1021.4,60,0,1021.4,0,1007.1,60,0,46.2,60,0
86282,2013-08-17 12:00:00,11880,60,0,0.0,0.0,0.0,60,0,0.0,0.0,0.0,60,0,0.0,0.0,0.0,60,0,0.0,0.0,337.4,60,0,342.9,323.3,0,0,0,28.1,60,0,10.2,60,0,10.4,10.1,7.4,60,0,7.6,7.1,3.9,60,0,4.6,3.0,64.6,60,0,69.0,60.0,28.1,60,0,39.0,18.0,239,0.0,1021.4,60,0,1021.4,0,1007.1,60,0,46.2,60,0
86282,2013-08-18 00:00:00,11890,60,0,0.0,0.0,0.0,60,0,0.0,0.0,0.0,60,0,0.0,0.0,0.0,60,0,0.0,0.0,337.4,60,0,342.9,323.3,0,0,0,28.1,60,0,10.2,60,0,10.4,10.1,7.4,60,0,7.6,7.1,3.9,60,0,4.6,3.0,64.6,60,0,69.0,60.0,28.1,60,0,39.0,18.0,239,0.0,1021.4,60,0,1021.4,0,1007.1,60,0,46.2,60,0
86282,2013-08-18 12:00:00,11900,60,0,0.0,0.0,0.0,60,0,0.0,0.0,0.0,60,0,0.0,0.0,0.0,60,0,0.0,0.0,337.4,60,0,342.9,323.3,0,0,0,28.1,60,0,10.2,60,0,10.4,10.1,7.4,60,0,7.6,7.1,3.9,60,0,4.6,3.0,64.6,60,0,69.0,60.0,28.1,60,0,39.0,18.0,239,0.0,1021.4,60,0,1021.4,0,1007.1,60,0,46.2,60,0
86282,2013-08-19 00:00:00,11910,60,0,0.0,0.0,0.0,60,0,0.0,0.0,0.0,60,0,0.0,0.0,0.0,60,0,0.0,0.0,337.4,60,0,342.9,323.3,0,0,0,28.1,60,0,10.2,60,0,10.4,10.1,7.4,60,0,7.6,7.1,3.9,60,0,4.6,3.0,64.6,60,0,69.0,60.0,28.1,60,0,39.0,18.0,239,0.0,1021.4,60,0,1021.4,0,1007.1,60,0,46.2,60,0
86282,2013-08-19 12:00:00,11920,60,0,0.0,0.0,0.0,60,0,0.0,0.0,0.0,60,0,0.0,0.0,0.0,60,0,0.0,0.0,337.4,60,0,342.9,323.3,0,0,0,28.1,60,0,10.2,60,0,10.4,10.1,7.4,60,0,7.6,7.1,3.9,60,0,4.6,3.0,64.6,60,0,69.0,60.0,28.1,60,0,39.0,18.0,239,0.0,1021.4,60,0,1021.4,0,1007.1,60,0,46.2,60,0
86282,2013-08-20 00:00:00,11930,60,0,0.0,0.0,0.0,60,0,0.0,0.0,0.0,60,0,0.0,0.0,0.0,60,0,0.0,0.0,337.4,60,0,342.9,323.3,0,0,0,28.1,60,0,10.2,60,0,10.4,10.1,7.4,60,0,7.6,7.1,3.9,60,0,4.6,3.0,64.6,60,0,69.0,60.0,28.1,60,0,39.0,18.0,239,0.0,1021.4,60,0,1021.4,0,1007.1,60,0,46.2,60,0
86282,2013-08-20 12:00:00,11940,60,0,0.0,0.0,0.0,60,0,0.0,0.0,0.0,60,0,0.0,0.0,0.0,60,0,0.0,0.0,337.4,60,0,342.9,323.3,0,0,0,28.1,60,0,10.2,60,0,10.4,10.1,7.4,60,0,7.6,7.1,3.9,60,0,4.6,3.0,64.6,60,0,69.0,60.0,28.1,60,0,39.0,18.0,239,0.0,1021.4,60,0,1021.4,0,1007.1,60,0,46.2,60,0
86282,2013-08-21 00:00:00,11950,60,0,0.0,0.0,0.0,60,0,0.0,0.0,0.0,60,0,0.0,0.0,0.0,60,0,0.0,0.0,337.4,60,0,342.9,323.3,0,0,0,28.1,60,0,10.2,60,0,10.4,10.1,7.4,60,0,7.6,7.1,3.9,60,0,4.6,3.0,64.6,60,0,69.0,60.0,28.1,60,0,39.0,18.0,239,0.0,1021.4,60,0,1021.4,0,1007.1,60,0,46.2,60,0
86282,2013-08-21 12:00:00,11960,60,0,0.0,0.0,0.0,60,0,0.0,0.0,0.0,60,0,0.0,0.0,0.0,60,0,0.0,0.0,337.4,60,0,342.9,323.3,0,0,0,28.1,60,0,10.2,60,0,10.4,10.1,7.4,60,0,7.6,7.1,3.9,60,0,4.6,3.0,64.6,60,0,69.0,60.0,28.1,60,0,39.0,18.0,239,0.0,1021.4,60,0,1021.4,0,1007.1,60,0,46.2,60,0
86282,2013-08-22 00:00:00,11970,60,0,0.0,0.0,0.0,60,0,0.0,0.0,0.0,60,0,0.0,0.0,0.0,60,0,0.0,0.0,337.4,60,0,342.9,323.3,0,0,0,28.1,60,0,10.2,60,0,10.4,10.1,7.4,60,0,7.6,7.1,3.9,60,0,4.6,3.0,64.6,60,0,69.0,60.0,28.1,60,0,39.0,18.0,239,0.0,1021.4,60,0,1021.4,0,1007.1,60,0,46.2,60,0
86282,2013-08-22 12:00:00,11980,60,0,0.0,0.0,0.0,60,0,0.0,0.0,0.0,60,0,0.0,0.0,0.0,60,0,0.0,0.0,337.4,60,0,342.9,323.3,0,0,0,28.1,60,0,10.2,60,0,10.4,10.1,7.4,60,0,7.6,7.1,3.9,60,0,4.6,3.0,64.6,60,0,69.0,60.0,28.1,60,0,39.0,18.0,239,0.0,1021.4,60,0,1021.4,0,1007.1,60,0,46.2,60,0
86282,2013-08-23 00:00:00,11990,60,0,0.0,0.0,0.0,60,0,0.0,0.0,0.0,60,0,0.0,0.0,0.0,60,0,0.0,0.0,337.4,60,0,342.9,323.3,0,0,0,28.1,60,0,10.2,60,0,10.4,10.1,7.4,60,0,7.6,7.1,3.9,60,0,4.6,3.0,64.6,60,0,69.0,60.0,28.1,60,0,39.0,18.0,239,0.0,1021.4,60,0,1021.4,0,1007.1,60,0,46.2,60,0
86282,2013-08-23 12:00:00,12000,60,0,0.0,0.0,0.0,60,0,0.0,0.0,0.0,60,0,0.0,0.0,0.0,60,0,0.0,0.0,337.4,60,0,342.9,323.3,0,0,0,28.1,60,0,10.2,60,0,10.4,10.1,7.4,60,0,7.6,7.1,3.9,60,0,4.6,3.0,64.6,60,0,69.0,60.0,28.1,60,0,39.0,18.0,239,0.0,1021.4,60,0,1021.4,0,1007.1,60,0,46.2,60,0
86282,2013-08-24 00:00:00,12010,60,0,0.0,0.0,0.0,60,0,0.0,0.0,0.0,60,0,0.0,0.0,0.0,60,0,0.0,0.0,337.4,60,0,342.9,323.3,0,0,0,28.1,60,0,10.2,60,0,10.4,10.1,7.4,60,0,7.6,7.1,3.9,60,0,4.6,3.0,64.6,60,0,69.0,60.0,28.1,60,0,39.0,18.0,239,0.0,1021.4,60,0,1021.4,0,1007.1,60,0,46.2,60,0
86282,2013-08-24 12:00:00,12020,60,0,0.0,0.0,0.0,60,0,0.0,0.0,0.0,60,0,0.0,0.0,0.0,60,0,0.0,0.0,337.4,60,0,342.9,323.3,0,0,0,28.1,60,0,10.2,60,0,10.4,10.1,7.4,60,0,7.6,7.1,3.9,60,0,4.6,3.0,64.6,60,0,69.0,60.0,28.1,60,0,39.0,18.0,239,0.0,1021.4,60,0,1021.4,0,1007.1,60,0,46.2,60,0
86282,2013-08-25 00:00:00,12030,60,0,0.0,0.0,0.0,60,0,0.0,0.0,0.0,60,0,0.0,0.0,0.0,60,0,0.0,0.0,337.4,60,0,342.9,323.3,0,0,0,28.1,60,0,10.2,60,0,10.4,10.1,7.4,60,0,7.6,7.1,3.9,60,0,4.6,3.0,64.6,60,0,69.0,60.0,28.1,60,0,39.0,18.0,239,0.0,1021.4,60,0,1021.4,0,1007.1,60,0,46.2,60,0
86282,2013-08-25 12:00:00,12040,60,0,0.0,0.0,0.0,60,0,0.0,0.0,0.0,60,0,0.0,0.0,0.0,60,0,0.0,0.0,337.4,60,0,342.9,323.3,0,0,0,28.1,60,0,10.2,60,0,10.4,10.1,7.4,60,0,7.6,7.1,3.9,60,0,4.6,3.0,64.6,60,0,69.0,60.0,28.1,60,0,39.0,18.0,239,0.0,1021.4,60,0,1021.4,0,1007.1,60,0,46.2,60,0
86282,2013-08-26 00:00:00,12050,60,0,0.0,0.0,0.0,60,0,0.0,0.0,0.0,60,0,0.0,0.0,0.0,60,0,0.0,0.0,337.4,60,0,342.9,323.3,0,0,0,28.1,60,0,10.2,60,0,10.4,10.1,7.4,60,0,7.6,7.1,3.9,60,0,4.6,3.0,64.6,60,0,69.0,60.0,28.1,60,0,39.0,18.0,239,0.0,1021.4,60,0,1021.4,0,1007.1,60,0,46.2,60,0
86282,2013-08-26 12:00:00,12060,60,0,0.0,0.0,0.0,60,0,0.0,0.0,0.0,60,0,0.0,0.0,0.0,60,0,0.0,0.0,337.4,60,0,342.9,323.3,0,0,0,28.1,60,0,10.2,60,0,10.4,10.1,7.4,60,0,7.6,7.1,3.9,60,0,4.6,3.0,64.6,60,0,69.0,60.0,28.1,60,0,39.0,18.0,239,0.0,1021.4,60,0,1021.4,0,1007.1,60,0,46.2,60,0
86282,2013-08-27 00:00:00,12070,60,0,0.0,0.0,0.0,60,0,0.0,0.0,0.0,60,0,0.0,0.0,0.0,60,0,0.0,0.0,337.4,60,0,342.9,323.3,0,0,0,28.1,60,0,10.2,60,0,10.4,10.1,7.4,60,0,7.6,7.1,3.9,60,0,4.6,3.0,64.6,60,0,69.0,60.0,28.1,60,0,39.0,18.0,239,0.0,1021.4,60,0,1021.4,0,1007.1,60,0,46.2,60,0
86282,2013-08-27 12:00:00,12080,60,0,0.0,0.0,0.0,60,0,0.0,0.0,0.0,60,0,0.0,0.0,0.0,60,0,0.0,0.0,337.4,60,0,342.9,323.3,0,0,0,28.1,60,0,10.2,60,0,10.4,10.1,7.4,60,0,7.6,7.1,3.9,60,0,4.6,3.0,64.6,60,0,69.0,60.0,28.1,60,0,39.0,18.0,239,0.0,1021.4,60,0,1021.4,0,1007.1,60,0,46.2,60,0
86282,2013-08-28 00:00:00,12090,60,0,0.0,0.0,0.0,60,0,0.0,0.0,0.0,60,0,0.0,0.0,0.0,60,0,0.0,0.0,337.4,60,0,342.9,323.3,0,0,0,28.1,60,0,10.2,60,0,10.4,10.1,7.4,60,0,7.6,7.1,3.9,60,0,4.6,3.0,64.6,60,0,69.0,60.0,28.1,60,0,39.0,18.0,239,0.0,1021.4,60,0,1021.4,0,1007.1,60,0,46.2,60,0
86282,2013-08-28 12:00:00,12100,60,0,0.0,0.0,0.0,60,0,0.0,0.0,0.0,60,0,0.0,0.0,0.0,60,0,0.0,0.0,337.4,60,0,342.9,323.3,0,0,0,28.1,60,0,10.2,60,0,10.4,10.1,7.4,60,0,7.6,7.1,3.9,60,0,4.6,3.0,64.6,60,0,69.0,60.0,28.1,60,0,39.0,18.0,239,0.0,1021.4,60,0,1021.4,0,1007.1,60,0,46.2,60,0
86282,2013-08-29 00:00:00,12110,60,0,0.0,0.0,0.0,60,0,0.0,0.0,0.0,60,0,0.0,0.0,0.0,60,0,0.0,0.0,337.4,60,0,342.9,323.3,0,0,0,28.1,60,0,10.2,60,0,10.4,10.1,7.4,60,0,7.6,7.1,3.9,60,0,4.6,3.0,64.6,60,0,69.0,60.0,28.1,60,0,39.0,18.0,239,0.0,1021.4,60,0,1021.4,0,1007.1,60,0,46.2,60,0
86282,2013-08-29 12:00:00,12120,60,0,0.0,0.0,0.0,60,0,0.0,0.0,0.0,60,0,0.0,0.0,0.0,60,0,0.0,0.0,337.4,60,0,342.9,323.3,0,0,0,28.1,60,0,10.2,60,0,10.4,10.1,7.4,60,0,7.6,7.1,3.9,60,0,4.6,3.0,64.6,60,0,69.0,60.0,28.1,60,0,39.0,18.0,239,0.0,1021.4,60,0,1021.4,0,1007.1,60,0,46.2,60,0
86282,2013-08-30 00:00:00,12130,60,0,0.0,0.0,0.0,60,0,0.0,0.0,0.0,60,0,0.0,0.0,0.0,60,0,0.0,0.0,337.4,60,0,342.9,323.3,0,0,0,28.1,60,0,10.2,60,0,10.4,10.1,7.4,60,0,7.6,7.1,3.9,60,0,4.6,3.0,64.6,60,0,69.0,60.0,28.1,60,0,39.0,18.0,239,0.0,1021.4,60,0,1021.4,0,1007.1,60,0,46.2,60,0
86282,2013-08-30 12:00:00,12140,60,0,0.0,0.0,0.0,60,0,0.0,0.0,0.0,60,0,0.0,0.0,0.0,60,0,0.0,0.0,337.4,60,0,342.9,323.3,0,0,0,28.1,60,0,10.2,60,0,10.4,10.1,7.4,60,0,7.6,7.1,3.9,60,0,4.6,3.0,64.6,60,0,69.0,60.0,28.1,60,0,39.0,18.0,239,0.0,1021.4,60,0,1021.4,0,1007.1,60,0,46.2,60,0
86282,2013-08-31 00:00:00,12150,60,0,0.0,0.0,0.0,60,0,0.0,0.0,0.0,60,0,0.0,0.0,0.0,60,0,0.0,0.0,337.4,60,0,342.9,323.3,0,0,0,28.1,60,0,10.2,60,0,10.4,10.1,7.4,60,0,7.6,7.1,3.9,60,0,4.6,3.0,64.6,60,0,69.0,60.0,28.1,60,0,39.0,18.0,239,0.0,1021.4,60,0,1021.4,0,1007.1,60,0,46.2,60,0
86282,2013-08-31 12:00:00,12160,60,0,0.0,0.0,0.0,60,0,0.0,0.0,0.0,60,0,0.0,0.0,0.0,60,0,0.0,0.0,337.4,60,0,342.9,323.3,0,0,0,28.1,60,0,10.2,60,0,10.4,10.1,7.4,60,0,7.6,7.1,3.9,60,0,4.6,3.0,64.6,60,0,69.0,60.0,28.1,60,0,39.0,18.0,239,0.0,1021.4,60,0,1021.4,0,1007.1,60,0,46.2,60,0
86282,2013-09-01 00:00:00,12170,60,0,0.0,0.0,0.0,60,0,0.0,0.0,0.0,60,0,0.0,0.0,0.0,60,0,0.0,0.0,337.4,60,0,342.9,323.3,0,0,0,28.1,60,0,10.2,60,0,10.4,10.1,7.4,60,0,7.6,7.1,3.9,60,0,4.6,3.0,64.6,60,0,69.0,60.0,28.1,60,0,39.0,18.0,239,0.0,1021.4,60,0,1021.4,0,1007.1,60,0,46.2,60,0
86282,2013-09-01 12:00:00,12180,60,0,0.0,0.0,0.0,60,0,0.0,0.0,0.0,60,0,0.0,0.0,0.0,60,0,0.0,0.0,337.4,60,0,342.9,323.3,0,0,0,28.1,60,0,10.2,60,0,10.4,10.1,7.4,60,0,7.6,7.1,3.9,60,0,4.6,3.0,64.6,60,0,69.0,60.0,28.1,60,0,39.0,18.0,239,0.0,1021.4,60,0,1021.4,0,1007.1,60,0,46.2,60,0
86282,2013-09-02 00:00:00,12190,60,0,0.0,0.0,0.0,60,0,0.0,0.0,0.0,60,0,0.0,0.0,0.0,60,0,0.0,0.0,337.4,60,0,342.9,323.3,0,0,0,28.1,60,0,10.2,60,0,10.4,10.1,7.4,60,0,7.6,7.1,3.9,60,0,4.6,3.0,64.6,60,0,69.0,60.0,28.1,60,0,39.0,18.0,239,0.0,1021.4,60,0,1021.4,0,1007.1,60,0,46.2,60,0
86282,2013-09-02 12:00:00,12200,60,0,0.0,0.0,0.0,60,0,0.0,0.0,0.0,60,0,0.0,0.0,0.0,60,0,0.0,0.0,337.4,60,0,342.9,323.3,0,0,0,28.1,60,0,10.2,60,0,10.4,10.1,7.4,60,0,7.6,7.1,3.9,60,0,4.6,3.0,64.6,60,0,69.0,60.0,28.1,60,0,39.0,18.0,239,0.0,1021.4,60,0,1021.4,0,1007.1,60,0,46.2,60,0
86282,2013-09-03 00:00:00,12210,60,0,0.0,0.0,0.0,60,0,0.0,0.0,0.0,60,0,0.0,0.0,0.0,60,0,0.0,0.0,337.4,60,0,342.9,323.3,0,0,0,28.1,60,0,10.2,60,0,10.4,10.1,7.4,60,0,7.6,7.1,3.9,60,0,4.6,3.0,64.6,60,0,69.0,60.0,28.1,60,0,39.0,18.0,239,0.0,1021.4,60,0,1021.4,0,1007.1,60,0,46.2,60,0
86282,2013-09-03 12:00:00,12220,60,0,0.0,0.0,0.0,60,0,0.0,0.0,0.0,60,0,0.0,0.0,0.0,60,0,0.0,0.0,337.4,60,0,342.9,323.3,0,0,0,28.1,60,0,10.2,60,0,10.4,10.1,7.4,60,0,7.6,7.1,3.9,60,0,4.6,3.0,64.6,60,0,69.0,60.0,28.1,60,0,39.0,18.0,239,0.0,1021.4,60,0,1021.4,0,1007.1,60,0,46.2,60,0
86282,2013-09-04 00:00:00,12230,60,0,0.0,0.0,0.0,60,0,0.0,0.0,0.0,60,0,0.0,0.0,0.0,60,0,0.0,0.0,337.4,60,0,342.9,323.3,0,0,0,28.1,60,0,10.2,60,0,10.4,10.1,7.4,60,0,7.6,7.1,3.9,60,0,4.6,3.0,64.6,60,0,69.0,60.0,28.1,60,0,39.0,18.0,239,0.0,1021.4,60,0,1021.4,0,1007.1,60,0,46.2,60,0
86282,2013-09-04 12:00:00,12240,60,0,0.0,0.0,0.0,60,0,0.0,0.0,0.0,60,0,0.0,0.0,0.0,60,0,0.0,0.0,337.4,60,0,342.9,323.3,0,0,0,28.1,60,0,10.2,60,0,10.4,10.1,7.4,60,0,7.6,7.1,3.9,60,0,4.6,3.0,64.6,60,0,69.0,60.0,28.1,60,0,39.0,18.0,239,0.0,1021.4,60,0,1021.4,0,1007.1,60,0,46.2,60,0
86282,2013-09-05 00:00:00,12250,60,0,0.0,0.0,0.0,60,0,0.0,0.0,0.0,60,0,0.0,0.0,0.0,60,0,0.0,0.0,337.4,60,0,342.9,323.3,0,0,0,28.1,60,0,10.2,60,0,10.4,10.1,7.4,60,0,7.6,7.1,3.9,60,0,4.6,3.0,64.6,60,0,69.0,60.0,28.1,60,0,39.0,18.0,239,0.0,1021.4,60,0,1021.4,0,1007.1,60,0,46.2,60,0
86282,2013-09-05 12:00:00,12260,60,0,0.0,0.0,0.0,60,0,0.0,0.0,0.0,60,0,0.0,0.0,0.0,60,0,0.0,0.0,337.4,60,0,342.9,323.3,0,0,0,28.1,60,0,10.2,60,0,10.4,10.1,7.4,60,0,7.6,7.1,3.9,60,0,4.6,3.0,64.6,60,0,69.0,60.0,28.1,60,0,39.0,18.0,239,0.0,1021.4,60,0,1021.4,0,1007.1,60,0,46.2,60,0
86282,2013-09-06 00:00:00,12270,60,0,0.0,0.0,0.0,60,0,0.0,0.0,0.0,60,0,0.0,0.0,0.0,60,0,0.0,0.0,337.4,60,0,342.9,323.3,0,0,0,28.1,60,0,10.2,60,0,10.4,10.1,7.4,60,0,7.6,7.1,3.9,60,0,4.6,3.0,64.6,60,0,69.0,60.0,28.1,60,0,39.0,18.0,239,0.0,1021.4,60,0,1021.4,0,1007.1,60,0,46.2,60,0
86282,2013-09-06 12:00:00,12280,60,0,0.0,0.0,0.0,60,0,0.0,0.0,0.0,60,0,0.0,0.0,0.0,60,0,0.0,0.0,337.4,60,0,342.9,323.3,0,0,0,28.1,60,0,10.2,60,0,10.4,10.1,7.4,60,0,7.6,7.1,3.9,60,0,4.6,3.0,64.6,60,0,69.0,60.0,28.1,60,0,39.0,18.0,239,0.0,1021.4,60,0,1021.4,0,1007.1,60,0,46.2,60,0
86282,2013-09-07 00:00:00,12290,60,0,0.0,0.0,0.0,60,0,0.0,0.0,0.0,60,0,0.0,0.0,0.0,60,0,0.0,0.0,337.4,60,0,342.9,323.3,0,0,0,28.1,60,0,10.2,60,0,10.4,10.1,7.4,60,0,7.6,7.1,3.9,60,0,4.6,3.0,64.6,60,0,69.0,60.0,28.1,60,0,39.0,18.0,239,0.0,1021.4,60,0,1021.4,0,1007.1,60,0,46.2,60,0
86282,2013-09-07 12:00:00,12300,60,0,0.0,0.0,0.0,60,0,0.0,0.0,0.0,60,0,0.0,0.0,0.0,60,0,0.0,0.0,337.4,60,0,342.9,323.3,0,0,0,28.1,60,0,10.2,60,0,10.4,10.1,7.4,60,0,7.6,7.1,3.9,60,0,4.6,3.0,64.6,60,0,69.0,60.0,28.1,60,0,39.0,18.0,239,0.0,1021.4,60,0,1021.4,0,1007.1,60,0,46.2,60,0
86282,2013-09-08 00:00:00,12310,60,0,0.0,0.0,0.0,60,0,0.0,0.0,0.0,60,0,0.0,0.0,0.0,60,0,0.0,0.0,337.4,60,0,342.9,323.3,0,0,0,28.1,60,0,10.2,60,0,10.4,10.1,7.4,60,0,7.6,7.1,3.9,60,0,4.6,3.0,64.6,60,0,69.0,60.0,28.1,60,0,39.0,18.0,239,0.0,1021.4,60,0,1021.4,0,1007.1,60,0,46.2,60,0
86282,2013-09-08 12:00:00,12320,60,0,0.0,0.0,0.0,60,0,0.0,0.0,0.0,60,0,0.0,0.0,0.0,60,0,0.0,0.0,337.4,60,0,342.9,323.3,0,0,0,28.1,60,0,10.2,60,0,10.4,10.1,7.4,60,0,7.6,7.1,3.9,60,0,4.6,3.0,64.6,60,0,69.0,60.0,28.1,60,0,39.0,18.0,239,0.0,1021.4,60,0,1021.4,0,1007.1,60,0,46.2,60,0
86282,2013-09-09 00:00:00,12330,60,0,0.0,0.0,0.0,60,0,0.0,0.0,0.0,60,0,0.0,0.0,0.0,60,0,0.0,0.0,337.4,60,0,342.9,323.3,0,0,0,28.1,60,0,10.2,60,0,10.4,10.1,7.4,60,0,7.6,7.1,3.9,60,0,4.6,3.0,64.6,60,0,69.0,60.0,28.1,60,0,39.0,18.0,239,0.0,1021.4,60,0,1021.4,0,1007.1,60,0,46.2,60,0
86282,2013-09-09 12:00:00,12340,60,0,0.0,0.0,0.0,60,0,0.0,0.0,0.0,60,0,0.0,0.0,0.0,60,0,0.0,0.0,337.4,60,0,342.9,323.3,0,0,0,28.1,60,0,10.2,60,0,10.4,10.1,7.4,60,0,7.6,7.1,3.9,60,0,4.6,3.0,64.6,60,0,69.0,60.0,28.1,60,0,39.0,18.0,239,0.0,1021.4,60,0,1021.4,0,1007.1,60,0,46.2,60,0
86282,2013-09-10 00:00:00,12350,60,0,0.0,0.0,0.0,60,0,0.0,0.0,0.0,60,0,0.0,0.0,0.0,60,0,0.0,0.0,337.4,60,0,342.9,323.3,0,0,0,28.1,60,0,10.2,60,0,10.4,10.1,7.4,60,0,7.6,7.1,3.9,60,0,4.6,3.0,64.6,60,0,69.0,60.0,28.1,60,0,39.0,18.0,239,0.0,1021.4,60,0,1021.4,0,1007.1,60,0,46.2,60,0
86282,2013-09-10 12:00:00,12360,60,0,0.0,0.0,0.0,60,0,0.0,0.0,0.0,60,0,0.0,0.0,0.0,60,0,0.0,0.0,337.4,60,0,342.9,323.3,0,0,0,28.1,60,0,10.2,60,0,10.4,10.1,7.4,60,0,7.6,7.1,3.9,60,0,4.6,3.0,64.6,60,0,69.0,60.0,28.1,60,0,39.0,18.0,239,0.0,1021.4,60,0,1021.4,0,1007.1,60,0,46.2,60,0
86282,2013-09-11 00:00:00,12370,60,0,0.0,0.0,0.0,60,0,0.0,0.0,0.0,60,0,0.0,0.0,0.0,60,0,0.0,0.0,337.4,60,0,342.9,323.3,0,0,0,28.1,60,0,10.2,60,0,10.4,10.1,7.4,60,0,7.6,7.1,3.9,60,0,4.6,3.0,64.6,60,0,69.0,60.0,28.1,60,0,39.0,18.0,239,0.0,1021.4,60,0,1021.4,0,1007.1,60,0,46.2,60,0
86282,2013-09-11 12:00:00,12380,60,0,0.0,0.0,0.0,60,0,0.0,0.0,0.0,60,0,0.0,0.0,0.0,60,0,0.0,0.0,337.4,60,0,342.9,323.3,0,0,0,28.1,60,0,10.2,60,0,10.4,10.1,7.4,60,0,7.6,7.1,3.9,60,0,4.6,3.0,64.6,60,0,69.0,60.0,28.1,60,0,39.0,18.0,239,0.0,1021.4,60,0,1021.4,0,1007.1,60,0,46.2,60,0
86282,2013-09-12 00:00:00,12390,60,0,0.0,0.0,0.0,60,0,0.0,0.0,0.0,60,0,0.0,0.0,0.0,60,0,0.0,0.0,337.4,60,0,342.9,323.3,0,0,0,28.1,60,0,10.2,60,0,10.4,10.1,7.4,60,0,7.6,7.1,3.9,60,0,4.6,3.0,64.6,60,0,69.0,60.0,28.1,60,0,39.0,18.0,239,0.0,1021.4,60,0,1021.4,0,1007.1,60,0,46.2,60,0
86282,2013-09-12 12:00:00,12400,60,0,0.0,0.0,0.0,60,0,0.0,0.0,0.0,60,0,0.0,0.0,0.0,60,0,0.0,0.0,337.4,60,0,342.9,323.3,0,0,0,28.1,60,0,10.2,60,0,10.4,10.1,7.4,60,0,7.6,7.1,3.9,60,0,4.6,3.0,64.6,60,0,69.0,60.0,28.1,60,0,39.0,18.0,239,0.0,1021.4,60,0,1021.4,0,1007.1,60,0,46.2,60,0
86282,2013-09-13 00:00:00,12410,60,0,0.0,0.0,0.0,60,0,0.0,0.0,0.0,60,0,0.0,0.0,0.0,60,0,0.0,0.0,337.4,60,0,342.9,323.3,0,0,0,28.1,60,0,10.2,60,0,10.4,10.1,7.4,60,0,7.6,7.1,3.9,60,0,4.6,3.0,64.6,60,0,69.0,60.0,28.1,60,0,39.0,18.0,239,0.0,1021.4,60,0,1021.4,0,1007.1,60,0,46.2,60,0
86282,2013-09-13 12:00:00,12420,60,0,0.0,0.0,0.0,60,0,0.0,0.0,0.0,60,0,0.0,0.0,0.0,60,0,0.0,0.0,337.4,60,0,342.9,323.3,0,0,0,28.1,60,0,10.2,60,0,10.4,10.1,7.4,60,0,7.6,7.1,3.9,60,0,4.6,3.0,64.6,60,0,69.0,60.0,28.1,60,0,39.0,18.0,239,0.0,1021.4,60,0,1021.4,0,1007.1,60,0,46.2,60,0
86282,2013-09-14 00:00:00,12430,60,0,0.0,0.0,0.0,60,0,0.0,0.0,0.0,60,0,0.0,0.0,0.0,60,0,0.0,0.0,337.4,60,0,342.9,323.3,0,0,0,28.1,60,0,10.2,60,0,10.4,10.1,7.4,60,0,7.6,7.1,3.9,60,0,4.6,3.0,64.6,60,0,69.0,60.0,28.1,60,0,39.0,18.0,239,0.0,1021.4,60,0,1021.4,0,1007.1,60,0,46.2,60,0
86282,2013-09-14 12:00:00,12440,60,0,0.0,0.0,0.0,60,0,0.0,0.0,0.0,60,0,0.0,0.0,0.0,60,0,0.0,0.0,337.4,60,0,342.9,323.3,0,0,0,28.1,60,0,10.2,60,0,10.4,10.1,7.4,60,0,7.6,7.1,3.9,60,0,4.6,3.0,64.6,60,0,69.0,60.0,28.1,60,0,39.0,18.0,239,0.0,1021.4,60,0,1021.4,0,1007.1,60,0,46.2,60,0
86282,2013-09-15 00:00:00,12450,60,0,0.0,0.0,0.0,60,0,0.0,0.0,0.0,60,0,0.0,0.0,0.0,60,0,0.0,0.0,337.4,60,0,342.9,323.3,0,0,0,28.1,60,0,10.2,60,0,10.4,10.1,7.4,60,0,7.6,7.1,3.9,60,0,4.6,3.0,64.6,60,0,69.0,60.0,28.1,60,0,39.0,18.0,239,0.0,1021.4,60,0,1021.4,0,1007.1,60,0,46.2,60,0
86282,2013-09-15 12:00:00,12460,60,0,0.0,0.0,0.0,60,0,0.0,0.0,0.0,60,0,0.0,0.0,0.0,60,0,0.0,0.0,337.4,60,0,342.9,323.3,0,0,0,28.1,60,0,10.2,60,0,10.4,10.1,7.4,60,0,7.6,7.1,3.9,60,0,4.6,3.0,64.6,60,0,69.0,60.0,28.1,60,0,39.0,18.0,239,0.0,1021.4,60,0,1021.4,0,1007.1,60,0,46.2,60,0
86282,2013-09-16 00:00:00,12470,60,0,0.0,0.0,0.0,60,0,0.0,0.0,0.0,60,0,0.0,0.0,0.0,60,0,0.0,0.0,337.4,60,0,342.9,323.3,0,0,0,28.1,60,0,10.2,60,0,10.4,10.1,7.4,60,0,7.6,7.1,3.9,60,0,4.6,3.0,64.6,60,0,69.0,60.0,28.1,60,0,39.0,18.0,239,0.0,1021.4,60,0,1021.4,0,1007.1,60,0,46.2,60,0
86282,2013-09-16 12:00:00,12480,60,0,0.0,0.0,0.0,60,0,0.0,0.0,0.0,60,0,0.0,0.0,0.0,60,0,0.0,0.0,337.4,60,0,342.9,323.3,0,0,0,28.1,60,0,10.2,60,0,10.4,10.1,7.4,60,0,7.6,7.1,3.9,60,0,4.6,3.0,64.6,60,0,69.0,60.0,28.1,60,0,39.0,18.0,239,0.0,1021.4,60,0,1021.4,0,1007.1,60,0,46.2,60,0
86282,2013-09-17 00:00:00,12490,60,0,0.0,0.0,0.0,60,0,0.0,0.0,0.0,60,0,0.0,0.0,0.0,60,0,0.0,0.0,337.4,60,0,342.9,323.3,0,0,0,28.1,60,0,10.2,60,0,10.4,10.1,7.4,60,0,7.6,7.1,3.9,60,0,4.6,3.0,64.6,60,0,69.0,60.0,28.1,60,0,39.0,18.0,239,0.0,1021.4,60,0,1021.4,0,1007.1,60,0,46.2,60,0
86282,2013-09-17 12:00:00,12500,60,0,0.0,0.0,0.0,60,0,0.0,0.0,0.0,60,0,0.0,0.0,0.0,60,0,0.0,0.0,337.4,60,0,342.9,323.3,0,0,0,28.1,60,0,10.2,60,0,10.4,10.1,7.4,60,0,7.6,7.1,3.9,60,0,4.6,3.0,64.6,60,0,69.0,60.0,28.1,60,0,39.0,18.0,239,0.0,1021.4,60,0,1021.4,0,1007.1,60,0,46.2,60,0
86282,2013-09-18 00:00:00,12510,60,0,0.0,0.0,0.0,60,0,0.0,0.0,0.0,60,0,0.0,0.0,0.0,60,0,0.0,0.0,337.4,60,0,342.9,323.3,0,0,0,28.1,60,0,10.2,60,0,10.4,10.1,7.4,60,0,7.6,7.1,3.9,60,0,4.6,3.0,64.6,60,0,69.0,60.0,28.1,60,0,39.0,18.0,239,0.0,1021.4,60,0,1021.4,0,1007.1,60,0,46.2,60,0
86282,2013-09-18 12:00:00,12520,60,0,0.0,0.0,0.0,60,0,0.0,0.0,0.0,60,0,0.0,0.0,0.0,60,0,0.0,0.0,337.4,60,0,342.9,323.3,0,0,0,28.1,60,0,10.2,60,0,10.4,10.1,7.4,60,0,7.6,7.1,3.9,60,0,4.6,3.0,64.6,60,0,69.0,60.0,28.1,60,0,39.0,18.0,239,0.0,1021.4,60,0,1021.4,0,1007.1,60,0,46.2,60,0
86282,2013-09-19 00:00:00,12530,60,0,0.0,0.0,0.0,60,0,0.0,0.0,0.0,60,0,0.0,0.0,0.0,60,0,0.0,0.0,337.4,60,0,342.9,323.3,0,0,0,28.1,60,0,10.2,60,0,10.4,10.1,7.4,60,0,7.6,7.1,3.9,60,0,4.6,3.0,64.6,60,0,69.0,60.0,28.1,60,0,39.0,18.0,239,0.0,1021.4,60,0,1021.4,0,1007.1,60,0,46.2,60,0
86282,2013-09-19 12:00:00,12540,60,0,0.0,0.0,0.0,60,0,0.0,0.0,0.0,60,0,0.0,0.0,0.0,60,0,0.0,0.0,337.4,60,0,342.9,323.3,0,0,0,28.1,60,0,10.2,60,0,10.4,10.1,7.4,60,0,7.6,7.1,3.9,60,0,4.6,3.0,64.6,60,0,69.0,60.0,28.1,60,0,39.0,18.0,239,0.0,1021.4,60,0,1021.4,0,1007.1,60,0,46.2,60,0
86282,2013-09-20 00:00:00,12550,60,0,0.0,0.0,0.0,60,0,0.0,0.0,0.0,60,0,0.0,0.0,0.0,60,0,0.0,0.0,337.4,60,0,342.9,323.3,0,0,0,28.1,60,0,10.2,60,0,10.4,10.1,7.4,60,0,7.6,7.1,3.9,60,0,4.6,3.0,64.6,60,0,69.0,60.0,28.1,60,0,39.0,18.0,239,0.0,1021.4,60,0,1021.4,0,1007.1,60,0,46.2,60,0
86282,2013-09-20 12:00:00,12560,60,0,0.0,0.0,0.0,60,0,0.0,0.0,0.0,60,0,0.0,0.0,0.0,60,0,0.0,0.0,337.4,60,0,342.9,323.3,0,0,0,28.1,60,0,10.2,60,0,10.4,10.1,7.4,60,0,7.6,7.1,3.9,60,0,4.6,3.0,64.6,60,0,69.0,60.0,28.1,60,0,39.0,18.0,239,0.0,1021.4,60,0,1021.4,0,1007.1,60,0,46.2,60,0
86282,2013-09-21 00:00:00,12570,60,0,0.0,0.0,0.0,60,0,0.0,0.0,0.0,60,0,0.0,0.0,0.0,60,0,0.0,0.0,337.4,60,0,342.9,323.3,0,0,0,28.1,60,0,10.2,60,0,10.4,10.1,7.4,60,0,7.6,7.1,3.9,60,0,4.6,3.0,64.6,60,0,69.0,60.0,28.1,60,0,39.0,18.0,239,0.0,1021.4,60,0,1021.4,0,1007.1,60,0,46.2,60,0
86282,2013-09-21 12:00:00,12580,60,0,0.0,0.0,0.0,60,0,0.0,0.0,0.0,60,0,0.0,0.0,0.0,60,0,0.0,0.0,337.4,60,0,342.9,323.3,0,0,0,28.1,60,0,10.2,60,0,10.4,10.1,7.4,60,0,7.6,7.1,3.9,60,0,4.6,3.0,64.6,60,0,69.0,60.0,28.1,60,0,39.0,18.0,239,0.0,1021.4,60,0,1021.4,0,1007.1,60,0,46.2,60,0
86282,2013-09-22 00:00:00,12590,60,0,0.0,0.0,0.0,60,0,0.0,0.0,0.0,60,0,0.0,0.0,0.0,60,0,0.0,0.0,337.4,60,0,342.9,323.3,0,0,0,28.1,60,0,10.2,60,0,10.4,10.1,7.4,60,0,7.6,7.1,3.9,60,0,4.6,3.0,64.6,60,0,69.0,60.0,28.1,60,0,39.0,18.0,239,0.0,1021.4,60,0,1021.4,0,1007.1,60,0,46.2,60,0
86282,2013-09-22 12:00:00,12600,60,0,0.0,0.0,0.0,60,0,0.0,0.0,0.0,60,0,0.0,0.0,0.0,60,0,0.0,0.0,337.4,60,0,342.9,323.3,0,0,0,28.1,60,0,10.2,60,0,10.4,10.1,7.4,60,0,7.6,7.1,3.9,60,0,4.6,3.0,64.6,60,0,69.0,60.0,28.1,60,0,39.0,18.0,239,0.0,1021.4,60,0,1021.4,0,1007.1,60,0,46.2,60,0
86282,2013-09-23 00:00:00,12610,60,0,0.0,0.0,0.0,60,0,0.0,0.0,0.0,60,0,0.0,0.0,0.0,60,0,0.0,0.0,337.4,60,0,342.9,323.3,0,0,0,28.1,60,0,10.2,60,0,10.4,10.1,7.4,60,0,7.6,7.1,3.9,60,0,4.6,3.0,64.6,60,0,69.0,60.0,28.1,60,0,39.0,18.0,239,0.0,1021.4,60,0,1021.4,0,1007.1,60,0,46.2,60,0
86282,2013-09-23 12:00:00,12620,60,0,0.0,0.0,0.0,60,0,0.0,0.0,0.0,60,0,0.0,0.0,0.0,60,0,0.0,0.0,337.4,60,0,342.9,323.3,0,0,0,28.1,60,0,10.2,60,0,10.4,10.1,7.4,60,0,7.6,7.1,3.9,60,0,4.6,3.0,64.6,60,0,69.0,60.0,28.1,60,0,39.0,18.0,239,0.0,1021.4,60,0,1021.4,0,1007.1,60,0,46.2,60,0
86282,2013-09-24 00:00:00,12630,60,0,0.0,0.0,0.0,60,0,0.0,0.0,0.0,60,0,0.0,0.0,0.0,60,0,0.0,0.0,337.4,60,0,342.9,323.3,0,0,0,28.1,60,0,10.2,60,0,10.4,10.1,7.4,60,0,7.6,7.1,3.9,60,0,4.6,3.0,64.6,60,0,69.0,60.0,28.1,60,0,39.0,18.0,239,0.0,1021.4,60,0,1021.4,0,1007.1,60,0,46.2,60,0
86282,2013-09-24 12:00:00,12640,60,0,0.0,0.0,0.0,60,0,0.0,0.0,0.0,60,0,0.0,0.0,0.0,60,0,0.0,0.0,337.4,60,0,342.9,323.3,0,0,0,28.1,60,0,10.2,60,0,10.4,10.1,7.4,60,0,7.6,7.1,3.9,60,0,4.6,3.0,64.6,60,0,69.0,60.0,28.1,60,0,39.0,18.0,239,0.0,1021.4,60,0,1021.4,0,1007.1,60,0,46.2,60,0
86282,2013-09-25 00:00:00,12650,60,0,0.0,0.0,0.0,60,0,0.0,0.0,0.0,60,0,0.0,0.0,0.0,60,0,0.0,0.0,337.4,60,0,342.9,323.3,0,0,0,28.1,60,0,10.2,60,0,10.4,10.1,7.4,60,0,7.6,7.1,3.9,60,0,4.6,3.0,64.6,60,0,69.0,60.0,28.1,60,0,39.0,18.0,239,0.0,1021.4,60,0,1021.4,0,1007.1,60,0,46.2,60,0
86282,2013-09-25 12:00:00,12660,60,0,0.0,0.0,0.0,60,0,0.0,0.0,0.0,60,0,0.0,0.0,0.0,60,0,0.0,0.0,337.4,60,0,342.9,323.3,0,0,0,28.1,60,0,10.2,60,0,10.4,10.1,7.4,60,0,7.6,7.1,3.9,60,0,4.6,3.0,64.6,60,0,69.0,60.0,28.1,60,0,39.0,18.0,239,0.0,1021.4,60,0,1021.4,0,1007.1,60,0,46.2,60,0
86282,2013-09-26 00:00:00,12670,60,0,0.0,0.0,0.0,60,0,0.0,0.0,0.0,60,0,0.0,0.0,0.0,60,0,0.0,0.0,337.4,60,0,342.9,323.3,0,0,0,28.1,60,0,10.2,60,0,10.4,10.1,7.4,60,0,7.6,7.1,3.9,60,0,4.6,3.0,64.6,60,0,69.0,60.0,28.1,60,0,39.0,18.0,239,0.0,1021.4,60,0,1021.4,0,1007.1,60,0,46.2,60,0
86282,2013-09-26 12:00:00,12680,60,0,0.0,0.0,0.0,60,0,0.0,0.0,0.0,60,0,0.0,0.0,0.0,60,0,0.0,0.0,337.4,60,0,342.9,323.3,0,0,0,28.1,60,0,10.2,60,0,10.4,10.1,7.4,60,0,7.6,7.1,3.9,60,0,4.6,3.0,64.6,60,0,69.0,60.0,28.1,60,0,39.0,18.0,239,0.0,1021.4,60,0,1021.4,0,1007.1,60,0,46.2,60,0
86282,2013-09-27 00:00:00,12690,60,0,0.0,0.0,0.0,60,0,0.0,0.0,0.0,60,0,0.0,0.0,0.0,60,0,0.0,0.0,337.4,60,0,342.9,323.3,0,0,0,28.1,60,0,10.2,60,0,10.4,10.1,7.4,60,0,7.6,7.1,3.9,60,0,4.6,3.0,64.6,60,0,69.0,60.0,28.1,60,0,39.0,18.0,239,0.0,1021.4,60,0,1021.4,0,1007.1,60,0,46.2,60,0
86282,2013-09-27 12:00:00,12700,60,0,0.0,0.0,0.0,60,0,0.0,0.0,0.0,60,0,0.0,0.0,0.0,60,0,0.0,0.0,337.4,60,0,342.9,323.3,0,0,0,28.1,60,0,10.2,60,0,10.4,10.1,7.4,60,0,7.6,7.1,3.9,60,0,4.6,3.0,64.6,60,0,69.0,60.0,28.1,60,0,39.0,18.0,239,0.0,1021.4,60,0,1021.4,0,1007.1,60,0,46.2,60,0
86282,2013-09-28 00:00:00,12710,60,0,0.0,0.0,0.0,60,0,0.0,0.0,0.0,60,0,0.0,0.0,0.0,60,0,0.0,0.0,337.4,60,0,342.9,323.3,0,0,0,28.1,60,0,10.2,60,0,10.4,10.1,7.4,60,0,7.6,7.1,3.9,60,0,4.6,3.0,64.6,60,0,69.0,60.0,28.1,60,0,39.0,18.0,239,0.0,1021.4,60,0,1021.4,0,1007.1,60,0,46.2,60,0
86282,2013-09-28 12:00:00,12720,60,0,0.0,0.0,0.0,60,0,0.0,0.0,0.0,60,0,0.0,0.0,0.0,60,0,0.0,0.0,337.4,60,0,342.9,323.3,0,0,0,28.1,60,0,10.2,60,0,10.4,10.1,7.4,60,0,7.6,7.1,3.9,60,0,4.6,3.0,64.6,60,0,69.0,60.0,28.1,60,0,39.0,18.0,239,0.0,1021.4,60,0,1021.4,0,1007.1,60,0,46.2,60,0
86282,2013-09-29 00:00:00,12730,60,0,0.0,0.0,0.0,60,0,0.0,0.0,0.0,60,0,0.0,0.0,0.0,60,0,0.0,0.0,337.4,60,0,342.9,323.3,0,0,0,28.1,60,0,10.2,60,0,10.4,10.1,7.4,60,0,7.6,7.1,3.9,60,0,4.6,3.0,64.6,60,0,69.0,60.0,28.1,60,0,39.0,18.0,239,0.0,1021.4,60,0,1021.4,0,1007.1,60,0,46.2,60,0
86282,2013-09-29 12:00:00,12740,60,0,0.0,0.0,0.0,60,0,0.0,0.0,0.0,60,0,0.0,0.0,0.0,60,0,0.0,0.0,337.4,60,0,342.9,323.3,0,0,0,28.1,60,0,10.2,60,0,10.4,10.1,7.4,60,0,7.6,7.1,3.9,60,0,4.6,3.0,64.6,60,0,69.0,60.0,28.1,60,0,39.0,18.0,239,0.0,1021.4,60,0,1021.4,0,1007.1,60,0,46.2,60,0
86282,2013-09-30 00:00:00,12750,60,0,0.0,0.0,0.0,60,0,0.0,0.0,0.0,60,0,0.0,0.0,0.0,60,0,0.0,0.0,337.4,60,0,342.9,323.3,0,0,0,28.1,60,0,10.2,60,0,10.4,10.1,7.4,60,0,7.6,7.1,3.9,60,0,4.6,3.0,64.6,60,0,69.0,60.0,28.1,60,0,39.0,18.0,239,0.0,1021.4,60,0,1021.4,0,1007.1,60,0,46.2,60,0
86282,2013-09-30 12:00:00,12760,60,0,0.0,0.0,0.0,60,0,0.0,0.0,0.0,60,0,0.0,0.0,0.0,60,0,0.0,0.0,337.4,60,0,342.9,323.3,0,0,0,28.1,60,0,10.2,60,0,10.4,10.1,7.4,60,0,7.6,7.1,3.9,60,0,4.6,3.0,64.6,60,0,69.0,60.0,28.1,60,0,39.0,18.0,239,0.0,1021.4,60,0,1021.4,0,1007.1,60,0,46.2,60,0
86282,2013-10-01 00:00:00,12770,60,0,0.0,0.0,0.0,60,0,0.0,0.0,0.0,60,0,0.0,0.0,0.0,60,0,0.0,0.0,337.4,60,0,342.9,323.3,0,0,0,28.1,60,0,10.2,60,0,10.4,10.1,7.4,60,0,7.6,7.1,3.9,60,0,4.6,3.0,64.6,60,0,69.0,60.0,28.1,60,0,39.0,18.0,239,0.0,1021.4,60,0,1021.4,0,1007.1,60,0,46.2,60,0
86282,2013-10-01 12:00:00,12780,60,0,0.0,0.0,0.0,60,0,0.0,0.0,0.0,60,0,0.0,0.0,0.0,60,0,0.0,0.0,337.4,60,0,342.9,323.3,0,0,0,28.1,60,0,10.2,60,0,10.4,10.1,7.4,60,0,7.6,7.1,3.9,60,0,4.6,3.0,64.6,60,0,69.0,60.0,28.1,60,0,39.0,18.0,239,0.0,1021.4,60,0,1021.4,0,1007.1,60,0,46.2,60,0
86282,2013-10-02 00:00:00,12790,60,0,0.0,0.0,0.0,60,0,0.0,0.0,0.0,60,0,0.0,0.0,0.0,60,0,0.0,0.0,337.4,60,0,342.9,323.3,0,0,0,28.1,60,0,10.2,60,0,10.4,10.1,7.4,60,0,7.6,7.1,3.9,60,0,4.6,3.0,64.6,60,0,69.0,60.0,28.1,60,0,39.0,18.0,239,0.0,1021.4,60,0,1021.4,0,1007.1,60,0,46.2,60,0
86282,2013-10-02 12:00:00,12800,60,0,0.0,0.0,0.0,60,0,0.0,0.0,0.0,60,0,0.0,0.0,0.0,60,0,0.0,0.0,337.4,60,0,342.9,323.3,0,0,0,28.1,60,0,10.2,60,0,10.4,10.1,7.4,60,0,7.6,7.1,3.9,60,0,4.6,3.0,64.6,60,0,69.0,60.0,28.1,60,0,39.0,18.0,239,0.0,1021.4,60,0,1021.4,0,1007.1,60,0,46.2,60,0
86282,2013-10-03 00:00:00,12810,60,0,0.0,0.0,0.0,60,0,0.0,0.0,0.0,60,0,0.0,0.0,0.0,60,0,0.0,0.0,337.4,60,0,342.9,323.3,0,0,0,28.1,60,0,10.2,60,0,10.4,10.1,7.4,60,0,7.6,7.1,3.9,60,0,4.6,3.0,64.6,60,0,69.0,60.0,28.1,60,0,39.0,18.0,239,0.0,1021.4,60,0,1021.4,0,1007.1,60,0,46.2,60,0
86282,2013-10-03 12:00:00,12820,60,0,0.0,0.0,0.0,60,0,0.0,0.0,0.0,60,0,0.0,0.0,0.0,60,0,0.0,0.0,337.4,60,0,342.9,323.3,0,0,0,28.1,60,0,10.2,60,0,10.4,10.1,7.4,60,0,7.6,7.1,3.9,60,0,4.6,3.0,64.6,60,0,69.0,60.0,28.1,60,0,39.0,18.0,239,0.0,1021.4,60,0,1021.4,0,1007.1,60,0,46.2,60,0
86282,2013-10-04 00:00:00,12830,60,0,0.0,0.0,0.0,60,0,0.0,0.0,0.0,60,0,0.0,0.0,0.0,60,0,0.0,0.0,337.4,60,0,342.9,323.3,0,0,0,28.1,60,0,10.2,60,0,10.4,10.1,7.4,60,0,7.6,7.1,3.9,60,0,4.6,3.0,64.6,60,0,69.0,60.0,28.1,60,0,39.0,18.0,239,0.0,1021.4,60,0,1021.4,0,1007.1,60,0,46.2,60,0
86282,2013-10-04 12:00:00,12840,60,0,0.0,0.0,0.0,60,0,0.0,0.0,0.0,60,0,0.0,0.0,0.0,60,0,0.0,0.0,337.4,60,0,342.9,323.3,0,0,0,28.1,60,0,10.2,60,0,10.4,10.1,7.4,60,0,7.6,7.1,3.9,60,0,4.6,3.0,64.6,60,0,69.0,60.0,28.1,60,0,39.0,18.0,239,0.0,1021.4,60,0,1021.4,0,1007.1,60,0,46.2,60,0
86282,2013-10-05 00:00:00,12850,60,0,0.0,0.0,0.0,60,0,0.0,0.0,0.0,60,0,0.0,0.0,0.0,60,0,0.0,0.0,337.4,60,0,342.9,323.3,0,0,0,28.1,60,0,10.2,60,0,10.4,10.1,7.4,60,0,7.6,7.1,3.9,60,0,4.6,3.0,64.6,60,0,69.0,60.0,28.1,60,0,39.0,18.0,239,0.0,1021.4,60,0,1021.4,0,1007.1,60,0,46.2,60,0
86282,2013-10-05 12:00:00,12860,60,0,0.0,0.0,0.0,60,0,0.0,0.0,0.0,60,0,0.0,0.0,0.0,60,0,0.0,0.0,337.4,60,0,342.9,323.3,0,0,0,28.1,60,0,10.2,60,0,10.4,10.1,7.4,60,0,7.6,7.1,3.9,60,0,4.6,3.0,64.6,60,0,69.0,60.0,28.1,60,0,39.0,18.0,239,0.0,1021.4,60,0,1021.4,0,1007.1,60,0,46.2,60,0
86282,2013-10-06 00:00:00,12870,60,0,0.0,0.0,0.0,60,0,0.0,0.0,0.0,60,0,0.0,0.0,0.0,60,0,0.0,0.0,337.4,60,0,342.9,323.3,0,0,0,28.1,60,0,10.2,60,0,10.4,10.1,7.4,60,0,7.6,7.1,3.9,60,0,4.6,3.0,64.6,60,0,69.0,60.0,28.1,60,0,39.0,18.0,239,0.0,1021.4,60,0,1021.4,0,1007.1,60,0,46.2,60,0
86282,2013-10-06 12:00:00,12880,60,0,0.0,0.0,0.0,60,0,0.0,0.0,0.0,60,0,0.0,0.0,0.0,60,0,0.0,0.0,337.4,60,0,342.9,323.3,0,0,0,28.1,60,0,10.2,60,0,10.4,10.1,7.4,60,0,7.6,7.1,3.9,60,0,4.6,3.0,64.6,60,0,69.0,60.0,28.1,60,0,39.0,18.0,239,0.0,1021.4,60,0,1021.4,0,1007.1,60,0,46.2,60,0
86282,2013-10-07 00:00:00,12890,60,0,0.0,0.0,0.0,60,0,0.0,0.0,0.0,60,0,0.0,0.0,0.0,60,0,0.0,0.0,337.4,60,0,342.9,323.3,0,0,0,28.1,60,0,10.2,60,0,10.4,10.1,7.4,60,0,7.6,7.1,3.9,60,0,4.6,3.0,64.6,60,0,69.0,60.0,28.1,60,0,39.0,18.0,239,0.0,1021.4,60,0,1021.4,0,1007.1,60,0,46.2,60,0
86282,2013-10-07 12:00:00,12900,60,0,0.0,0.0,0.0,60,0,0.0,0.0,0.0,60,0,0.0,0.0,0.0,60,0,0.0,0.0,337.4,60,0,342.9,323.3,0,0,0,28.1,60,0,10.2,60,0,10.4,10.1,7.4,60,0,7.6,7.1,3.9,60,0,4.6,3.0,64.6,60,0,69.0,60.0,28.1,60,0,39.0,18.0,239,0.0,1021.4,60,0,1021.4,0,1007.1,60,0,46.2,60,0
86282,2013-10-08 00:00:00,12910,60,0,0.0,0.0,0.0,60,0,0.0,0.0,0.0,60,0,0.0,0.0,0.0,60,0,0.0,0.0,337.4,60,0,342.9,323.3,0,0,0,28.1,60,0,10.2,60,0,10.4,10.1,7.4,60,0,7.6,7.1,3.9,60,0,4.6,3.0,64.6,60,0,69.0,60.0,28.1,60,0,39.0,18.0,239,0.0,1021.4,60,0,1021.4,0,1007.1,60,0,46.2,60,0
86282,2013-10-08 12:00:00,12920,60,0,0.0,0.0,0.0,60,0,0.0,0.0,0.0,60,0,0.0,0.0,0.0,60,0,0.0,0.0,337.4,60,0,342.9,323.3,0,0,0,28.1,60,0,10.2,60,0,10.4,10.1,7.4,60,0,7.6,7.1,3.9,60,0,4.6,3.0,64.6,60,0,69.0,60.0,28.1,60,0,39.0,18.0,239,0.0,1021.4,60,0,1021.4,0,1007.1,60,0,46.2,60,0
86282,2013-10-09 00:00:00,12930,60,0,0.0,0.0,0.0,60,0,0.0,0.0,0.0,60,0,0.0,0.0,0.0,60,0,0.0,0.0,337.4,60,0,342.9,323.3,0,0,0,28.1,60,0,10.2,60,0,10.4,10.1,7.4,60,0,7.6,7.1,3.9,60,0,4.6,3.0,64.6,60,0,69.0,60.0,28.1,60,0,39.0,18.0,239,0.0,1021.4,60,0,1021.4,0,1007.1,60,0,46.2,60,0
86282,2013-10-09 12:00:00,12940,60,0,0.0,0.0,0.0,60,0,0.0,0.0,0.0,60,0,0.0,0.0,0.0,60,0,0.0,0.0,337.4,60,0,342.9,323.3,0,0,0,28.1,60,0,10.2,60,0,10.4,10.1,7.4,60,0,7.6,7.1,3.9,60,0,4.6,3.0,64.6,60,0,69.0,60.0,28.1,60,0,39.0,18.0,239,0.0,1021.4,60,0,1021.4,0,1007.1,60,0,46.2,60,0
86282,2013-10-10 00:00:00,12950,60,0,0.0,0.0,0.0,60,0,0.0,0.0,0.0,60,0,0.0,0.0,0.0,60,0,0.0,0.0,337.4,60,0,342.9,323.3,0,0,0,28.1,60,0,10.2,60,0,10.4,10.1,7.4,60,0,7.6,7.1,3.9,60,0,4.6,3.0,64.6,60,0,69.0,60.0,28.1,60,0,39.0,18.0,239,0.0,1021.4,60,0,1021.4,0,1007.1,60,0,46.2,60,0
86282,2013-10-10 12:00:00,12960,60,0,0.0,0.0,0.0,60,0,0.0,0.0,0.0,60,0,0.0,0.0,0.0,60,0,0.0,0.0,337.4,60,0,342.9,323.3,0,0,0,28.1,60,0,10.2,60,0,10.4,10.1,7.4,60,0,7.6,7.1,3.9,60,0,4.6,3.0,64.6,60,0,69.0,60.0,28.1,60,0,39.0,18.0,239,0.0,1021.4,60,0,1021.4,0,1007.1,60,0,46.2,60,0
86282,2013-10-11 00:00:00,12970,60,0,0.0,0.0,0.0,60,0,0.0,0.0,0.0,60,0,0.0,0.0,0.0,60,0,0.0,0.0,337.4,60,0,342.9,323.3,0,0,0,28.1,60,0,10.2,60,0,10.4,10.1,7.4,60,0,7.6,7.1,3.9,60,0,4.6,3.0,64.6,60,0,69.0,60.0,28.1,60,0,39.0,18.0,239,0.0,1021.4,60,0,1021.4,0,1007.1,60,0,46.2,60,0
86282,2013-10-11 12:00:00,12980,60,0,0.0,0.0,0.0,60,0,0.0,0.0,0.0,60,0,0.0,0.0,0.0,60,0,0.0,0.0,337.4,60,0,342.9,323.3,0,0,0,28.1,60,0,10.2,60,0,10.4,10.1,7.4,60,0,7.6,7.1,3.9,60,0,4.6,3.0,64.6,60,0,69.0,60.0,28.1,60,0,39.0,18.0,239,0.0,1021.4,60,0,1021.4,0,1007.1,60,0,46.2,60,0
86282,2013-10-12 00:00:00,12990,60,0,0.0,0.0,0.0,60,0,0.0,0.0,0.0,60,0,0.0,0.0,0.0,60,0,0.0,0.0,337.4,60,0,342.9,323.3,0,0,0,28.1,60,0,10.2,60,0,10.4,10.1,7.4,60,0,7.6,7.1,3.9,60,0,4.6,3.0,64.6,60,0,69.0,60.0,28.1,60,0,39.0,18.0,239,0.0,1021.4,60,0,1021.4,0,1007.1,60,0,46.2,60,0
86282,2013-10-12 12:00:00,13000,60,0,0.0,0.0,0.0,60,0,0.0,0.0,0.0,60,0,0.0,0.0,0.0,60,0,0.0,0.0,337.4,60,0,342.9,323.3,0,0,0,28.1,60,0,10.2,60,0,10.4,10.1,7.4,60,0,7.6,7.1,3.9,60,0,4.6,3.0,64.6,60,0,69.0,60.0,28.1,60,0,39.0,18.0,239,0.0,1021.4,60,0,1021.4,0,1007.1,60,0,46.2,60,0
86282,2013-10-13 00:00:00,13010,60,0,0.0,0.0,0.0,60,0,0.0,0.0,0.0,60,0,0.0,0.0,0.0,60,0,0.0,0.0,337.4,60,0,342.9,323.3,0,0,0,28.1,60,0,10.2,60,0,10.4,10.1,7.4,60,0,7.6,7.1,3.9,60,0,4.6,3.0,64.6,60,0,69.0,60.0,28.1,60,0,39.0,18.0,239,0.0,1021.4,60,0,1021.4,0,1007.1,60,0,46.2,60,0
86282,2013-10-13 12:00:00,13020,60,0,0.0,0.0,0.0,60,0,0.0,0.0,0.0,60,0,0.0,0.0,0.0,60,0,0.0,0.0,337.4,60,0,342.9,323.3,0,0,0,28.1,60,0,10.2,60,0,10.4,10.1,7.4,60,0,7.6,7.1,3.9,60,0,4.6,3.0,64.6,60,0,69.0,60.0,28.1,60,0,39.0,18.0,239,0.0,1021.4,60,0,1021.4,0,1007.1,60,0,46.2,60,0
86282,2013-10-14 00:00:00,13030,60,0,0.0,0.0,0.0,60,0,0.0,0.0,0.0,60,0,0.0,0.0,0.0,60,0,0.0,0.0,337.4,60,0,342.9,323.3,0,0,0,28.1,60,0,10.2,60,0,10.4,10.1,7.4,60,0,7.6,7.1,3.9,60,0,4.6,3.0,64.6,60,0,69.0,60.0,28.1,60,0,39.0,18.0,239,0.0,1021.4,60,0,1021.4,0,1007.1,60,0,46.2,60,0
86282,2013-10-14 12:00:00,13040,60,0,0.0,0.0,0.0,60,0,0.0,0.0,0.0,60,0,0.0,0.0,0.0,60,0,0.0,0.0,337.4,60,0,342.9,323.3,0,0,0,28.1,60,0,10.2,60,0,10.4,10.1,7.4,60,0,7.6,7.1,3.9,60,0,4.6,3.0,64.6,60,0,69.0,60.0,28.1,60,0,39.0,18.0,239,0.0,1021.4,60,0,1021.4,0,1007.1,60,0,46.2,60,0
86282,2013-10-15 00:00:00,13050,60,0,0.0,0.0,0.0,60,0,0.0,0.0,0.0,60,0,0.0,0.0,0.0,60,0,0.0,0.0,337.4,60,0,342.9,323.3,0,0,0,28.1,60,0,10.2,60,0,10.4,10.1,7.4,60,0,7.6,7.1,3.9,60,0,4.6,3.0,64.6,60,0,69.0,60.0,28.1,60,0,39.0,18.0,239,0.0,1021.4,60,0,1021.4,0,1007.1,60,0,46.2,60,0
86282,2013-10-15 12:00:00,13060,60,0,0.0,0.0,0.0,60,0,0.0,0.0,0.0,60,0,0.0,0.0,0.0,60,0,0.0,0.0,337.4,60,0,342.9,323.3,0,0,0,28.1,60,0,10.2,60,0,10.4,10.1,7.4,60,0,7.6,7.1,3.9,60,0,4.6,3.0,64.6,60,0,69.0,60.0,28.1,60,0,39.0,18.0,239,0.0,1021.4,60,0,1021.4,0,1007.1,60,0,46.2,60,0
86282,2013-10-16 00:00:00,13070,60,0,0.0,0.0,0.0,60,0,0.0,0.0,0.0,60,0,0.0,0.0,0.0,60,0,0.0,0.0,337.4,60,0,342.9,323.3,0,0,0,28.1,60,0,10.2,60,0,10.4,10.1,7.4,60,0,7.6,7.1,3.9,60,0,4.6,3.0,64.6,60,0,69.0,60.0,28.1,60,0,39.0,18.0,239,0.0,1021.4,60,0,1021.4,0,1007.1,60,0,46.2,60,0
86282,2013-10-16 12:00:00,13080,60,0,0.0,0.0,0.0,60,0,0.0,0.0,0.0,60,0,0.0,0.0,0.0,60,0,0.0,0.0,337.4,60,0,342.9,323.3,0,0,0,28.1,60,0,10.2,60,0,10.4,10.1,7.4,60,0,7.6,7.1,3.9,60,0,4.6,3.0,64.6,60,0,69.0,60.0,28.1,60,0,39.0,18.0,239,0.0,1021.4,60,0,1021.4,0,1007.1,60,0,46.2,60,0
86282,2013-10-17 00:00:00,13090,60,0,0.0,0.0,0.0,60,0,0.0,0.0,0.0,60,0,0.0,0.0,0.0,60,0,0.0,0.0,337.4,60,0,342.9,323.3,0,0,0,28.1,60,0,10.2,60,0,10.4,10.1,7.4,60,0,7.6,7.1,3.9,60,0,4.6,3.0,64.6,60,0,69.0,60.0,28.1,60,0,39.0,18.0,239,0.0,1021.4,60,0,1021.4,0,1007.1,60,0,46.2,60,0
86282,2013-10-17 12:00:00,13100,60,0,0.0,0.0,0.0,60,0,0.0,0.0,0.0,60,0,0.0,0.0,0.0,60,0,0.0,0.0,337.4,60,0,342.9,323.3,0,0,0,28.1,60,0,10.2,60,0,10.4,10.1,7.4,60,0,7.6,7.1,3.9,60,0,4.6,3.0,64.6,60,0,69.0,60.0,28.1,60,0,39.0,18.0,239,0.0,1021.4,60,0,1021.4,0,1007.1,60,0,46.2,60,0
86282,2013-10-18 00:00:00,13110,60,0,0.0,0.0,0.0,60,0,0.0,0.0,0.0,60,0,0.0,0.0,0.0,60,0,0.0,0.0,337.4,60,0,342.9,323.3,0,0,0,28.1,60,0,10.2,60,0,10.4,10.1,7.4,60,0,7.6,7.1,3.9,60,0,4.6,3.0,64.6,60,0,69.0,60.0,28.1,60,0,39.0,18.0,239,0.0,1021.4,60,0,1021.4,0,1007.1,60,0,46.2,60,0
86282,2013-10-18 12:00:00,13120,60,0,0.0,0.0,0.0,60,0,0.0,0.0,0.0,60,0,0.0,0.0,0.0,60,0,0.0,0.0,337.4,60,0,342.9,323.3,0,0,0,28.1,60,0,10.2,60,0,10.4,10.1,7.4,60,0,7.6,7.1,3.9,60,0,4.6,3.0,64.6,60,0,69.0,60.0,28.1,60,0,39.0,18.0,239,0.0,1021.4,60,0,1021.4,0,1007.1,60,0,46.2,60,0
86282,2013-10-19 00:00:00,13130,60,0,0.0,0.0,0.0,60,0,0.0,0.0,0.0,60,0,0.0,0.0,0.0,60,0,0.0,0.0,337.4,60,0,342.9,323.3,0,0,0,28.1,60,0,10.2,60,0,10.4,10.1,7.4,60,0,7.6,7.1,3.9,60,0,4.6,3.0,64.6,60,0,69.0,60.0,28.1,60,0,39.0,18.0,239,0.0,1021.4,60,0,1021.4,0,1007.1,60,0,46.2,60,0
86282,2013-10-19 12:00:00,13140,60,0,0.0,0.0,0.0,60,0,0.0,0.0,0.0,60,0,0.0,0.0,0.0,60,0,0.0,0.0,337.4,60,0,342.9,323.3,0,0,0,28.1,60,0,10.2,60,0,10.4,10.1,7.4,60,0,7.6,7.1,3.9,60,0,4.6,3.0,64.6,60,0,69.0,60.0,28.1,60,0,39.0,18.0,239,0.0,1021.4,60,0,1021.4,0,1007.1,60,0,46.2,60,0
86282,2013-10-20 00:00:00,13150,60,0,0.0,0.0,0.0,60,0,0.0,0.0,0.0,60,0,0.0,0.0,0.0,60,0,0.0,0.0,337.4,60,0,342.9,323.3,0,0,0,28.1,60,0,10.2,60,0,10.4,10.1,7.4,60,0,7.6,7.1,3.9,60,0,4.6,3.0,64.6,60,0,69.0,60.0,28.1,60,0,39.0,18.0,239,0.0,1021.4,60,0,1021.4,0,1007.1,60,0,46.2,60,0
86282,2013-10-20 12:00:00,13160,60,0,0.0,0.0,0.0,60,0,0.0,0.0,0.0,60,0,0.0,0.0,0.0,60,0,0.0,0.0,337.4,60,0,342.9,323.3,0,0,0,28.1,60,0,10.2,60,0,10.4,10.1,7.4,60,0,7.6,7.1,3.9,60,0,4.6,3.0,64.6,60,0,69.0,60.0,28.1,60,0,39.0,18.0,239,0.0,1021.4,60,0,1021.4,0,1007.1,60,0,46.2,60,0
86282,2013-10-21 00:00:00,13170,60,0,0.0,0.0,0.0,60,0,0.0,0.0,0.0,60,0,0.0,0.0,0.0,60,0,0.0,0.0,337.4,60,0,342.9,323.3,0,0,0,28.1,60,0,10.2,60,0,10.4,10.1,7.4,60,0,7.6,7.1,3.9,60,0,4.6,3.0,64.6,60,0,69.0,60.0,28.1,60,0,39.0,18.0,239,0.0,1021.4,60,0,1021.4,0,1007.1,60,0,46.2,60,0
86282,2013-10-21 12:00:00,13180,60,0,0.0,0.0,0.0,60,0,0.0,0.0,0.0,60,0,0.0,0.0,0.0,60,0,0.0,0.0,337.4,60,0,342.9,323.3,0,0,0,28.1,60,0,10.2,60,0,10.4,10.1,7.4,60,0,7.6,7.1,3.9,60,0,4.6,3.0,64.6,60,0,69.0,60.0,28.1,60,0,39.0,18.0,239,0.0,1021.4,60,0,1021.4,0,1007.1,60,0,46.2,60,0
86282,2013-10-22 00:00:00,13190,60,0,0.0,0.0,0.0,60,0,0.0,0.0,0.0,60,0,0.0,0.0,0.0,60,0,0.0,0.0,337.4,60,0,342.9,323.3,0,0,0,28.1,60,0,10.2,60,0,10.4,10.1,7.4,60,0,7.6,7.1,3.9,60,0,4.6,3.0,64.6,60,0,69.0,60.0,28.1,60,0,39.0,18.0,239,0.0,1021.4,60,0,1021.4,0,1007.1,60,0,46.2,60,0
86282,2013-10-22 12:00:00,13200,60,0,0.0,0.0,0.0,60,0,0.0,0.0,0.0,60,0,0.0,0.0,0.0,60,0,0.0,0.0,337.4,60,0,342.9,323.3,0,0,0,28.1,60,0,10.2,60,0,10.4,10.1,7.4,60,0,7.6,7.1,3.9,60,0,4.6,3.0,64.6,60,0,69.0,60.0,28.1,60,0,39.0,18.0,239,0.0,1021.4,60,0,1021.4,0,1007.1,60,0,46.2,60,0
86282,2013-10-23 00:00:00,13210,60,0,0.0,0.0,0.0,60,0,0.0,0.0,0.0,60,0,0.0,0.0,0.0,60,0,0.0,0.0,337.4,60,0,342.9,323.3,0,0,0,28.1,60,0,10.2,60,0,10.4,10.1,7.4,60,0,7.6,7.1,3.9,60,0,4.6,3.0,64.6,60,0,69.0,60.0,28.1,60,0,39.0,18.0,239,0.0,1021.4,60,0,1021.4,0,1007.1,60,0,46.2,60,0
86282,2013-10-23 12:00:00,13220,60,0,0.0,0.0,0.0,60,0,0.0,0.0,0.0,60,0,0.0,0.0,0.0,60,0,0.0,0.0,337.4,60,0,342.9,323.3,0,0,0,28.1,60,0,10.2,60,0,10.4,10.1,7.4,60,0,7.6,7.1,3.9,60,0,4.6,3.0,64.6,60,0,69.0,60.0,28.1,60,0,39.0,18.0,239,0.0,1021.4,60,0,1021.4,0,1007.1,60,0,46.2,60,0
86282,2013-10-24 00:00:00,13230,60,0,0.0,0.0,0.0,60,0,0.0,0.0,0.0,60,0,0.0,0.0,0.0,60,0,0.0,0.0,337.4,60,0,342.9,323.3,0,0,0,28.1,60,0,10.2,60,0,10.4,10.1,7.4,60,0,7.6,7.1,3.9,60,0,4.6,3.0,64.6,60,0,69.0,60.0,28.1,60,0,39.0,18.0,239,0.0,1021.4,60,0,1021.4,0,1007.1,60,0,46.2,60,0
86282,2013-10-24 12:00:00,13240,60,0,0.0,0.0,0.0,60,0,0.0,0.0,0.0,60,0,0.0,0.0,0.0,60,0,0.0,0.0,337.4,60,0,342.9,323.3,0,0,0,28.1,60,0,10.2,60,0,10.4,10.1,7.4,60,0,7.6,7.1,3.9,60,0,4.6,3.0,64.6,60,0,69.0,60.0,28.1,60,0,39.0,18.0,239,0.0,1021.4,60,0,1021.4,0,1007.1,60,0,46.2,60,0
86282,2013-10-25 00:00:00,13250,60,0,0.0,0.0,0.0,60,0,0.0,0.0,0.0,60,0,0.0,0.0,0.0,60,0,0.0,0.0,337.4,60,0,342.9,323.3,0,0,0,28.1,60,0,10.2,60,0,10.4,10.1,7.4,60,0,7.6,7.1,3.9,60,0,4.6,3.0,64.6,60,0,69.0,60.0,28.1,60,0,39.0,18.0,239,0.0,1021.4,60,0,1021.4,0,1007.1,60,0,46.2,60,0
86282,2013-10-25 12:00:00,13260,60,0,0.0,0.0,0.0,60,0,0.0,0.0,0.0,60,0,0.0,0.0,0.0,60,0,0.0,0.0,337.4,60,0,342.9,323.3,0,0,0,28.1,60,0,10.2,60,0,10.4,10.1,7.4,60,0,7.6,7.1,3.9,60,0,4.6,3.0,64.6,60,0,69.0,60.0,28.1,60,0,39.0,18.0,239,0.0,1021.4,60,0,1021.4,0,1007.1,60,0,46.2,60,0
86282,2013-10-26 00:00:00,13270,60,0,0.0,0.0,0.0,60,0,0.0,0.0,0.0,60,0,0.0,0.0,0.0,60,0,0.0,0.0,337.4,60,0,342.9,323.3,0,0,0,28.1,60,0,10.2,60,0,10.4,10.1,7.4,60,0,7.6,7.1,3.9,60,0,4.6,3.0,64.6,60,0,69.0,60.0,28.1,60,0,39.0,18.0,239,0.0,1021.4,60,0,1021.4,0,1007.1,60,0,46.2,60,0
86282,2013-10-26 12:00:00,13280,60,0,0.0,0.0,0.0,60,0,0.0,0.0,0.0,60,0,0.0,0.0,0.0,60,0,0.0,0.0,337.4,60,0,342.9,323.3,0,0,0,28.1,60,0,10.2,60,0,10.4,10.1,7.4,60,0,7.6,7.1,3.9,60,0,4.6,3.0,64.6,60,0,69.0,60.0,28.1,60,0,39.0,18.0,239,0.0,1021.4,60,0,1021.4,0,1007.1,60,0,46.2,60,0
86282,2013-10-27 00:00:00,13290,60,0,0.0,0.0,0.0,60,0,0.0,0.0,0.0,60,0,0.0,0.0,0.0,60,0,0.0,0.0,337.4,60,0,342.9,323.3,0,0,0,28.1,60,0,10.2,60,0,10.4,10.1,7.4,60,0,7.6,7.1,3.9,60,0,4.6,3.0,64.6,60,0,69.0,60.0,28.1,60,0,39.0,18.0,239,0.0,1021.4,60,0,1021.4,0,1007.1,60,0,46.2,60,0
86282,2013-10-27 12:00:00,13300,60,0,0.0,0.0,0.0,60,0,0.0,0.0,0.0,60,0,0.0,0.0,0.0,60,0,0.0,0.0,337.4,60,0,342.9,323.3,0,0,0,28.1,60,0,10.2,60,0,10.4,10.1,7.4,60,0,7.6,7.1,3.9,60,0,4.6,3.0,64.6,60,0,69.0,60.0,28.1,60,0,39.0,18.0,239,0.0,1021.4,60,0,1021.4,0,1007.1,60,0,46.2,60,0
86282,2013-10-28 00:00:00,13310,60,0,0.0,0.0,0.0,60,0,0.0,0.0,0.0,60,0,0.0,0.0,0.0,60,0,0.0,0.0,337.4,60,0,342.9,323.3,0,0,0,28.1,60,0,10.2,60,0,10.4,10.1,7.4,60,0,7.6,7.1,3.9,60,0,4.6,3.0,64.6,60,0,69.0,60.0,28.1,60,0,39.0,18.0,239,0.0,1021.4,60,0,1021.4,0,1007.1,60,0,46.2,60,0
86282,2013-10-28 12:00:00,13320,60,0,0.0,0.0,0.0,60,0,0.0,0.0,0.0,60,0,0.0,0.0,0.0,60,0,0.0,0.0,337.4,60,0,342.9,323.3,0,0,0,28.1,60,0,10.2,60,0,10.4,10.1,7.4,60,0,7.6,7.1,3.9,60,0,4.6,3.0,64.6,60,0,69.0,60.0,28.1,60,0,39.0,18.0,239,0.0,1021.4,60,0,1021.4,0,1007.1,60,0,46.2,60,0
86282,2013-10-29 00:00:00,13330,60,0,0.0,0.0,0.0,60,0,0.0,0.0,0.0,60,0,0.0,0.0,0.0,60,0,0.0,0.0,337.4,60,0,342.9,323.3,0,0,0,28.1,60,0,10.2,60,0,10.4,10.1,7.4,60,0,7.6,7.1,3.9,60,0,4.6,3.0,64.6,60,0,69.0,60.0,28.1,60,0,39.0,18.0,239,0.0,1021.4,60,0,1021.4,0,1007.1,60,0,46.2,60,0
86282,2013-10-29 12:00:00,13340,60,0,0.0,0.0,0.0,60,0,0.0,0.0,0.0,60,0,0.0,0.0,0.0,60,0,0.0,0.0,337.4,60,0,342.9,323.3,0,0,0,28.1,60,0,10.2,60,0,10.4,10.1,7.4,60,0,7.6,7.1,3.9,60,0,4.6,3.0,64.6,60,0,69.0,60.0,28.1,60,0,39.0,18.0,239,0.0,1021.4,60,0,1021.4,0,1007.1,60,0,46.2,60,0
86282,2013-10-30 00:00:00,13350,60,0,0.0,0.0,0.0,60,0,0.0,0.0,0.0,60,0,0.0,0.0,0.0,60,0,0.0,0.0,337.4,60,0,342.9,323.3,0,0,0,28.1,60,0,10.2,60,0,10.4,10.1,7.4,60,0,7.6,7.1,3.9,60,0,4.6,3.0,64.6,60,0,69.0,60.0,28.1,60,0,39.0,18.0,239,0.0,1021.4,60,0,1021.4,0,1007.1,60,0,46.2,60,0
86282,2013-10-30 12:00:00,13360,60,0,0.0,0.0,0.0,60,0,0.0,0.0,0.0,60,0,0.0,0.0,0.0,60,0,0.0,0.0,337.4,60,0,342.9,323.3,0,0,0,28.1,60,0,10.2,60,0,10.4,10.1,7.4,60,0,7.6,7.1,3.9,60,0,4.6,3.0,64.6,60,0,69.0,60.0,28.1,60,0,39.0,18.0,239,0.0,1021.4,60,0,1021.4,0,1007.1,60,0,46.2,60,0
86282,2013-10-31 00:00:00,13370,60,0,0.0,0.0,0.0,60,0,0.0,0.0,0.0,60,0,0.0,0.0,0.0,60,0,0.0,0.0,337.4,60,0,342.9,323.3,0,0,0,28.1,60,0,10.2,60,0,10.4,10.1,7.4,60,0,7.6,7.1,3.9,60,0,4.6,3.0,64.6,60,0,69.0,60.0,28.1,60,0,39.0,18.0,239,0.0,1021.4,60,0,1021.4,0,1007.1,60,0,46.2,60,0
86282,2013-10-31 12:00:00,13380,60,0,0.0,0.0,0.0,60,0,0.0,0.0,0.0,60,0,0.0,0.0,0.0,60,0,0.0,0.0,337.4,60,0,342.9,323.3,0,0,0,28.1,60,0,10.2,60,0,10.4,10.1,7.4,60,0,7.6,7.1,3.9,60,0,4.6,3.0,64.6,60,0,69.0,60.0,28.1,60,0,39.0,18.0,239,0.0,1021.4,60,0,1021.4,0,1007.1,60,0,46.2,60,0
86282,2013-11-01 00:00:00,13390,60,0,0.0,0.0,0.0,60,0,0.0,0.0,0.0,60,0,0.0,0.0,0.0,60,0,0.0,0.0,337.4,60,0,342.9,323.3,0,0,0,28.1,60,0,10.2,60,0,10.4,10.1,7.4,60,0,7.6,7.1,3.9,60,0,4.6,3.0,64.6,60,0,69.0,60.0,28.1,60,0,39.0,18.0,239,0.0,1021.4,60,0,1021.4,0,1007.1,60,0,46.2,60,0
86282,2013-11-01 12:00:00,13400,60,0,0.0,0.0,0.0,60,0,0.0,0.0,0.0,60,0,0.0,0.0,0.0,60,0,0.0,0.0,337.4,60,0,342.9,323.3,0,0,0,28.1,60,0,10.2,60,0,10.4,10.1,7.4,60,0,7.6,7.1,3.9,60,0,4.6,3.0,64.6,60,0,69.0,60.0,28.1,60,0,39.0,18.0,239,0.0,1021.4,60,0,1021.4,0,1007.1,60,0,46.2,60,0
86282,2013-11-02 00:00:00,13410,60,0,0.0,0.0,0.0,60,0,0.0,0.0,0.0,60,0,0.0,0.0,0.0,60,0,0.0,0.0,337.4,60,0,342.9,323.3,0,0,0,28.1,60,0,10.2,60,0,10.4,10.1,7.4,60,0,7.6,7.1,3.9,60,0,4.6,3.0,64.6,60,0,69.0,60.0,28.1,60,0,39.0,18.0,239,0.0,1021.4,60,0,1021.4,0,1007.1,60,0,46.2,60,0
86282,2013-11-02 12:00:00,13420,60,0,0.0,0.0,0.0,60,0,0.0,0.0,0.0,60,0,0.0,0.0,0.0,60,0,0.0,0.0,337.4,60,0,342.9,323.3,0,0,0,28.1,60,0,10.2,60,0,10.4,10.1,7.4,60,0,7.6,7.1,3.9,60,0,4.6,3.0,64.6,60,0,69.0,60.0,28.1,60,0,39.0,18.0,239,0.0,1021.4,60,0,1021.4,0,1007.1,60,0,46.2,60,0
86282,2013-11-03 00:00:00,13430,60,0,0.0,0.0,0.0,60,0,0.0,0.0,0.0,60,0,0.0,0.0,0.0,60,0,0.0,0.0,337.4,60,0,342.9,323.3,0,0,0,28.1,60,0,10.2,60,0,10.4,10.1,7.4,60,0,7.6,7.1,3.9,60,0,4.6,3.0,64.6,60,0,69.0,60.0,28.1,60,0,39.0,18.0,239,0.0,1021.4,60,0,1021.4,0,1007.1,60,0,46.2,60,0
86282,2013-11-03 12:00:00,13440,60,0,0.0,0.0,0.0,60,0,0.0,0.0,0.0,60,0,0.0,0.0,0.0,60,0,0.0,0.0,337.4,60,0,342.9,323.3,0,0,0,28.1,60,0,10.2,60,0,10.4,10.1,7.4,60,0,7.6,7.1,3.9,60,0,4.6,3.0,64.6,60,0,69.0,60.0,28.1,60,0,39.0,18.0,239,0.0,1021.4,60,0,1021.4,0,1007.1,60,0,46.2,60,0
86282,2013-11-04 00:00:00,13450,60,0,0.0,0.0,0.0,60,0,0.0,0.0,0.0,60,0,0.0,0.0,0.0,60,0,0.0,0.0,337.4,60,0,342.9,323.3,0,0,0,28.1,60,0,10.2,60,0,10.4,10.1,7.4,60,0,7.6,7.1,3.9,60,0,4.6,3.0,64.6,60,0,69.0,60.0,28.1,60,0,39.0,18.0,239,0.0,1021.4,60,0,1021.4,0,1007.1,60,0,46.2,60,0
86282,2013-11-04 12:00:00,13460,60,0,0.0,0.0,0.0,60,0,0.0,0.0,0.0,60,0,0.0,0.0,0.0,60,0,0.0,0.0,337.4,60,0,342.9,323.3,0,0,0,28.1,60,0,10.2,60,0,10.4,10.1,7.4,60,0,7.6,7.1,3.9,60,0,4.6,3.0,64.6,60,0,69.0,60.0,28.1,60,0,39.0,18.0,239,0.0,1021.4,60,0,1021.4,0,1007.1,60,0,46.2,60,0
86282,2013-11-05 00:00:00,13470,60,0,0.0,0.0,0.0,60,0,0.0,0.0,0.0,60,0,0.0,0.0,0.0,60,0,0.0,0.0,337.4,60,0,342.9,323.3,0,0,0,28.1,60,0,10.2,60,0,10.4,10.1,7.4,60,0,7.6,7.1,3.9,60,0,4.6,3.0,64.6,60,0,69.0,60.0,28.1,60,0,39.0,18.0,239,0.0,1021.4,60,0,1021.4,0,1007.1,60,0,46.2,60,0
86282,2013-11-05 12:00:00,13480,60,0,0.0,0.0,0.0,60,0,0.0,0.0,0.0,60,0,0.0,0.0,0.0,60,0,0.0,0.0,337.4,60,0,342.9,323.3,0,0,0,28.1,60,0,10.2,60,0,10.4,10.1,7.4,60,0,7.6,7.1,3.9,60,0,4.6,3.0,64.6,60,0,69.0,60.0,28.1,60,0,39.0,18.0,239,0.0,1021.4,60,0,1021.4,0,1007.1,60,0,46.2,60,0
86282,2013-11-06 00:00:00,13490,60,0,0.0,0.0,0.0,60,0,0.0,0.0,0.0,60,0,0.0,0.0,0.0,60,0,0.0,0.0,337.4,60,0,342.9,323.3,0,0,0,28.1,60,0,10.2,60,0,10.4,10.1,7.4,60,0,7.6,7.1,3.9,60,0,4.6,3.0,64.6,60,0,69.0,60.0,28.1,60,0,39.0,18.0,239,0.0,1021.4,60,0,1021.4,0,1007.1,60,0,46.2,60,0
86282,2013-11-06 12:00:00,13500,60,0,0.0,0.0,0.0,60,0,0.0,0.0,0.0,60,0,0.0,0.0,0.0,60,0,0.0,0.0,337.4,60,0,342.9,323.3,0,0,0,28.1,60,0,10.2,60,0,10.4,10.1,7.4,60,0,7.6,7.1,3.9,60,0,4.6,3.0,64.6,60,0,69.0,60.0,28.1,60,0,39.0,18.0,239,0.0,1021.4,60,0,1021.4,0,1007.1,60,0,46.2,60,0
86282,2013-11-07 00:00:00,13510,60,0,0.0,0.0,0.0,60,0,0.0,0.0,0.0,60,0,0.0,0.0,0.0,60,0,0.0,0.0,337.4,60,0,342.9,323.3,0,0,0,28.1,60,0,10.2,60,0,10.4,10.1,7.4,60,0,7.6,7.1,3.9,60,0,4.6,3.0,64.6,60,0,69.0,60.0,28.1,60,0,39.0,18.0,239,0.0,1021.4,60,0,1021.4,0,1007.1,60,0,46.2,60,0
86282,2013-11-07 12:00:00,13520,60,0,0.0,0.0,0.0,60,0,0.0,0.0,0.0,60,0,0.0,0.0,0.0,60,0,0.0,0.0,337.4,60,0,342.9,323.3,0,0,0,28.1,60,0,10.2,60,0,10.4,10.1,7.4,60,0,7.6,7.1,3.9,60,0,4.6,3.0,64.6,60,0,69.0,60.0,28.1,60,0,39.0,18.0,239,0.0,1021.4,60,0,1021.4,0,1007.1,60,0,46.2,60,0
86282,2013-11-08 00:00:00,13530,60,0,0.0,0.0,0.0,60,0,0.0,0.0,0.0,60,0,0.0,0.0,0.0,60,0,0.0,0.0,337.4,60,0,342.9,323.3,0,0,0,28.1,60,0,10.2,60,0,10.4,10.1,7.4,60,0,7.6,7.1,3.9,60,0,4.6,3.0,64.6,60,0,69.0,60.0,28.1,60,0,39.0,18.0,239,0.0,1021.4,60,0,1021.4,0,1007.1,60,0,46.2,60,0
86282,2013-11-08 12:00:00,13540,60,0,0.0,0.0,0.0,60,0,0.0,0.0,0.0,60,0,0.0,0.0,0.0,60,0,0.0,0.0,337.4,60,0,342.9,323.3,0,0,0,28.1,60,0,10.2,60,0,10.4,10.1,7.4,60,0,7.6,7.1,3.9,60,0,4.6,3.0,64.6,60,0,69.0,60.0,28.1,60,0,39.0,18.0,239,0.0,1021.4,60,0,1021.4,0,1007.1,60,0,46.2,60,0
86282,2013-11-09 00:00:00,13550,60,0,0.0,0.0,0.0,60,0,0.0,0.0,0.0,60,0,0.0,0.0,0.0,60,0,0.0,0.0,337.4,60,0,342.9,323.3,0,0,0,28.1,60,0,10.2,60,0,10.4,10.1,7.4,60,0,7.6,7.1,3.9,60,0,4.6,3.0,64.6,60,0,69.0,60.0,28.1,60,0,39.0,18.0,239,0.0,1021.4,60,0,1021.4,0,1007.1,60,0,46.2,60,0
86282,2013-11-09 12:00:00,13560,60,0,0.0,0.0,0.0,60,0,0.0,0.0,0.0,60,0,0.0,0.0,0.0,60,0,0.0,0.0,337.4,60,0,342.9,323.3,0,0,0,28.1,60,0,10.2,60,0,10.4,10.1,7.4,60,0,7.6,7.1,3.9,60,0,4.6,3.0,64.6,60,0,69.0,60.0,28.1,60,0,39.0,18.0,239,0.0,1021.4,60,0,1021.4,0,1007.1,60,0,46.2,60,0
86282,2013-11-10 00:00:00,13570,60,0,0.0,0.0,0.0,60,0,0.0,0.0,0.0,60,0,0.0,0.0,0.0,60,0,0.0,0.0,337.4,60,0,342.9,323.3,0,0,0,28.1,60,0,10.2,60,0,10.4,10.1,7.4,60,0,7.6,7.1,3.9,60,0,4.6,3.0,64.6,60,0,69.0,60.0,28.1,60,0,39.0,18.0,239,0.0,1021.4,60,0,1021.4,0,1007.1,60,0,46.2,60,0
86282,2013-11-10 12:00:00,13580,60,0,0.0,0.0,0.0,60,0,0.0,0.0,0.0,60,0,0.0,0.0,0.0,60,0,0.0,0.0,337.4,60,0,342.9,323.3,0,0,0,28.1,60,0,10.2,60,0,10.4,10.1,7.4,60,0,7.6,7.1,3.9,60,0,4.6,3.0,64.6,60,0,69.0,60.0,28.1,60,0,39.0,18.0,239,0.0,1021.4,60,0,1021.4,0,1007.1,60,0,46.2,60,0
86282,2013-11-11 00:00:00,13590,60,0,0.0,0.0,0.0,60,0,0.0,0.0,0.0,60,0,0.0,0.0,0.0,60,0,0.0,0.0,337.4,60,0,342.9,323.3,0,0,0,28.1,60,0,10.2,60,0,10.4,10.1,7.4,60,0,7.6,7.1,3.9,60,0,4.6,3.0,64.6,60,0,69.0,60.0,28.1,60,0,39.0,18.0,239,0.0,1021.4,60,0,1021.4,0,1007.1,60,0,46.2,60,0
86282,2013-11-11 12:00:00,13600,60,0,0.0,0.0,0.0,60,0,0.0,0.0,0.0,60,0,0.0,0.0,0.0,60,0,0.0,0.0,337.4,60,0,342.9,323.3,0,0,0,28.1,60,0,10.2,60,0,10.4,10.1,7.4,60,0,7.6,7.1,3.9,60,0,4.6,3.0,64.6,60,0,69.0,60.0,28.1,60,0,39.0,18.0,239,0.0,1021.4,60,0,1021.4,0,1007.1,60,0,46.2,60,0
86282,2013-11-12 00:00:00,13610,60,0,0.0,0.0,0.0,60,0,0.0,0.0,0.0,60,0,0.0,0.0,0.0,60,0,0.0,0.0,337.4,60,0,342.9,323.3,0,0,0,28.1,60,0,10.2,60,0,10.4,10.1,7.4,60,0,7.6,7.1,3.9,60,0,4.6,3.0,64.6,60,0,69.0,60.0,28.1,60,0,39.0,18.0,239,0.0,1021.4,60,0,1021.4,0,1007.1,60,0,46.2,60,0
86282,2013-11-12 12:00:00,13620,60,0,0.0,0.0,0.0,60,0,0.0,0.0,0.0,60,0,0.0,0.0,0.0,60,0,0.0,0.0,337.4,60,0,342.9,323.3,0,0,0,28.1,60,0,10.2,60,0,10.4,10.1,7.4,60,0,7.6,7.1,3.9,60,0,4.6,3.0,64.6,60,0,69.0,60.0,28.1,60,0,39.0,18.0,239,0.0,1021.4,60,0,1021.4,0,1007.1,60,0,46.2,60,0
86282,2013-11-13 00:00:00,13630,60,0,0.0,0.0,0.0,60,0,0.0,0.0,0.0,60,0,0.0,0.0,0.0,60,0,0.0,0.0,337.4,60,0,342.9,323.3,0,0,0,28.1,60,0,10.2,60,0,10.4,10.1,7.4,60,0,7.6,7.1,3.9,60,0,4.6,3.0,64.6,60,0,69.0,60.0,28.1,60,0,39.0,18.0,239,0.0,1021.4,60,0,1021.4,0,1007.1,60,0,46.2,60,0
86282,2013-11-13 12:00:00,13640,60,0,0.0,0.0,0.0,60,0,0.0,0.0,0.0,60,0,0.0,0.0,0.0,60,0,0.0,0.0,337.4,60,0,342.9,323.3,0,0,0,28.1,60,0,10.2,60,0,10.4,10.1,7.4,60,0,7.6,7.1,3.9,60,0,4.6,3.0,64.6,60,0,69.0,60.0,28.1,60,0,39.0,18.0,239,0.0,1021.4,60,0,1021.4,0,1007.1,60,0,46.2,60,0
86282,2013-11-14 00:00:00,13650,60,0,0.0,0.0,0.0,60,0,0.0,0.0,0.0,60,0,0.0,0.0,0.0,60,0,0.0,0.0,337.4,60,0,342.9,323.3,0,0,0,28.1,60,0,10.2,60,0,10.4,10.1,7.4,60,0,7.6,7.1,3.9,60,0,4.6,3.0,64.6,60,0,69.0,60.0,28.1,60,0,39.0,18.0,239,0.0,1021.4,60,0,1021.4,0,1007.1,60,0,46.2,60,0
86282,2013-11-14 12:00:00,13660,60,0,0.0,0.0,0.0,60,0,0.0,0.0,0.0,60,0,0.0,0.0,0.0,60,0,0.0,0.0,337.4,60,0,342.9,323.3,0,0,0,28.1,60,0,10.2,60,0,10.4,10.1,7.4,60,0,7.6,7.1,3.9,60,0,4.6,3.0,64.6,60,0,69.0,60.0,28.1,60,0,39.0,18.0,239,0.0,1021.4,60,0,1021.4,0,1007.1,60,0,46.2,60,0
86282,2013-11-15 00:00:00,13670,60,0,0.0,0.0,0.0,60,0,0.0,0.0,0.0,60,0,0.0,0.0,0.0,60,0,0.0,0.0,337.4,60,0,342.9,323.3,0,0,0,28.1,60,0,10.2,60,0,10.4,10.1,7.4,60,0,7.6,7.1,3.9,60,0,4.6,3.0,64.6,60,0,69.0,60.0,28.1,60,0,39.0,18.0,239,0.0,1021.4,60,0,1021.4,0,1007.1,60,0,46.2,60,0
86282,2013-11-15 12:00:00,13680,60,0,0.0,0.0,0.0,60,0,0.0,0.0,0.0,60,0,0.0,0.0,0.0,60,0,0.0,0.0,337.4,60,0,342.9,323.3,0,0,0,28.1,60,0,10.2,60,0,10.4,10.1,7.4,60,0,7.6,7.1,3.9,60,0,4.6,3.0,64.6,60,0,69.0,60.0,28.1,60,0,39.0,18.0,239,0.0,1021.4,60,0,1021.4,0,1007.1,60,0,46.2,60,0
86282,2013-11-16 00:00:00,13690,60,0,0.0,0.0,0.0,60,0,0.0,0.0,0.0,60,0,0.0,0.0,0.0,60,0,0.0,0.0,337.4,60,0,342.9,323.3,0,0,0,28.1,60,0,10.2,60,0,10.4,10.1,7.4,60,0,7.6,7.1,3.9,60,0,4.6,3.0,64.6,60,0,69.0,60.0,28.1,60,0,39.0,18.0,239,0.0,1021.4,60,0,1021.4,0,1007.1,60,0,46.2,60,0
86282,2013-11-16 12:00:00,13700,60,0,0.0,0.0,0.0,60,0,0.0,0.0,0.0,60,0,0.0,0.0,0.0,60,0,0.0,0.0,337.4,60,0,342.9,323.3,0,0,0,28.1,60,0,10.2,60,0,10.4,10.1,7.4,60,0,7.6,7.1,3.9,60,0,4.6,3.0,64.6,60,0,69.0,60.0,28.1,60,0,39.0,18.0,239,0.0,1021.4,60,0,1021.4,0,1007.1,60,0,46.2,60,0
86282,2013-11-17 00:00:00,13710,60,0,0.0,0.0,0.0,60,0,0.0,0.0,0.0,60,0,0.0,0.0,0.0,60,0,0.0,0.0,337.4,60,0,342.9,323.3,0,0,0,28.1,60,0,10.2,60,0,10.4,10.1,7.4,60,0,7.6,7.1,3.9,60,0,4.6,3.0,64.6,60,0,69.0,60.0,28.1,60,0,39.0,18.0,239,0.0,1021.4,60,0,1021.4,0,1007.1,60,0,46.2,60,0
86282,2013-11-17 12:00:00,13720,60,0,0.0,0.0,0.0,60,0,0.0,0.0,0.0,60,0,0.0,0.0,0.0,60,0,0.0,0.0,337.4,60,0,342.9,323.3,0,0,0,28.1,60,0,10.2,60,0,10.4,10.1,7.4,60,0,7.6,7.1,3.9,60,0,4.6,3.0,64.6,60,0,69.0,60.0,28.1,60,0,39.0,18.0,239,0.0,1021.4,60,0,1021.4,0,1007.1,60,0,46.2,60,0
86282,2013-11-18 00:00:00,13730,60,0,0.0,0.0,0.0,60,0,0.0,0.0,0.0,60,0,0.0,0.0,0.0,60,0,0.0,0.0,337.4,60,0,342.9,323.3,0,0,0,28.1,60,0,10.2,60,0,10.4,10.1,7.4,60,0,7.6,7.1,3.9,60,0,4.6,3.0,64.6,60,0,69.0,60.0,28.1,60,0,39.0,18.0,239,0.0,1021.4,60,0,1021.4,0,1007.1,60,0,46.2,60,0
86282,2013-11-18 12:00:00,13740,60,0,0.0,0.0,0.0,60,0,0.0,0.0,0.0,60,0,0.0,0.0,0.0,60,0,0.0,0.0,337.4,60,0,342.9,323.3,0,0,0,28.1,60,0,10.2,60,0,10.4,10.1,7.4,60,0,7.6,7.1,3.9,60,0,4.6,3.0,64.6,60,0,69.0,60.0,28.1,60,0,39.0,18.0,239,0.0,1021.4,60,0,1021.4,0,1007.1,60,0,46.2,60,0
86282,2013-11-19 00:00:00,13750,60,0,0.0,0.0,0.0,60,0,0.0,0.0,0.0,60,0,0.0,0.0,0.0,60,0,0.0,0.0,337.4,60,0,342.9,323.3,0,0,0,28.1,60,0,10.2,60,0,10.4,10.1,7.4,60,0,7.6,7.1,3.9,60,0,4.6,3.0,64.6,60,0,69.0,60.0,28.1,60,0,39.0,18.0,239,0.0,1021.4,60,0,1021.4,0,1007.1,60,0,46.2,60,0
86282,2013-11-19 12:00:00,13760,60,0,0.0,0.0,0.0,60,0,0.0,0.0,0.0,60,0,0.0,0.0,0.0,60,0,0.0,0.0,337.4,60,0,342.9,323.3,0,0,0,28.1,60,0,10.2,60,0,10.4,10.1,7.4,60,0,7.6,7.1,3.9,60,0,4.6,3.0,64.6,60,0,69.0,60.0,28.1,60,0,39.0,18.0,239,0.0,1021.4,60,0,1021.4,0,1007.1,60,0,46.2,60,0
86282,2013-11-20 00:00:00,13770,60,0,0.0,0.0,0.0,60,0,0.0,0.0,0.0,60,0,0.0,0.0,0.0,60,0,0.0,0.0,337.4,60,0,342.9,323.3,0,0,0,28.1,60,0,10.2,60,0,10.4,10.1,7.4,60,0,7.6,7.1,3.9,60,0,4.6,3.0,64.6,60,0,69.0,60.0,28.1,60,0,39.0,18.0,239,0.0,1021.4,60,0,1021.4,0,1007.1,60,0,46.2,60,0
86282,2013-11-20 12:00:00,13780,60,0,0.0,0.0,0.0,60,0,0.0,0.0,0.0,60,0,0.0,0.0,0.0,60,0,0.0,0.0,337.4,60,0,342.9,323.3,0,0,0,28.1,60,0,10.2,60,0,10.4,10.1,7.4,60,0,7.6,7.1,3.9,60,0,4.6,3.0,64.6,60,0,69.0,60.0,28.1,60,0,39.0,18.0,239,0.0,1021.4,60,0,1021.4,0,1007.1,60,0,46.2,60,0
86282,2013-11-21 00:00:00,13790,60,0,0.0,0.0,0.0,60,0,0.0,0.0,0.0,60,0,0.0,0.0,0.0,60,0,0.0,0.0,337.4,60,0,342.9,323.3,0,0,0,28.1,60,0,10.2,60,0,10.4,10.1,7.4,60,0,7.6,7.1,3.9,60,0,4.6,3.0,64.6,60,0,69.0,60.0,28.1,60,0,39.0,18.0,239,0.0,1021.4,60,0,1021.4,0,1007.1,60,0,46.2,60,0
86282,2013-11-21 12:00:00,13800,60,0,0.0,0.0,0.0,60,0,0.0,0.0,0.0,60,0,0.0,0.0,0.0,60,0,0.0,0.0,337.4,60,0,342.9,323.3,0,0,0,28.1,60,0,10.2,60,0,10.4,10.1,7.4,60,0,7.6,7.1,3.9,60,0,4.6,3.0,64.6,60,0,69.0,60.0,28.1,60,0,39.0,18.0,239,0.0,1021.4,60,0,1021.4,0,1007.1,60,0,46.2,60,0
86282,2013-11-22 00:00:00,13810,60,0,0.0,0.0,0.0,60,0,0.0,0.0,0.0,60,0,0.0,0.0,0.0,60,0,0.0,0.0,337.4,60,0,342.9,323.3,0,0,0,28.1,60,0,10.2,60,0,10.4,10.1,7.4,60,0,7.6,7.1,3.9,60,0,4.6,3.0,64.6,60,0,69.0,60.0,28.1,60,0,39.0,18.0,239,0.0,1021.4,60,0,1021.4,0,1007.1,60,0,46.2,60,0
86282,2013-11-22 12:00:00,13820,60,0,0.0,0.0,0.0,60,0,0.0,0.0,0.0,60,0,0.0,0.0,0.0,60,0,0.0,0.0,337.4,60,0,342.9,323.3,0,0,0,28.1,60,0,10.2,60,0,10.4,10.1,7.4,60,0,7.6,7.1,3.9,60,0,4.6,3.0,64.6,60,0,69.0,60.0,28.1,60,0,39.0,18.0,239,0.0,1021.4,60,0,1021.4,0,1007.1,60,0,46.2,60,0
86282,2013-11-23 00:00:00,13830,60,0,0.0,0.0,0.0,60,0,0.0,0.0,0.0,60,0,0.0,0.0,0.0,60,0,0.0,0.0,337.4,60,0,342.9,323.3,0,0,0,28.1,60,0,10.2,60,0,10.4,10.1,7.4,60,0,7.6,7.1,3.9,60,0,4.6,3.0,64.6,60,0,69.0,60.0,28.1,60,0,39.0,18.0,239,0.0,1021.4,60,0,1021.4,0,1007.1,60,0,46.2,60,0
86282,2013-11-23 12:00:00,13840,60,0,0.0,0.0,0.0,60,0,0.0,0.0,0.0,60,0,0.0,0.0,0.0,60,0,0.0,0.0,337.4,60,0,342.9,323.3,0,0,0,28.1,60,0,10.2,60,0,10.4,10.1,7.4,60,0,7.6,7.1,3.9,60,0,4.6,3.0,64.6,60,0,69.0,60.0,28.1,60,0,39.0,18.0,239,0.0,1021.4,60,0,1021.4,0,1007.1,60,0,46.2,60,0
86282,2013-11-24 00:00:00,13850,60,0,0.0,0.0,0.0,60,0,0.0,0.0,0.0,60,0,0.0,0.0,0.0,60,0,0.0,0.0,337.4,60,0,342.9,323.3,0,0,0,28.1,60,0,10.2,60,0,10.4,10.1,7.4,60,0,7.6,7.1,3.9,60,0,4.6,3.0,64.6,60,0,69.0,60.0,28.1,60,0,39.0,18.0,239,0.0,1021.4,60,0,1021.4,0,1007.1,60,0,46.2,60,0
86282,2013-11-24 12:00:00,13860,60,0,0.0,0.0,0.0,60,0,0.0,0.0,0.0,60,0,0.0,0.0,0.0,60,0,0.0,0.0,337.4,60,0,342.9,323.3,0,0,0,28.1,60,0,10.2,60,0,10.4,10.1,7.4,60,0,7.6,7.1,3.9,60,0,4.6,3.0,64.6,60,0,69.0,60.0,28.1,60,0,39.0,18.0,239,0.0,1021.4,60,0,1021.4,0,1007.1,60,0,46.2,60,0
86282,2013-11-25 00:00:00,13870,60,0,0.0,0.0,0.0,60,0,0.0,0.0,0.0,60,0,0.0,0.0,0.0,60,0,0.0,0.0,337.4,60,0,342.9,323.3,0,0,0,28.1,60,0,10.2,60,0,10.4,10.1,7.4,60,0,7.6,7.1,3.9,60,0,4.6,3.0,64.6,60,0,69.0,60.0,28.1,60,0,39.0,18.0,239,0.0,1021.4,60,0,1021.4,0,1007.1,60,0,46.2,60,0
86282,2013-11-25 12:00:00,13880,60,0,0.0,0.0,0.0,60,0,0.0,0.0,0.0,60,0,0.0,0.0,0.0,60,0,0.0,0.0,337.4,60,0,342.9,323.3,0,0,0,28.1,60,0,10.2,60,0,10.4,10.1,7.4,60,0,7.6,7.1,3.9,60,0,4.6,3.0,64.6,60,0,69.0,60.0,28.1,60,0,39.0,18.0,239,0.0,1021.4,60,0,1021.4,0,1007.1,60,0,46.2,60,0
86282,2013-11-26 00:00:00,13890,60,0,0.0,0.0,0.0,60,0,0.0,0.0,0.0,60,0,0.0,0.0,0.0,60,0,0.0,0.0,337.4,60,0,342.9,323.3,0,0,0,28.1,60,0,10.2,60,0,10.4,10.1,7.4,60,0,7.6,7.1,3.9,60,0,4.6,3.0,64.6,60,0,69.0,60.0,28.1,60,0,39.0,18.0,239,0.0,1021.4,60,0,1021.4,0,1007.1,60,0,46.2,60,0
86282,2013-11-26 12:00:00,13900,60,0,0.0,0.0,0.0,60,0,0.0,0.0,0.0,60,0,0.0,0.0,0.0,60,0,0.0,0.0,337.4,60,0,342.9,323.3,0,0,0,28.1,60,0,10.2,60,0,10.4,10.1,7.4,60,0,7.6,7.1,3.9,60,0,4.6,3.0,64.6,60,0,69.0,60.0,28.1,60,0,39.0,18.0,239,0.0,1021.4,60,0,1021.4,0,1007.1,60,0,46.2,60,0
86282,2013-11-27 00:00:00,13910,60,0,0.0,0.0,0.0,60,0,0.0,0.0,0.0,60,0,0.0,0.0,0.0,60,0,0.0,0.0,337.4,60,0,342.9,323.3,0,0,0,28.1,60,0,10.2,60,0,10.4,10.1,7.4,60,0,7.6,7.1,3.9,60,0,4.6,3.0,64.6,60,0,69.0,60.0,28.1,60,0,39.0,18.0,239,0.0,1021.4,60,0,1021.4,0,1007.1,60,0,46.2,60,0
86282,2013-11-27 12:00:00,13920,60,0,0.0,0.0,0.0,60,0,0.0,0.0,0.0,60,0,0.0,0.0,0.0,60,0,0.0,0.0,337.4,60,0,342.9,323.3,0,0,0,28.1,60,0,10.2,60,0,10.4,10.1,7.4,60,0,7.6,7.1,3.9,60,0,4.6,3.0,64.6,60,0,69.0,60.0,28.1,60,0,39.0,18.0,239,0.0,1021.4,60,0,1021.4,0,1007.1,60,0,46.2,60,0
86282,2013-11-28 00:00:00,13930,60,0,0.0,0.0,0.0,60,0,0.0,0.0,0.0,60,0,0.0,0.0,0.0,60,0,0.0,0.0,337.4,60,0,342.9,323.3,0,0,0,28.1,60,0,10.2,60,0,10.4,10.1,7.4,60,0,7.6,7.1,3.9,60,0,4.6,3.0,64.6,60,0,69.0,60.0,28.1,60,0,39.0,18.0,239,0.0,1021.4,60,0,1021.4,0,1007.1,60,0,46.2,60,0
86282,2013-11-28 12:00:00,13940,60,0,0.0,0.0,0.0,60,0,0.0,0.0,0.0,60,0,0.0,0.0,0.0,60,0,0.0,0.0,337.4,60,0,342.9,323.3,0,0,0,28.1,60,0,10.2,60,0,10.4,10.1,7.4,60,0,7.6,7.1,3.9,60,0,4.6,3.0,64.6,60,0,69.0,60.0,28.1,60,0,39.0,18.0,239,0.0,1021.4,60,0,1021.4,0,1007.1,60,0,46.2,60,0
86282,2013-11-29 00:00:00,13950,60,0,0.0,0.0,0.0,60,0,0.0,0.0,0.0,60,0,0.0,0.0,0.0,60,0,0.0,0.0,337.4,60,0,342.9,323.3,0,0,0,28.1,60,0,10.2,60,0,10.4,10.1,7.4,60,0,7.6,7.1,3.9,60,0,4.6,3.0,64.6,60,0,69.0,60.0,28.1,60,0,39.0,18.0,239,0.0,1021.4,60,0,1021.4,0,1007.1,60,0,46.2,60,0
86282,2013-11-29 12:00:00,13960,60,0,0.0,0.0,0.0,60,0,0.0,0.0,0.0,60,0,0.0,0.0,0.0,60,0,0.0,0.0,337.4,60,0,342.9,323.3,0,0,0,28.1,60,0,10.2,60,0,10.4,10.1,7.4,60,0,7.6,7.1,3.9,60,0,4.6,3.0,64.6,60,0,69.0,60.0,28.1,60,0,39.0,18.0,239,0.0,1021.4,60,0,1021.4,0,1007.1,60,0,46.2,60,0
86282,2013-11-30 00:00:00,13970,60,0,0.0,0.0,0.0,60,0,0.0,0.0,0.0,60,0,0.0,0.0,0.0,60,0,0.0,0.0,337.4,60,0,342.9,323.3,0,0,0,28.1,60,0,10.2,60,0,10.4,10.1,7.4,60,0,7.6,7.1,3.9,60,0,4.6,3.0,64.6,60,0,69.0,60.0,28.1,60,0,39.0,18.0,239,0.0,1021.4,60,0,1021.4,0,1007.1,60,0,46.2,60,0
86282,2013-11-30 12:00:00,13980,60,0,0.0,0.0,0.0,60,0,0.0,0.0,0.0,60,0,0.0,0.0,0.0,60,0,0.0,0.0,337.4,60,0,342.9,323.3,0,0,0,28.1,60,0,10.2,60,0,10.4,10.1,7.4,60,0,7.6,7.1,3.9,60,0,4.6,3.0,64.6,60,0,69.0,60.0,28.1,60,0,39.0,18.0,239,0.0,1021.4,60,0,1021.4,0,1007.1,60,0,46.2,60,0
86282,2013-12-01 00:00:00,13990,60,0,0.0,0.0,0.0,60,0,0.0,0.0,0.0,60,0,0.0,0.0,0.0,60,0,0.0,0.0,337.4,60,0,342.9,323.3,0,0,0,28.1,60,0,10.2,60,0,10.4,10.1,7.4,60,0,7.6,7.1,3.9,60,0,4.6,3.0,64.6,60,0,69.0,60.0,28.1,60,0,39.0,18.0,239,0.0,1021.4,60,0,1021.4,0,1007.1,60,0,46.2,60,0
86282,2013-12-01 12:00:00,14000,60,0,0.0,0.0,0.0,60,0,0.0,0.0,0.0,60,0,0.0,0.0,0.0,60,0,0.0,0.0,337.4,60,0,342.9,323.3,0,0,0,28.1,60,0,10.2,60,0,10.4,10.1,7.4,60,0,7.6,7.1,3.9,60,0,4.6,3.0,64.6,60,0,69.0,60.0,28.1,60,0,39.0,18.0,239,0.0,1021.4,60,0,1021.4,0,1007.1,60,0,46.2,60,0
86282,2013-12-02 00:00:00,14010,60,0,0.0,0.0,0.0,60,0,0.0,0.0,0.0,60,0,0.0,0.0,0.0,60,0,0.0,0.0,337.4,60,0,342.9,323.3,0,0,0,28.1,60,0,10.2,60,0,10.4,10.1,7.4,60,0,7.6,7.1,3.9,60,0,4.6,3.0,64.6,60,0,69.0,60.0,28.1,60,0,39.0,18.0,239,0.0,1021.4,60,0,1021.4,0,1007.1,60,0,46.2,60,0
86282,2013-12-02 12:00:00,14020,60,0,0.0,0.0,0.0,60,0,0.0,0.0,0.0,60,0,0.0,0.0,0.0,60,0,0.0,0.0,337.4,60,0,342.9,323.3,0,0,0,28.1,60,0,10.2,60,0,10.4,10.1,7.4,60,0,7.6,7.1,3.9,60,0,4.6,3.0,64.6,60,0,69.0,60.0,28.1,60,0,39.0,18.0,239,0.0,1021.4,60,0,1021.4,0,1007.1,60,0,46.2,60,0
86282,2013-12-03 00:00:00,14030,60,0,0.0,0.0,0.0,60,0,0.0,0.0,0.0,60,0,0.0,0.0,0.0,60,0,0.0,0.0,337.4,60,0,342.9,323.3,0,0,0,28.1,60,0,10.2,60,0,10.4,10.1,7.4,60,0,7.6,7.1,3.9,60,0,4.6,3.0,64.6,60,0,69.0,60.0,28.1,60,0,39.0,18.0,239,0.0,1021.4,60,0,1021.4,0,1007.1,60,0,46.2,60,0
86282,2013-12-03 12:00:00,14040,60,0,0.0,0.0,0.0,60,0,0.0,0.0,0.0,60,0,0.0,0.0,0.0,60,0,0.0,0.0,337.4,60,0,342.9,323.3,0,0,0,28.1,60,0,10.2,60,0,10.4,10.1,7.4,60,0,7.6,7.1,3.9,60,0,4.6,3.0,64.6,60,0,69.0,60.0,28.1,60,0,39.0,18.0,239,0.0,1021.4,60,0,1021.4,0,1007.1,60,0,46.2,60,0
86282,2013-12-04 00:00:00,14050,60,0,0.0,0.0,0.0,60,0,0.0,0.0,0.0,60,0,0.0,0.0,0.0,60,0,0.0,0.0,337.4,60,0,342.9,323.3,0,0,0,28.1,60,0,10.2,60,0,10.4,10.1,7.4,60,0,7.6,7.1,3.9,60,0,4.6,3.0,64.6,60,0,69.0,60.0,28.1,60,0,39.0,18.0,239,0.0,1021.4,60,0,1021.4,0,1007.1,60,0,46.2,60,0
86282,2013-12-04 12:00:00,14060,60,0,0.0,0.0,0.0,60,0,0.0,0.0,0.0,60,0,0.0,0.0,0.0,60,0,0.0,0.0,337.4,60,0,342.9,323.3,0,0,0,28.1,60,0,10.2,60,0,10.4,10.1,7.4,60,0,7.6,7.1,3.9,60,0,4.6,3.0,64.6,60,0,69.0,60.0,28.1,60,0,39.0,18.0,239,0.0,1021.4,60,0,1021.4,0,1007.1,60,0,46.2,60,0
86282,2013-12-05 00:00:00,14070,60,0,0.0,0.0,0.0,60,0,0.0,0.0,0.0,60,0,0.0,0.0,0.0,60,0,0.0,0.0,337.4,60,0,342.9,323.3,0,0,0,28.1,60,0,10.2,60,0,10.4,10.1,7.4,60,0,7.6,7.1,3.9,60,0,4.6,3.0,64.6,60,0,69.0,60.0,28.1,60,0,39.0,18.0,239,0.0,1021.4,60,0,1021.4,0,1007.1,60,0,46.2,60,0
86282,2013-12-05 12:00:00,14080,60,0,0.0,0.0,0.0,60,0,0.0,0.0,0.0,60,0,0.0,0.0,0.0,60,0,0.0,0.0,337.4,60,0,342.9,323.3,0,0,0,28.1,60,0,10.2,60,0,10.4,10.1,7.4,60,0,7.6,7.1,3.9,60,0,4.6,3.0,64.6,60,0,69.0,60.0,28.1,60,0,39.0,18.0,239,0.0,1021.4,60,0,1021.4,0,1007.1,60,0,46.2,60,0
86282,2013-12-06 00:00:00,14090,60,0,0.0,0.0,0.0,60,0,0.0,0.0,0.0,60,0,0.0,0.0,0.0,60,0,0.0,0.0,337.4,60,0,342.9,323.3,0,0,0,28.1,60,0,10.2,60,0,10.4,10.1,7.4,60,0,7.6,7.1,3.9,60,0,4.6,3.0,64.6,60,0,69.0,60.0,28.1,60,0,39.0,18.0,239,0.0,1021.4,60,0,1021.4,0,1007.1,60,0,46.2,60,0
86282,2013-12-06 12:00:00,14100,60,0,0.0,0.0,0.0,60,0,0.0,0.0,0.0,60,0,0.0,0.0,0.0,60,0,0.0,0.0,337.4,60,0,342.9,323.3,0,0,0,28.1,60,0,10.2,60,0,10.4,10.1,7.4,60,0,7.6,7.1,3.9,60,0,4.6,3.0,64.6,60,0,69.0,60.0,28.1,60,0,39.0,18.0,239,0.0,1021.4,60,0,1021.4,0,1007.1,60,0,46.2,60,0
86282,2013-12-07 00:00:00,14110,60,0,0.0,0.0,0.0,60,0,0.0,0.0,0.0,60,0,0.0,0.0,0.0,60,0,0.0,0.0,337.4,60,0,342.9,323.3,0,0,0,28.1,60,0,10.2,60,0,10.4,10.1,7.4,60,0,7.6,7.1,3.9,60,0,4.6,3.0,64.6,60,0,69.0,60.0,28.1,60,0,39.0,18.0,239,0.0,1021.4,60,0,1021.4,0,1007.1,60,0,46.2,60,0
86282,2013-12-07 12:00:00,14120,60,0,0.0,0.0,0.0,60,0,0.0,0.0,0.0,60,0,0.0,0.0,0.0,60,0,0.0,0.0,337.4,60,0,342.9,323.3,0,0,0,28.1,60,0,10.2,60,0,10.4,10.1,7.4,60,0,7.6,7.1,3.9,60,0,4.6,3.0,64.6,60,0,69.0,60.0,28.1,60,0,39.0,18.0,239,0.0,1021.4,60,0,1021.4,0,1007.1,60,0,46.2,60,0
86282,2013-12-08 00:00:00,14130,60,0,0.0,0.0,0.0,60,0,0.0,0.0,0.0,60,0,0.0,0.0,0.0,60,0,0.0,0.0,337.4,60,0,342.9,323.3,0,0,0,28.1,60,0,10.2,60,0,10.4,10.1,7.4,60,0,7.6,7.1,3.9,60,0,4.6,3.0,64.6,60,0,69.0,60.0,28.1,60,0,39.0,18.0,239,0.0,1021.4,60,0,1021.4,0,1007.1,60,0,46.2,60,0
86282,2013-12-08 12:00:00,14140,60,0,0.0,0.0,0.0,60,0,0.0,0.0,0.0,60,0,0.0,0.0,0.0,60,0,0.0,0.0,337.4,60,0,342.9,323.3,0,0,0,28.1,60,0,10.2,60,0,10.4,10.1,7.4,60,0,7.6,7.1,3.9,60,0,4.6,3.0,64.6,60,0,69.0,60.0,28.1,60,0,39.0,18.0,239,0.0,1021.4,60,0,1021.4,0,1007.1,60,0,46.2,60,0
86282,2013-12-09 00:00:00,14150,60,0,0.0,0.0,0.0,60,0,0.0,0.0,0.0,60,0,0.0,0.0,0.0,60,0,0.0,0.0,337.4,60,0,342.9,323.3,0,0,0,28.1,60,0,10.2,60,0,10.4,10.1,7.4,60,0,7.6,7.1,3.9,60,0,4.6,3.0,64.6,60,0,69.0,60.0,28.1,60,0,39.0,18.0,239,0.0,1021.4,60,0,1021.4,0,1007.1,60,0,46.2,60,0
86282,2013-12-09 12:00:00,14160,60,0,0.0,0.0,0.0,60,0,0.0,0.0,0.0,60,0,0.0,0.0,0.0,60,0,0.0,0.0,337.4,60,0,342.9,323.3,0,0,0,28.1,60,0,10.2,60,0,10.4,10.1,7.4,60,0,7.6,7.1,3.9,60,0,4.6,3.0,64.6,60,0,69.0,60.0,28.1,60,0,39.0,18.0,239,0.0,1021.4,60,0,1021.4,0,1007.1,60,0,46.2,60,0
86282,2013-12-10 00:00:00,14170,60,0,0.0,0.0,0.0,60,0,0.0,0.0,0.0,60,0,0.0,0.0,0.0,60,0,0.0,0.0,337.4,60,0,342.9,323.3,0,0,0,28.1,60,0,10.2,60,0,10.4,10.1,7.4,60,0,7.6,7.1,3.9,60,0,4.6,3.0,64.6,60,0,69.0,60.0,28.1,60,0,39.0,18.0,239,0.0,1021.4,60,0,1021.4,0,1007.1,60,0,46.2,60,0
86282,2013-12-10 12:00:00,14180,60,0,0.0,0.0,0.0,60,0,0.0,0.0,0.0,60,0,0.0,0.0,0.0,60,0,0.0,0.0,337.4,60,0,342.9,323.3,0,0,0,28.1,60,0,10.2,60,0,10.4,10.1,7.4,60,0,7.6,7.1,3.9,60,0,4.6,3.0,64.6,60,0,69.0,60.0,28.1,60,0,39.0,18.0,239,0.0,1021.4,60,0,1021.4,0,1007.1,60,0,46.2,60,0
86282,2013-12-11 00:00:00,14190,60,0,0.0,0.0,0.0,60,0,0.0,0.0,0.0,60,0,0.0,0.0,0.0,60,0,0.0,0.0,337.4,60,0,342.9,323.3,0,0,0,28.1,60,0,10.2,60,0,10.4,10.1,7.4,60,0,7.6,7.1,3.9,60,0,4.6,3.0,64.6,60,0,69.0,60.0,28.1,60,0,39.0,18.0,239,0.0,1021.4,60,0,1021.4,0,1007.1,60,0,46.2,60,0
86282,2013-12-11 12:00:00,14200,60,0,0.0,0.0,0.0,60,0,0.0,0.0,0.0,60,0,0.0,0.0,0.0,60,0,0.0,0.0,337.4,60,0,342.9,323.3,0,0,0,28.1,60,0,10.2,60,0,10.4,10.1,7.4,60,0,7.6,7.1,3.9,60,0,4.6,3.0,64.6,60,0,69.0,60.0,28.1,60,0,39.0,18.0,239,0.0,1021.4,60,0,1021.4,0,1007.1,60,0,46.2,60,0
86282,2013-12-12 00:00:00,14210,60,0,0.0,0.0,0.0,60,0,0.0,0.0,0.0,60,0,0.0,0.0,0.0,60,0,0.0,0.0,337.4,60,0,342.9,323.3,0,0,0,28.1,60,0,10.2,60,0,10.4,10.1,7.4,60,0,7.6,7.1,3.9,60,0,4.6,3.0,64.6,60,0,69.0,60.0,28.1,60,0,39.0,18.0,239,0.0,1021.4,60,0,1021.4,0,1007.1,60,0,46.2,60,0
86282,2013-12-12 12:00:00,14220,60,0,0.0,0.0,0.0,60,0,0.0,0.0,0.0,60,0,0.0,0.0,0.0,60,0,0.0,0.0,337.4,60,0,342.9,323.3,0,0,0,28.1,60,0,10.2,60,0,10.4,10.1,7.4,60,0,7.6,7.1,3.9,60,0,4.6,3.0,64.6,60,0,69.0,60.0,28.1,60,0,39.0,18.0,239,0.0,1021.4,60,0,1021.4,0,1007.1,60,0,46.2,60,0
86282,2013-12-13 00:00:00,14230,60,0,0.0,0.0,0.0,60,0,0.0,0.0,0.0,60,0,0.0,0.0,0.0,60,0,0.0,0.0,337.4,60,0,342.9,323.3,0,0,0,28.1,60,0,10.2,60,0,10.4,10.1,7.4,60,0,7.6,7.1,3.9,60,0,4.6,3.0,64.6,60,0,69.0,60.0,28.1,60,0,39.0,18.0,239,0.0,1021.4,60,0,1021.4,0,1007.1,60,0,46.2,60,0
86282,2013-12-13 12:00:00,14240,60,0,0.0,0.0,0.0,60,0,0.0,0.0,0.0,60,0,0.0,0.0,0.0,60,0,0.0,0.0,337.4,60,0,342.9,323.3,0,0,0,28.1,60,0,10.2,60,0,10.4,10.1,7.4,60,0,7.6,7.1,3.9,60,0,4.6,3.0,64.6,60,0,69.0,60.0,28.1,60,0,39.0,18.0,239,0.0,1021.4,60,0,1021.4,0,1007.1,60,0,46.2,60,0
86282,2013-12-14 00:00:00,14250,60,0,0.0,0.0,0.0,60,0,0.0,0.0,0.0,60,0,0.0,0.0,0.0,60,0,0.0,0.0,337.4,60,0,342.9,323.3,0,0,0,28.1,60,0,10.2,60,0,10.4,10.1,7.4,60,0,7.6,7.1,3.9,60,0,4.6,3.0,64.6,60,0,69.0,60.0,28.1,60,0,39.0,18.0,239,0.0,1021.4,60,0,1021.4,0,1007.1,60,0,46.2,60,0
86282,2013-12-14 12:00:00,14260,60,0,0.0,0.0,0.0,60,0,0.0,0.0,0.0,60,0,0.0,0.0,0.0,60,0,0.0,0.0,337.4,60,0,342.9,323.3,0,0,0,28.1,60,0,10.2,60,0,10.4,10.1,7.4,60,0,7.6,7.1,3.9,60,0,4.6,3.0,64.6,60,0,69.0,60.0,28.1,60,0,39.0,18.0,239,0.0,1021.4,60,0,1021.4,0,1007.1,60,0,46.2,60,0
86282,2013-12-15 00:00:00,14270,60,0,0.0,0.0,0.0,60,0,0.0,0.0,0.0,60,0,0.0,0.0,0.0,60,0,0.0,0.0,337.4,60,0,342.9,323.3,0,0,0,28.1,60,0,10.2,60,0,10.4,10.1,7.4,60,0,7.6,7.1,3.9,60,0,4.6,3.0,64.6,60,0,69.0,60.0,28.1,60,0,39.0,18.0,239,0.0,1021.4,60,0,1021.4,0,1007.1,60,0,46.2,60,0
86282,2013-12-15 12:00:00,14280,60,0,0.0,0.0,0.0,60,0,0.0,0.0,0.0,60,0,0.0,0.0,0.0,60,0,0.0,0.0,337.4,60,0,342.9,323.3,0,0,0,28.1,60,0,10.2,60,0,10.4,10.1,7.4,60,0,7.6,7.1,3.9,60,0,4.6,3.0,64.6,60,0,69.0,60.0,28.1,60,0,39.0,18.0,239,0.0,1021.4,60,0,1021.4,0,1007.1,60,0,46.2,60,0
86282,2013-12-16 00:00:00,14290,60,0,0.0,0.0,0.0,60,0,0.0,0.0,0.0,60,0,0.0,0.0,0.0,60,0,0.0,0.0,337.4,60,0,342.9,323.3,0,0,0,28.1,60,0,10.2,60,0,10.4,10.1,7.4,60,0,7.6,7.1,3.9,60,0,4.6,3.0,64.6,60,0,69.0,60.0,28.1,60,0,39.0,18.0,239,0.0,1021.4,60,0,1021.4,0,1007.1,60,0,46.2,60,0
86282,2013-12-16 12:00:00,14300,60,0,0.0,0.0,0.0,60,0,0.0,0.0,0.0,60,0,0.0,0.0,0.0,60,0,0.0,0.0,337.4,60,0,342.9,323.3,0,0,0,28.1,60,0,10.2,60,0,10.4,10.1,7.4,60,0,7.6,7.1,3.9,60,0,4.6,3.0,64.6,60,0,69.0,60.0,28.1,60,0,39.0,18.0,239,0.0,1021.4,60,0,1021.4,0,1007.1,60,0,46.2,60,0
86282,2013-12-17 00:00:00,14310,60,0,0.0,0.0,0.0,60,0,0.0,0.0,0.0,60,0,0.0,0.0,0.0,60,0,0.0,0.0,337.4,60,0,342.9,323.3,0,0,0,28.1,60,0,10.2,60,0,10.4,10.1,7.4,60,0,7.6,7.1,3.9,60,0,4.6,3.0,64.6,60,0,69.0,60.0,28.1,60,0,39.0,18.0,239,0.0,1021.4,60,0,1021.4,0,1007.1,60,0,46.2,60,0
86282,2013-12-17 12:00:00,14320,60,0,0.0,0.0,0.0,60,0,0.0,0.0,0.0,60,0,0.0,0.0,0.0,60,0,0.0,0.0,337.4,60,0,342.9,323.3,0,0,0,28.1,60,0,10.2,60,0,10.4,10.1,7.4,60,0,7.6,7.1,3.9,60,0,4.6,3.0,64.6,60,0,69.0,60.0,28.1,60,0,39.0,18.0,239,0.0,1021.4,60,0,1021.4,0,1007.1,60,0,46.2,60,0
86282,2013-12-18 00:00:00,14330,60,0,0.0,0.0,0.0,60,0,0.0,0.0,0.0,60,0,0.0,0.0,0.0,60,0,0.0,0.0,337.4,60,0,342.9,323.3,0,0,0,28.1,60,0,10.2,60,0,10.4,10.1,7.4,60,0,7.6,7.1,3.9,60,0,4.6,3.0,64.6,60,0,69.0,60.0,28.1,60,0,39.0,18.0,239,0.0,1021.4,60,0,1021.4,0,1007.1,60,0,46.2,60,0
86282,2013-12-18 12:00:00,14340,60,0,0.0,0.0,0.0,60,0,0.0,0.0,0.0,60,0,0.0,0.0,0.0,60,0,0.0,0.0,337.4,60,0,342.9,323.3,0,0,0,28.1,60,0,10.2,60,0,10.4,10.1,7.4,60,0,7.6,7.1,3.9,60,0,4.6,3.0,64.6,60,0,69.0,60.0,28.1,60,0,39.0,18.0,239,0.0,1021.4,60,0,1021.4,0,1007.1,60,0,46.2,60,0
86282,2013-12-19 00:00:00,14350,60,0,0.0,0.0,0.0,60,0,0.0,0.0,0.0,60,0,0.0,0.0,0.0,60,0,0.0,0.0,337.4,60,0,342.9,323.3,0,0,0,28.1,60,0,10.2,60,0,10.4,10.1,7.4,60,0,7.6,7.1,3.9,60,0,4.6,3.0,64.6,60,0,69.0,60.0,28.1,60,0,39.0,18.0,239,0.0,1021.4,60,0,1021.4,0,1007.1,60,0,46.2,60,0
86282,2013-12-19 12:00:00,14360,60,0,0.0,0.0,0.0,60,0,0.0,0.0,0.0,60,0,0.0,0.0,0.0,60,0,0.0,0.0,337.4,60,0,342.9,323.3,0,0,0,28.1,60,0,10.2,60,0,10.4,10.1,7.4,60,0,7.6,7.1,3.9,60,0,4.6,3.0,64.6,60,0,69.0,60.0,28.1,60,0,39.0,18.0,239,0.0,1021.4,60,0,1021.4,0,1007.1,60,0,46.2,60,0
86282,2013-12-20 00:00:00,14370,60,0,0.0,0.0,0.0,60,0,0.0,0.0,0.0,60,0,0.0,0.0,0.0,60,0,0.0,0.0,337.4,60,0,342.9,323.3,0,0,0,28.1,60,0,10.2,60,0,10.4,10.1,7.4,60,0,7.6,7.1,3.9,60,0,4.6,3.0,64.6,60,0,69.0,60.0,28.1,60,0,39.0,18.0,239,0.0,1021.4,60,0,1021.4,0,1007.1,60,0,46.2,60,0
86282,2013-12-20 12:00:00,14380,60,0,0.0,0.0,0.0,60,0,0.0,0.0,0.0,60,0,0.0,0.0,0.0,60,0,0.0,0.0,337.4,60,0,342.9,323.3,0,0,0,28.1,60,0,10.2,60,0,10.4,10.1,7.4,60,0,7.6,7.1,3.9,60,0,4.6,3.0,64.6,60,0,69.0,60.0,28.1,60,0,39.0,18.0,239,0.0,1021.4,60,0,1021.4,0,1007.1,60,0,46.2,60,0
86282,2013-12-21 00:00:00,14390,60,0,0.0,0.0,0.0,60,0,0.0,0.0,0.0,60,0,0.0,0.0,0.0,60,0,0.0,0.0,337.4,60,0,342.9,323.3,0,0,0,28.1,60,0,10.2,60,0,10.4,10.1,7.4,60,0,7.6,7.1,3.9,60,0,4.6,3.0,64.6,60,0,69.0,60.0,28.1,60,0,39.0,18.0,239,0.0,1021.4,60,0,1021.4,0,1007.1,60,0,46.2,60,0
86282,2013-12-21 12:00:00,14400,60,0,0.0,0.0,0.0,60,0,0.0,0.0,0.0,60,0,0.0,0.0,0.0,60,0,0.0,0.0,337.4,60,0,342.9,323.3,0,0,0,28.1,60,0,10.2,60,0,10.4,10.1,7.4,60,0,7.6,7.1,3.9,60,0,4.6,3.0,64.6,60,0,69.0,60.0,28.1,60,0,39.0,18.0,239,0.0,1021.4,60,0,1021.4,0,1007.1,60,0,46.2,60,0
86282,2013-12-22 00:00:00,14410,60,0,0.0,0.0,0.0,60,0,0.0,0.0,0.0,60,0,0.0,0.0,0.0,60,0,0.0,0.0,337.4,60,0,342.9,323.3,0,0,0,28.1,60,0,10.2,60,0,10.4,10.1,7.4,60,0,7.6,7.1,3.9,60,0,4.6,3.0,64.6,60,0,69.0,60.0,28.1,60,0,39.0,18.0,239,0.0,1021.4,60,0,1021.4,0,1007.1,60,0,46.2,60,0
86282,2013-12-22 12:00:00,14420,60,0,0.0,0.0,0.0,60,0,0.0,0.0,0.0,60,0,0.0,0.0,0.0,60,0,0.0,0.0,337.4,60,0,342.9,323.3,0,0,0,28.1,60,0,10.2,60,0,10.4,10.1,7.4,60,0,7.6,7.1,3.9,60,0,4.6,3.0,64.6,60,0,69.0,60.0,28.1,60,0,39.0,18.0,239,0.0,1021.4,60,0,1021.4,0,1007.1,60,0,46.2,60,0
86282,2013-12-23 00:00:00,14430,60,0,0.0,0.0,0.0,60,0,0.0,0.0,0.0,60,0,0.0,0.0,0.0,60,0,0.0,0.0,337.4,60,0,342.9,323.3,0,0,0,28.1,60,0,10.2,60,0,10.4,10.1,7.4,60,0,7.6,7.1,3.9,60,0,4.6,3.0,64.6,60,0,69.0,60.0,28.1,60,0,39.0,18.0,239,0.0,1021.4,60,0,1021.4,0,1007.1,60,0,46.2,60,0
86282,2013-12-23 12:00:00,14440,60,0,0.0,0.0,0.0,60,0,0.0,0.0,0.0,60,0,0.0,0.0,0.0,60,0,0.0,0.0,337.4,60,0,342.9,323.3,0,0,0,28.1,60,0,10.2,60,0,10.4,10.1,7.4,60,0,7.6,7.1,3.9,60,0,4.6,3.0,64.6,60,0,69.0,60.0,28.1,60,0,39.0,18.0,239,0.0,1021.4,60,0,1021.4,0,1007.1,60,0,46.2,60,0
86282,2013-12-24 00:00:00,14450,60,0,0.0,0.0,0.0,60,0,0.0,0.0,0.0,60,0,0.0,0.0,0.0,60,0,0.0,0.0,337.4,60,0,342.9,323.3,0,0,0,28.1,60,0,10.2,60,0,10.4,10.1,7.4,60,0,7.6,7.1,3.9,60,0,4.6,3.0,64.6,60,0,69.0,60.0,28.1,60,0,39.0,18.0,239,0.0,1021.4,60,0,1021.4,0,1007.1,60,0,46.2,60,0
86282,2013-12-24 12:00:00,14460,60,0,0.0,0.0,0.0,60,0,0.0,0.0,0.0,60,0,0.0,0.0,0.0,60,0,0.0,0.0,337.4,60,0,342.9,323.3,0,0,0,28.1,60,0,10.2,60,0,10.4,10.1,7.4,60,0,7.6,7.1,3.9,60,0,4.6,3.0,64.6,60,0,69.0,60.0,28.1,60,0,39.0,18.0,239,0.0,1021.4,60,0,1021.4,0,1007.1,60,0,46.2,60,0
86282,2013-12-25 00:00:00,14470,60,0,0.0,0.0,0.0,60,0,0.0,0.0,0.0,60,0,0.0,0.0,0.0,60,0,0.0,0.0,337.4,60,0,342.9,323.3,0,0,0,28.1,60,0,10.2,60,0,10.4,10.1,7.4,60,0,7.6,7.1,3.9,60,0,4.6,3.0,64.6,60,0,69.0,60.0,28.1,60,0,39.0,18.0,239,0.0,1021.4,60,0,1021.4,0,1007.1,60,0,46.2,60,0
86282,2013-12-25 12:00:00,14480,60,0,0.0,0.0,0.0,60,0,0.0,0.0,0.0,60,0,0.0,0.0,0.0,60,0,0.0,0.0,337.4,60,0,342.9,323.3,0,0,0,28.1,60,0,10.2,60,0,10.4,10.1,7.4,60,0,7.6,7.1,3.9,60,0,4.6,3.0,64.6,60,0,69.0,60.0,28.1,60,0,39.0,18.0,239,0.0,1021.4,60,0,1021.4,0,1007.1,60,0,46.2,60,0
86282,2013-12-26 00:00:00,14490,60,0,0.0,0.0,0.0,60,0,0.0,0.0,0.0,60,0,0.0,0.0,0.0,60,0,0.0,0.0,337.4,60,0,342.9,323.3,0,0,0,28.1,60,0,10.2,60,0,10.4,10.1,7.4,60,0,7.6,7.1,3.9,60,0,4.6,3.0,64.6,60,0,69.0,60.0,28.1,60,0,39.0,18.0,239,0.0,1021.4,60,0,1021.4,0,1007.1,60,0,46.2,60,0
86282,2013-12-26 12:00:00,14500,60,0,0.0,0.0,0.0,60,0,0.0,0.0,0.0,60,0,0.0,0.0,0.0,60,0,0.0,0.0,337.4,60,0,342.9,323.3,0,0,0,28.1,60,0,10.2,60,0,10.4,10.1,7.4,60,0,7.6,7.1,3.9,60,0,4.6,3.0,64.6,60,0,69.0,60.0,28.1,60,0,39.0,18.0,239,0.0,1021.4,60,0,1021.4,0,1007.1,60,0,46.2,60,0
86282,2013-12-27 00:00:00,14510,60,0,0.0,0.0,0.0,60,0,0.0,0.0,0.0,60,0,0.0,0.0,0.0,60,0,0.0,0.0,337.4,60,0,342.9,323.3,0,0,0,28.1,60,0,10.2,60,0,10.4,10.1,7.4,60,0,7.6,7.1,3.9,60,0,4.6,3.0,64.6,60,0,69.0,60.0,28.1,60,0,39.0,18.0,239,0.0,1021.4,60,0,1021.4,0,1007.1,60,0,46.2,60,0
86282,2013-12-27 12:00:00,14520,60,0,0.0,0.0,0.0,60,0,0.0,0.0,0.0,60,0,0.0,0.0,0.0,60,0,0.0,0.0,337.4,60,0,342.9,323.3,0,0,0,28.1,60,0,10.2,60,0,10.4,10.1,7.4,60,0,7.6,7.1,3.9,60,0,4.6,3.0,64.6,60,0,69.0,60.0,28.1,60,0,39.0,18.0,239,0.0,1021.4,60,0,1021.4,0,1007.1,60,0,46.2,60,0
86282,2013-12-28 00:00:00,14530,60,0,0.0,0.0,0.0,60,0,0.0,0.0,0.0,60,0,0.0,0.0,0.0,60,0,0.0,0.0,337.4,60,0,342.9,323.3,0,0,0,28.1,60,0,10.2,60,0,10.4,10.1,7.4,60,0,7.6,7.1,3.9,60,0,4.6,3.0,64.6,60,0,69.0,60.0,28.1,60,0,39.0,18.0,239,0.0,1021.4,60,0,1021.4,0,1007.1,60,0,46.2,60,0
86282,2013-12-28 12:00:00,14540,60,0,0.0,0.0,0.0,60,0,0.0,0.0,0.0,60,0,0.0,0.0,0.0,60,0,0.0,0.0,337.4,60,0,342.9,323.3,0,0,0,28.1,60,0,10.2,60,0,10.4,10.1,7.4,60,0,7.6,7.1,3.9,60,0,4.6,3.0,64.6,60,0,69.0,60.0,28.1,60,0,39.0,18.0,239,0.0,1021.4,60,0,1021.4,0,1007.1,60,0,46.2,60,0
86282,2013-12-29 00:00:00,14550,60,0,0.0,0.0,0.0,60,0,0.0,0.0,0.0,60,0,0.0,0.0,0.0,60,0,0.0,0.0,337.4,60,0,342.9,323.3,0,0,0,28.1,60,0,10.2,60,0,10.4,10.1,7.4,60,0,7.6,7.1,3.9,60,0,4.6,3.0,64.6,60,0,69.0,60.0,28.1,60,0,39.0,18.0,239,0.0,1021.4,60,0,1021.4,0,1007.1,60,0,46.2,60,0
86282,2013-12-29 12:00:00,14560,60,0,0.0,0.0,0.0,60,0,0.0,0.0,0.0,60,0,0.0,0.0,0.0,60,0,0.0,0.0,337.4,60,0,342.9,323.3,0,0,0,28.1,60,0,10.2,60,0,10.4,10.1,7.4,60,0,7.6,7.1,3.9,60,0,4.6,3.0,64.6,60,0,69.0,60.0,28.1,60,0,39.0,18.0,239,0.0,1021.4,60,0,1021.4,0,1007.1,60,0,46.2,60,0
86282,2013-12-30 00:00:00,14570,60,0,0.0,0.0,0.0,60,0,0.0,0.0,0.0,60,0,0.0,0.0,0.0,60,0,0.0,0.0,337.4,60,0,342.9,323.3,0,0,0,28.1,60,0,10.2,60,0,10.4,10.1,7.4,60,0,7.6,7.1,3.9,60,0,4.6,3.0,64.6,60,0,69.0,60.0,28.1,60,0,39.0,18.0,239,0.0,1021.4,60,0,1021.4,0,1007.1,60,0,46.2,60,0
86282,2013-12-30 12:00:00,14580,60,0,0.0,0.0,0.0,60,0,0.0,0.0,0.0,60,0,0.0,0.0,0.0,60,0,0.0,0.0,337.4,60,0,342.9,323.3,0,0,0,28.1,60,0,10.2,60,0,10.4,10.1,7.4,60,0,7.6,7.1,3.9,60,0,4.6,3.0,64.6,60,0,69.0,60.0,28.1,60,0,39.0,18.0,239,0.0,1021.4,60,0,1021.4,0,1007.1,60,0,46.2,60,0
86282,2013-12-31 00:00:00,14590,60,0,0.0,0.0,0.0,60,0,0.0,0.0,0.0,60,0,0.0,0.0,0.0,60,0,0.0,0.0,337.4,60,0,342.9,323.3,0,0,0,28.1,60,0,10.2,60,0,10.4,10.1,7.4,60,0,7.6,7.1,3.9,60,0,4.6,3.0,64.6,60,0,69.0,60.0,28.1,60,0,39.0,18.0,239,0.0,1021.4,60,0,1021.4,0,1007.1,60,0,46.2,60,0
86282,2013-12-31 12:00:00,14600,60,0,0.0,0.0,0.0,60,0,0.0,0.0,0.0,60,0,0.0,0.0,0.0,60,0,0.0,0.0,337.4,60,0,342.9,323.3,0,0,0,28.1,60,0,10.2,60,0,10.4,10.1,7.4,60,0,7.6,7.1,3.9,60,0,4.6,3.0,64.6,60,0,69.0,60.0,28.1,60,0,39.0,18.0,239,0.0,1021.4,60,0,1021.4,0,1007.1,60,0,46.2,60,0
86282,2014-01-01 00:00:00,14610,60,0,0.0,0.0,0.0,60,0,0.0,0.0,0.0,60,0,0.0,0.0,0.0,60,0,0.0,0.0,337.4,60,0,342.9,323.3,0,0,0,28.1,60,0,10.2,60,0,10.4,10.1,7.4,60,0,7.6,7.1,3.9,60,0,4.6,3.0,64.6,60,0,69.0,60.0,28.1,60,0,39.0,18.0,239,0.0,1021.4,60,0,1021.4,0,1007.1,60,0,46.2,60,0
86282,2014-01-01 12:00:00,14620,60,0,0.0,0.0,0.0,60,0,0.0,0.0,0.0,60,0,0.0,0.0,0.0,60,0,0.0,0.0,337.4,60,0,342.9,323.3,0,0,0,28.1,60,0,10.2,60,0,10.4,10.1,7.4,60,0,7.6,7.1,3.9,60,0,4.6,3.0,64.6,60,0,69.0,60.0,28.1,60,0,39.0,18.0,239,0.0,1021.4,60,0,1021.4,0,1007.1,60,0,46.2,60,0
86282,2014-01-02 00:00:00,14630,60,0,0.0,0.0,0.0,60,0,0.0,0.0,0.0,60,0,0.0,0.0,0.0,60,0,0.0,0.0,337.4,60,0,342.9,323.3,0,0,0,28.1,60,0,10.2,60,0,10.4,10.1,7.4,60,0,7.6,7.1,3.9,60,0,4.6,3.0,64.6,60,0,69.0,60.0,28.1,60,0,39.0,18.0,239,0.0,1021.4,60,0,1021.4,0,1007.1,60,0,46.2,60,0
86282,2014-01-02 12:00:00,14640,60,0,0.0,0.0,0.0,60,0,0.0,0.0,0.0,60,0,0.0,0.0,0.0,60,0,0.0,0.0,337.4,60,0,342.9,323.3,0,0,0,28.1,60,0,10.2,60,0,10.4,10.1,7.4,60,0,7.6,7.1,3.9,60,0,4.6,3.0,64.6,60,0,69.0,60.0,28.1,60,0,39.0,18.0,239,0.0,1021.4,60,0,1021.4,0,1007.1,60,0,46.2,60,0
86282,2014-01-03 00:00:00,14650,60,0,0.0,0.0,0.0,60,0,0.0,0.0,0.0,60,0,0.0,0.0,0.0,60,0,0.0,0.0,337.4,60,0,342.9,323.3,0,0,0,28.1,60,0,10.2,60,0,10.4,10.1,7.4,60,0,7.6,7.1,3.9,60,0,4.6,3.0,64.6,60,0,69.0,60.0,28.1,60,0,39.0,18.0,239,0.0,1021.4,60,0,1021.4,0,1007.1,60,0,46.2,60,0
86282,2014-01-03 12:00:00,14660,60,0,0.0,0.0,0.0,60,0,0.0,0.0,0.0,60,0,0.0,0.0,0.0,60,0,0.0,0.0,337.4,60,0,342.9,323.3,0,0,0,28.1,60,0,10.2,60,0,10.4,10.1,7.4,60,0,7.6,7.1,3.9,60,0,4.6,3.0,64.6,60,0,69.0,60.0,28.1,60,0,39.0,18.0,239,0.0,1021.4,60,0,1021.4,0,1007.1,60,0,46.2,60,0
86282,2014-01-04 00:00:00,14670,60,0,0.0,0.0,0.0,60,0,0.0,0.0,0.0,60,0,0.0,0.0,0.0,60,0,0.0,0.0,337.4,60,0,342.9,323.3,0,0,0,28.1,60,0,10.2,60,0,10.4,10.1,7.4,60,0,7.6,7.1,3.9,60,0,4.6,3.0,64.6,60,0,69.0,60.0,28.1,60,0,39.0,18.0,239,0.0,1021.4,60,0,1021.4,0,1007.1,60,0,46.2,60,0
86282,2014-01-04 12:00:00,14680,60,0,0.0,0.0,0.0,60,0,0.0,0.0,0.0,60,0,0.0,0.0,0.0,60,0,0.0,0.0,337.4,60,0,342.9,323.3,0,0,0,28.1,60,0,10.2,60,0,10.4,10.1,7.4,60,0,7.6,7.1,3.9,60,0,4.6,3.0,64.6,60,0,69.0,60.0,28.1,60,0,39.0,18.0,239,0.0,1021.4,60,0,1021.4,0,1007.1,60,0,46.2,60,0
86282,2014-01-05 00:00:00,14690,60,0,0.0,0.0,0.0,60,0,0.0,0.0,0.0,60,0,0.0,0.0,0.0,60,0,0.0,0.0,337.4,60,0,342.9,323.3,0,0,0,28.1,60,0,10.2,60,0,10.4,10.1,7.4,60,0,7.6,7.1,3.9,60,0,4.6,3.0,64.6,60,0,69.0,60.0,28.1,60,0,39.0,18.0,239,0.0,1021.4,60,0,1021.4,0,1007.1,60,0,46.2,60,0
86282,2014-01-05 12:00:00,14700,60,0,0.0,0.0,0.0,60,0,0.0,0.0,0.0,60,0,0.0,0.0,0.0,60,0,0.0,0.0,337.4,60,0,342.9,323.3,0,0,0,28.1,60,0,10.2,60,0,10.4,10.1,7.4,60,0,7.6,7.1,3.9,60,0,4.6,3.0,64.6,60,0,69.0,60.0,28.1,60,0,39.0,18.0,239,0.0,1021.4,60,0,1021.4,0,1007.1,60,0,46.2,60,0
86282,2014-01-06 00:00:00,14710,60,0,0.0,0.0,0.0,60,0,0.0,0.0,0.0,60,0,0.0,0.0,0.0,60,0,0.0,0.0,337.4,60,0,342.9,323.3,0,0,0,28.1,60,0,10.2,60,0,10.4,10.1,7.4,60,0,7.6,7.1,3.9,60,0,4.6,3.0,64.6,60,0,69.0,60.0,28.1,60,0,39.0,18.0,239,0.0,1021.4,60,0,1021.4,0,1007.1,60,0,46.2,60,0
86282,2014-01-06 12:00:00,14720,60,0,0.0,0.0,0.0,60,0,0.0,0.0,0.0,60,0,0.0,0.0,0.0,60,0,0.0,0.0,337.4,60,0,342.9,323.3,0,0,0,28.1,60,0,10.2,60,0,10.4,10.1,7.4,60,0,7.6,7.1,3.9,60,0,4.6,3.0,64.6,60,0,69.0,60.0,28.1,60,0,39.0,18.0,239,0.0,1021.4,60,0,1021.4,0,1007.1,60,0,46.2,60,0
86282,2014-01-07 00:00:00,14730,60,0,0.0,0.0,0.0,60,0,0.0,0.0,0.0,60,0,0.0,0.0,0.0,60,0,0.0,0.0,337.4,60,0,342.9,323.3,0,0,0,28.1,60,0,10.2,60,0,10.4,10.1,7.4,60,0,7.6,7.1,3.9,60,0,4.6,3.0,64.6,60,0,69.0,60.0,28.1,60,0,39.0,18.0,239,0.0,1021.4,60,0,1021.4,0,1007.1,60,0,46.2,60,0
86282,2014-01-07 12:00:00,14740,60,0,0.0,0.0,0.0,60,0,0.0,0.0,0.0,60,0,0.0,0.0,0.0,60,0,0.0,0.0,337.4,60,0,342.9,323.3,0,0,0,28.1,60,0,10.2,60,0,10.4,10.1,7.4,60,0,7.6,7.1,3.9,60,0,4.6,3.0,64.6,60,0,69.0,60.0,28.1,60,0,39.0,18.0,239,0.0,1021.4,60,0,1021.4,0,1007.1,60,0,46.2,60,0
86282,2014-01-08 00:00:00,14750,60,0,0.0,0.0,0.0,60,0,0.0,0.0,0.0,60,0,0.0,0.0,0.0,60,0,0.0,0.0,337.4,60,0,342.9,323.3,0,0,0,28.1,60,0,10.2,60,0,10.4,10.1,7.4,60,0,7.6,7.1,3.9,60,0,4.6,3.0,64.6,60,0,69.0,60.0,28.1,60,0,39.0,18.0,239,0.0,1021.4,60,0,1021.4,0,1007.1,60,0,46.2,60,0
86282,2014-01-08 12:00:00,14760,60,0,0.0,0.0,0.0,60,0,0.0,0.0,0.0,60,0,0.0,0.0,0.0,60,0,0.0,0.0,337.4,60,0,342.9,323.3,0,0,0,28.1,60,0,10.2,60,0,10.4,10.1,7.4,60,0,7.6,7.1,3.9,60,0,4.6,3.0,64.6,60,0,69.0,60.0,28.1,60,0,39.0,18.0,239,0.0,1021.4,60,0,1021.4,0,1007.1,60,0,46.2,60,0
86282,2014-01-09 00:00:00,14770,60,0,0.0,0.0,0.0,60,0,0.0,0.0,0.0,60,0,0.0,0.0,0.0,60,0,0.0,0.0,337.4,60,0,342.9,323.3,0,0,0,28.1,60,0,10.2,60,0,10.4,10.1,7.4,60,0,7.6,7.1,3.9,60,0,4.6,3.0,64.6,60,0,69.0,60.0,28.1,60,0,39.0,18.0,239,0.0,1021.4,60,0,1021.4,0,1007.1,60,0,46.2,60,0
86282,2014-01-09 12:00:00,14780,60,0,0.0,0.0,0.0,60,0,0.0,0.0,0.0,60,0,0.0,0.0,0.0,60,0,0.0,0.0,337.4,60,0,342.9,323.3,0,0,0,28.1,60,0,10.2,60,0,10.4,10.1,7.4,60,0,7.6,7.1,3.9,60,0,4.6,3.0,64.6,60,0,69.0,60.0,28.1,60,0,39.0,18.0,239,0.0,1021.4,60,0,1021.4,0,1007.1,60,0,46.2,60,0
86282,2014-01-10 00:00:00,14790,60,0,0.0,0.0,0.0,60,0,0.0,0.0,0.0,60,0,0.0,0.0,0.0,60,0,0.0,0.0,337.4,60,0,342.9,323.3,0,0,0,28.1,60,0,10.2,60,0,10.4,10.1,7.4,60,0,7.6,7.1,3.9,60,0,4.6,3.0,64.6,60,0,69.0,60.0,28.1,60,0,39.0,18.0,239,0.0,1021.4,60,0,1021.4,0,1007.1,60,0,46.2,60,0
86282,2014-01-10 12:00:00,14800,60,0,0.0,0.0,0.0,60,0,0.0,0.0,0.0,60,0,0.0,0.0,0.0,60,0,0.0,0.0,337.4,60,0,342.9,323.3,0,0,0,28.1,60,0,10.2,60,0,10.4,10.1,7.4,60,0,7.6,7.1,3.9,60,0,4.6,3.0,64.6,60,0,69.0,60.0,28.1,60,0,39.0,18.0,239,0.0,1021.4,60,0,1021.4,0,1007.1,60,0,46.2,60,0
86282,2014-01-11 00:00:00,14810,60,0,0.0,0.0,0.0,60,0,0.0,0.0,0.0,60,0,0.0,0.0,0.0,60,0,0.0,0.0,337.4,60,0,342.9,323.3,0,0,0,28.1,60,0,10.2,60,0,10.4,10.1,7.4,60,0,7.6,7.1,3.9,60,0,4.6,3.0,64.6,60,0,69.0,60.0,28.1,60,0,39.0,18.0,239,0.0,1021.4,60,0,1021.4,0,1007.1,60,0,46.2,60,0
86282,2014-01-11 12:00:00,14820,60,0,0.0,0.0,0.0,60,0,0.0,0.0,0.0,60,0,0.0,0.0,0.0,60,0,0.0,0.0,337.4,60,0,342.9,323.3,0,0,0,28.1,60,0,10.2,60,0,10.4,10.1,7.4,60,0,7.6,7.1,3.9,60,0,4.6,3.0,64.6,60,0,69.0,60.0,28.1,60,0,39.0,18.0,239,0.0,1021.4,60,0,1021.4,0,1007.1,60,0,46.2,60,0
86282,2014-01-12 00:00:00,14830,60,0,0.0,0.0,0.0,60,0,0.0,0.0,0.0,60,0,0.0,0.0,0.0,60,0,0.0,0.0,337.4,60,0,342.9,323.3,0,0,0,28.1,60,0,10.2,60,0,10.4,10.1,7.4,60,0,7.6,7.1,3.9,60,0,4.6,3.0,64.6,60,0,69.0,60.0,28.1,60,0,39.0,18.0,239,0.0,1021.4,60,0,1021.4,0,1007.1,60,0,46.2,60,0
86282,2014-01-12 12:00:00,14840,60,0,0.0,0.0,0.0,60,0,0.0,0.0,0.0,60,0,0.0,0.0,0.0,60,0,0.0,0.0,337.4,60,0,342.9,323.3,0,0,0,28.1,60,0,10.2,60,0,10.4,10.1,7.4,60,0,7.6,7.1,3.9,60,0,4.6,3.0,64.6,60,0,69.0,60.0,28.1,60,0,39.0,18.0,239,0.0,1021.4,60,0,1021.4,0,1007.1,60,0,46.2,60,0
86282,2014-01-13 00:00:00,14850,60,0,0.0,0.0,0.0,60,0,0.0,0.0,0.0,60,0,0.0,0.0,0.0,60,0,0.0,0.0,337.4,60,0,342.9,323.3,0,0,0,28.1,60,0,10.2,60,0,10.4,10.1,7.4,60,0,7.6,7.1,3.9,60,0,4.6,3.0,64.6,60,0,69.0,60.0,28.1,60,0,39.0,18.0,239,0.0,1021.4,60,0,1021.4,0,1007.1,60,0,46.2,60,0
86282,2014-01-13 12:00:00,14860,60,0,0.0,0.0,0.0,60,0,0.0,0.0,0.0,60,0,0.0,0.0,0.0,60,0,0.0,0.0,337.4,60,0,342.9,323.3,0,0,0,28.1,60,0,10.2,60,0,10.4,10.1,7.4,60,0,7.6,7.1,3.9,60,0,4.6,3.0,64.6,60,0,69.0,60.0,28.1,60,0,39.0,18.0,239,0.0,1021.4,60,0,1021.4,0,1007.1,60,0,46.2,60,0
86282,2014-01-14 00:00:00,14870,60,0,0.0,0.0,0.0,60,0,0.0,0.0,0.0,60,0,0.0,0.0,0.0,60,0,0.0,0.0,337.4,60,0,342.9,323.3,0,0,0,28.1,60,0,10.2,60,0,10.4,10.1,7.4,60,0,7.6,7.1,3.9,60,0,4.6,3.0,64.6,60,0,69.0,60.0,28.1,60,0,39.0,18.0,239,0.0,1021.4,60,0,1021.4,0,1007.1,60,0,46.2,60,0
86282,2014-01-14 12:00:00,14880,60,0,0.0,0.0,0.0,60,0,0.0,0.0,0.0,60,0,0.0,0.0,0.0,60,0,0.0,0.0,337.4,60,0,342.9,323.3,0,0,0,28.1,60,0,10.2,60,0,10.4,10.1,7.4,60,0,7.6,7.1,3.9,60,0,4.6,3.0,64.6,60,0,69.0,60.0,28.1,60,0,39.0,18.0,239,0.0,1021.4,60,0,1021.4,0,1007.1,60,0,46.2,60,0
86282,2014-01-15 00:00:00,14890,60,0,0.0,0.0,0.0,60,0,0.0,0.0,0.0,60,0,0.0,0.0,0.0,60,0,0.0,0.0,337.4,60,0,342.9,323.3,0,0,0,28.1,60,0,10.2,60,0,10.4,10.1,7.4,60,0,7.6,7.1,3.9,60,0,4.6,3.0,64.6,60,0,69.0,60.0,28.1,60,0,39.0,18.0,239,0.0,1021.4,60,0,1021.4,0,1007.1,60,0,46.2,60,0
86282,2014-01-15 12:00:00,14900,60,0,0.0,0.0,0.0,60,0,0.0,0.0,0.0,60,0,0.0,0.0,0.0,60,0,0.0,0.0,337.4,60,0,342.9,323.3,0,0,0,28.1,60,0,10.2,60,0,10.4,10.1,7.4,60,0,7.6,7.1,3.9,60,0,4.6,3.0,64.6,60,0,69.0,60.0,28.1,60,0,39.0,18.0,239,0.0,1021.4,60,0,1021.4,0,1007.1,60,0,46.2,60,0
86282,2014-01-16 00:00:00,14910,60,0,0.0,0.0,0.0,60,0,0.0,0.0,0.0,60,0,0.0,0.0,0.0,60,0,0.0,0.0,337.4,60,0,342.9,323.3,0,0,0,28.1,60,0,10.2,60,0,10.4,10.1,7.4,60,0,7.6,7.1,3.9,60,0,4.6,3.0,64.6,60,0,69.0,60.0,28.1,60,0,39.0,18.0,239,0.0,1021.4,60,0,1021.4,0,1007.1,60,0,46.2,60,0
86282,2014-01-16 12:00:00,14920,60,0,0.0,0.0,0.0,60,0,0.0,0.0,0.0,60,0,0.0,0.0,0.0,60,0,0.0,0.0,337.4,60,0,342.9,323.3,0,0,0,28.1,60,0,10.2,60,0,10.4,10.1,7.4,60,0,7.6,7.1,3.9,60,0,4.6,3.0,64.6,60,0,69.0,60.0,28.1,60,0,39.0,18.0,239,0.0,1021.4,60,0,1021.4,0,1007.1,60,0,46.2,60,0
86282,2014-01-17 00:00:00,14930,60,0,0.0,0.0,0.0,60,0,0.0,0.0,0.0,60,0,0.0,0.0,0.0,60,0,0.0,0.0,337.4,60,0,342.9,323.3,0,0,0,28.1,60,0,10.2,60,0,10.4,10.1,7.4,60,0,7.6,7.1,3.9,60,0,4.6,3.0,64.6,60,0,69.0,60.0,28.1,60,0,39.0,18.0,239,0.0,1021.4,60,0,1021.4,0,1007.1,60,0,46.2,60,0
86282,2014-01-17 12:00:00,14940,60,0,0.0,0.0,0.0,60,0,0.0,0.0,0.0,60,0,0.0,0.0,0.0,60,0,0.0,0.0,337.4,60,0,342.9,323.3,0,0,0,28.1,60,0,10.2,60,0,10.4,10.1,7.4,60,0,7.6,7.1,3.9,60,0,4.6,3.0,64.6,60,0,69.0,60.0,28.1,60,0,39.0,18.0,239,0.0,1021.4,60,0,1021.4,0,1007.1,60,0,46.2,60,0
86282,2014-01-18 00:00:00,14950,60,0,0.0,0.0,0.0,60,0,0.0,0.0,0.0,60,0,0.0,0.0,0.0,60,0,0.0,0.0,337.4,60,0,342.9,323.3,0,0,0,28.1,60,0,10.2,60,0,10.4,10.1,7.4,60,0,7.6,7.1,3.9,60,0,4.6,3.0,64.6,60,0,69.0,60.0,28.1,60,0,39.0,18.0,239,0.0,1021.4,60,0,1021.4,0,1007.1,60,0,46.2,60,0
86282,2014-01-18 12:00:00,14960,60,0,0.0,0.0,0.0,60,0,0.0,0.0,0.0,60,0,0.0,0.0,0.0,60,0,0.0,0.0,337.4,60,0,342.9,323.3,0,0,0,28.1,60,0,10.2,60,0,10.4,10.1,7.4,60,0,7.6,7.1,3.9,60,0,4.6,3.0,64.6,60,0,69.0,60.0,28.1,60,0,39.0,18.0,239,0.0,1021.4,60,0,1021.4,0,1007.1,60,0,46.2,60,0
86282,2014-01-19 00:00:00,14970,60,0,0.0,0.0,0.0,60,0,0.0,0.0,0.0,60,0,0.0,0.0,0.0,60,0,0.0,0.0,337.4,60,0,342.9,323.3,0,0,0,28.1,60,0,10.2,60,0,10.4,10.1,7.4,60,0,7.6,7.1,3.9,60,0,4.6,3.0,64.6,60,0,69.0,60.0,28.1,60,0,39.0,18.0,239,0.0,1021.4,60,0,1021.4,0,1007.1,60,0,46.2,60,0
86282,2014-01-19 12:00:00,14980,60,0,0.0,0.0,0.0,60,0,0.0,0.0,0.0,60,0,0.0,0.0,0.0,60,0,0.0,0.0,337.4,60,0,342.9,323.3,0,0,0,28.1,60,0,10.2,60,0,10.4,10.1,7.4,60,0,7.6,7.1,3.9,60,0,4.6,3.0,64.6,60,0,69.0,60.0,28.1,60,0,39.0,18.0,239,0.0,1021.4,60,0,1021.4,0,1007.1,60,0,46.2,60,0
86282,2014-01-20 00:00:00,14990,60,0,0.0,0.0,0.0,60,0,0.0,0.0,0.0,60,0,0.0,0.0,0.0,60,0,0.0,0.0,337.4,60,0,342.9,323.3,0,0,0,28.1,60,0,10.2,60,0,10.4,10.1,7.4,60,0,7.6,7.1,3.9,60,0,4.6,3.0,64.6,60,0,69.0,60.0,28.1,60,0,39.0,18.0,239,0.0,1021.4,60,0,1021.4,0,1007.1,60,0,46.2,60,0
86282,2014-01-20 12:00:00,15000,60,0,0.0,0.0,0.0,60,0,0.0,0.0,0.0,60,0,0.0,0.0,0.0,60,0,0.0,0.0,337.4,60,0,342.9,323.3,0,0,0,28.1,60,0,10.2,60,0,10.4,10.1,7.4,60,0,7.6,7.1,3.9,60,0,4.6,3.0,64.6,60,0,69.0,60.0,28.1,60,0,39.0,18.0,239,0.0,1021.4,60,0,1021.4,0,1007.1,60,0,46.2,60,0
86282,2014-01-21 00:00:00,15010,60,0,0.0,0.0,0.0,60,0,0.0,0.0,0.0,60,0,0.0,0.0,0.0,60,0,0.0,0.0,337.4,60,0,342.9,323.3,0,0,0,28.1,60,0,10.2,60,0,10.4,10.1,7.4,60,0,7.6,7.1,3.9,60,0,4.6,3.0,64.6,60,0,69.0,60.0,28.1,60,0,39.0,18.0,239,0.0,1021.4,60,0,1021.4,0,1007.1,60,0,46.2,60,0
86282,2014-01-21 12:00:00,15020,60,0,0.0,0.0,0.0,60,0,0.0,0.0,0.0,60,0,0.0,0.0,0.0,60,0,0.0,0.0,337.4,60,0,342.9,323.3,0,0,0,28.1,60,0,10.2,60,0,10.4,10.1,7.4,60,0,7.6,7.1,3.9,60,0,4.6,3.0,64.6,60,0,69.0,60.0,28.1,60,0,39.0,18.0,239,0.0,1021.4,60,0,1021.4,0,1007.1,60,0,46.2,60,0
86282,2014-01-22 00:00:00,15030,60,0,0.0,0.0,0.0,60,0,0.0,0.0,0.0,60,0,0.0,0.0,0.0,60,0,0.0,0.0,337.4,60,0,342.9,323.3,0,0,0,28.1,60,0,10.2,60,0,10.4,10.1,7.4,60,0,7.6,7.1,3.9,60,0,4.6,3.0,64.6,60,0,69.0,60.0,28.1,60,0,39.0,18.0,239,0.0,1021.4,60,0,1021.4,0,1007.1,60,0,46.2,60,0
86282,2014-01-22 12:00:00,15040,60,0,0.0,0.0,0.0,60,0,0.0,0.0,0.0,60,0,0.0,0.0,0.0,60,0,0.0,0.0,337.4,60,0,342.9,323.3,0,0,0,28.1,60,0,10.2,60,0,10.4,10.1,7.4,60,0,7.6,7.1,3.9,60,0,4.6,3.0,64.6,60,0,69.0,60.0,28.1,60,0,39.0,18.0,239,0.0,1021.4,60,0,1021.4,0,1007.1,60,0,46.2,60,0
86282,2014-01-23 00:00:00,15050,60,0,0.0,0.0,0.0,60,0,0.0,0.0,0.0,60,0,0.0,0.0,0.0,60,0,0.0,0.0,337.4,60,0,342.9,323.3,0,0,0,28.1,60,0,10.2,60,0,10.4,10.1,7.4,60,0,7.6,7.1,3.9,60,0,4.6,3.0,64.6,60,0,69.0,60.0,28.1,60,0,39.0,18.0,239,0.0,1021.4,60,0,1021.4,0,1007.1,60,0,46.2,60,0
86282,2014-01-23 12:00:00,15060,60,0,0.0,0.0,0.0,60,0,0.0,0.0,0.0,60,0,0.0,0.0,0.0,60,0,0.0,0.0,337.4,60,0,342.9,323.3,0,0,0,28.1,60,0,10.2,60,0,10.4,10.1,7.4,60,0,7.6,7.1,3.9,60,0,4.6,3.0,64.6,60,0,69.0,60.0,28.1,60,0,39.0,18.0,239,0.0,1021.4,60,0,1021.4,0,1007.1,60,0,46.2,60,0
86282,2014-01-24 00:00:00,15070,60,0,0.0,0.0,0.0,60,0,0.0,0.0,0.0,60,0,0.0,0.0,0.0,60,0,0.0,0.0,337.4,60,0,342.9,323.3,0,0,0,28.1,60,0,10.2,60,0,10.4,10.1,7.4,60,0,7.6,7.1,3.9,60,0,4.6,3.0,64.6,60,0,69.0,60.0,28.1,60,0,39.0,18.0,239,0.0,1021.4,60,0,1021.4,0,1007.1,60,0,46.2,60,0
86282,2014-01-24 12:00:00,15080,60,0,0.0,0.0,0.0,60,0,0.0,0.0,0.0,60,0,0.0,0.0,0.0,60,0,0.0,0.0,337.4,60,0,342.9,323.3,0,0,0,28.1,60,0,10.2,60,0,10.4,10.1,7.4,60,0,7.6,7.1,3.9,60,0,4.6,3.0,64.6,60,0,69.0,60.0,28.1,60,0,39.0,18.0,239,0.0,1021.4,60,0,1021.4,0,1007.1,60,0,46.2,60,0
86282,2014-01-25 00:00:00,15090,60,0,0.0,0.0,0.0,60,0,0.0,0.0,0.0,60,0,0.0,0.0,0.0,60,0,0.0,0.0,337.4,60,0,342.9,323.3,0,0,0,28.1,60,0,10.2,60,0,10.4,10.1,7.4,60,0,7.6,7.1,3.9,60,0,4.6,3.0,64.6,60,0,69.0,60.0,28.1,60,0,39.0,18.0,239,0.0,1021.4,60,0,1021.4,0,1007.1,60,0,46.2,60,0
86282,2014-01-25 12:00:00,15100,60,0,0.0,0.0,0.0,60,0,0.0,0.0,0.0,60,0,0.0,0.0,0.0,60,0,0.0,0.0,337.4,60,0,342.9,323.3,0,0,0,28.1,60,0,10.2,60,0,10.4,10.1,7.4,60,0,7.6,7.1,3.9,60,0,4.6,3.0,64.6,60,0,69.0,60.0,28.1,60,0,39.0,18.0,239,0.0,1021.4,60,0,1021.4,0,1007.1,60,0,46.2,60,0
86282,2014-01-26 00:00:00,15110,60,0,0.0,0.0,0.0,60,0,0.0,0.0,0.0,60,0,0.0,0.0,0.0,60,0,0.0,0.0,337.4,60,0,342.9,323.3,0,0,0,28.1,60,0,10.2,60,0,10.4,10.1,7.4,60,0,7.6,7.1,3.9,60,0,4.6,3.0,64.6,60,0,69.0,60.0,28.1,60,0,39.0,18.0,239,0.0,1021.4,60,0,1021.4,0,1007.1,60,0,46.2,60,0
86282,2014-01-26 12:00:00,15120,60,0,0.0,0.0,0.0,60,0,0.0,0.0,0.0,60,0,0.0,0.0,0.0,60,0,0.0,0.0,337.4,60,0,342.9,323.3,0,0,0,28.1,60,0,10.2,60,0,10.4,10.1,7.4,60,0,7.6,7.1,3.9,60,0,4.6,3.0,64.6,60,0,69.0,60.0,28.1,60,0,39.0,18.0,239,0.0,1021.4,60,0,1021.4,0,1007.1,60,0,46.2,60,0
86282,2014-01-27 00:00:00,15130,60,0,0.0,0.0,0.0,60,0,0.0,0.0,0.0,60,0,0.0,0.0,0.0,60,0,0.0,0.0,337.4,60,0,342.9,323.3,0,0,0,28.1,60,0,10.2,60,0,10.4,10.1,7.4,60,0,7.6,7.1,3.9,60,0,4.6,3.0,64.6,60,0,69.0,60.0,28.1,60,0,39.0,18.0,239,0.0,1021.4,60,0,1021.4,0,1007.1,60,0,46.2,60,0
86282,2014-01-27 12:00:00,15140,60,0,0.0,0.0,0.0,60,0,0.0,0.0,0.0,60,0,0.0,0.0,0.0,60,0,0.0,0.0,337.4,60,0,342.9,323.3,0,0,0,28.1,60,0,10.2,60,0,10.4,10.1,7.4,60,0,7.6,7.1,3.9,60,0,4.6,3.0,64.6,60,0,69.0,60.0,28.1,60,0,39.0,18.0,239,0.0,1021.4,60,0,1021.4,0,1007.1,60,0,46.2,60,0
86282,2014-01-28 00:00:00,15150,60,0,0.0,0.0,0.0,60,0,0.0,0.0,0.0,60,0,0.0,0.0,0.0,60,0,0.0,0.0,337.4,60,0,342.9,323.3,0,0,0,28.1,60,0,10.2,60,0,10.4,10.1,7.4,60,0,7.6,7.1,3.9,60,0,4.6,3.0,64.6,60,0,69.0,60.0,28.1,60,0,39.0,18.0,239,0.0,1021.4,60,0,1021.4,0,1007.1,60,0,46.2,60,0
86282,2014-01-28 12:00:00,15160,60,0,0.0,0.0,0.0,60,0,0.0,0.0,0.0,60,0,0.0,0.0,0.0,60,0,0.0,0.0,337.4,60,0,342.9,323.3,0,0,0,28.1,60,0,10.2,60,0,10.4,10.1,7.4,60,0,7.6,7.1,3.9,60,0,4.6,3.0,64.6,60,0,69.0,60.0,28.1,60,0,39.0,18.0,239,0.0,1021.4,60,0,1021.4,0,1007.1,60,0,46.2,60,0
86282,2014-01-29 00:00:00,15170,60,0,0.0,0.0,0.0,60,0,0.0,0.0,0.0,60,0,0.0,0.0,0.0,60,0,0.0,0.0,337.4,60,0,342.9,323.3,0,0,0,28.1,60,0,10.2,60,0,10.4,10.1,7.4,60,0,7.6,7.1,3.9,60,0,4.6,3.0,64.6,60,0,69.0,60.0,28.1,60,0,39.0,18.0,239,0.0,1021.4,60,0,1021.4,0,1007.1,60,0,46.2,60,0
86282,2014-01-29 12:00:00,15180,60,0,0.0,0.0,0.0,60,0,0.0,0.0,0.0,60,0,0.0,0.0,0.0,60,0,0.0,0.0,337.4,60,0,342.9,323.3,0,0,0,28.1,60,0,10.2,60,0,10.4,10.1,7.4,60,0,7.6,7.1,3.9,60,0,4.6,3.0,64.6,60,0,69.0,60.0,28.1,60,0,39.0,18.0,239,0.0,1021.4,60,0,1021.4,0,1007.1,60,0,46.2,60,0
86282,2014-01-30 00:00:00,15190,60,0,0.0,0.0,0.0,60,0,0.0,0.0,0.0,60,0,0.0,0.0,0.0,60,0,0.0,0.0,337.4,60,0,342.9,323.3,0,0,0,28.1,60,0,10.2,60,0,10.4,10.1,7.4,60,0,7.6,7.1,3.9,60,0,4.6,3.0,64.6,60,0,69.0,60.0,28.1,60,0,39.0,18.0,239,0.0,1021.4,60,0,1021.4,0,1007.1,60,0,46.2,60,0
86282,2014-01-30 12:00:00,15200,60,0,0.0,0.0,0.0,60,0,0.0,0.0,0.0,60,0,0.0,0.0,0.0,60,0,0.0,0.0,337.4,60,0,342.9,323.3,0,0,0,28.1,60,0,10.2,60,0,10.4,10.1,7.4,60,0,7.6,7.1,3.9,60,0,4.6,3.0,64.6,60,0,69.0,60.0,28.1,60,0,39.0,18.0,239,0.0,1021.4,60,0,1021.4,0,1007.1,60,0,46.2,60,0
86282,2014-01-31 00:00:00,15210,60,0,0.0,0.0,0.0,60,0,0.0,0.0,0.0,60,0,0.0,0.0,0.0,60,0,0.0,0.0,337.4,60,0,342.9,323.3,0,0,0,28.1,60,0,10.2,60,0,10.4,10.1,7.4,60,0,7.6,7.1,3.9,60,0,4.6,3.0,64.6,60,0,69.0,60.0,28.1,60,0,39.0,18.0,239,0.0,1021.4,60,0,1021.4,0,1007.1,60,0,46.2,60,0
86282,2014-01-31 12:00:00,15220,60,0,0.0,0.0,0.0,60,0,0.0,0.0,0.0,60,0,0.0,0.0,0.0,60,0,0.0,0.0,337.4,60,0,342.9,323.3,0,0,0,28.1,60,0,10.2,60,0,10.4,10.1,7.4,60,0,7.6,7.1,3.9,60,0,4.6,3.0,64.6,60,0,69.0,60.0,28.1,60,0,39.0,18.0,239,0.0,1021.4,60,0,1021.4,0,1007.1,60,0,46.2,60,0
86282,2014-02-01 00:00:00,15230,60,0,0.0,0.0,0.0,60,0,0.0,0.0,0.0,60,0,0.0,0.0,0.0,60,0,0.0,0.0,337.4,60,0,342.9,323.3,0,0,0,28.1,60,0,10.2,60,0,10.4,10.1,7.4,60,0,7.6,7.1,3.9,60,0,4.6,3.0,64.6,60,0,69.0,60.0,28.1,60,0,39.0,18.0,239,0.0,1021.4,60,0,1021.4,0,1007.1,60,0,46.2,60,0
86282,2014-02-01 12:00:00,15240,60,0,0.0,0.0,0.0,60,0,0.0,0.0,0.0,60,0,0.0,0.0,0.0,60,0,0.0,0.0,337.4,60,0,342.9,323.3,0,0,0,28.1,60,0,10.2,60,0,10.4,10.1,7.4,60,0,7.6,7.1,3.9,60,0,4.6,3.0,64.6,60,0,69.0,60.0,28.1,60,0,39.0,18.0,239,0.0,1021.4,60,0,1021.4,0,1007.1,60,0,46.2,60,0
86282,2014-02-02 00:00:00,15250,60,0,0.0,0.0,0.0,60,0,0.0,0.0,0.0,60,0,0.0,0.0,0.0,60,0,0.0,0.0,337.4,60,0,342.9,323.3,0,0,0,28.1,60,0,10.2,60,0,10.4,10.1,7.4,60,0,7.6,7.1,3.9,60,0,4.6,3.0,64.6,60,0,69.0,60.0,28.1,60,0,39.0,18.0,239,0.0,1021.4,60,0,1021.4,0,1007.1,60,0,46.2,60,0
86282,2014-02-02 12:00:00,15260,60,0,0.0,0.0,0.0,60,0,0.0,0.0,0.0,60,0,0.0,0.0,0.0,60,0,0.0,0.0,337.4,60,0,342.9,323.3,0,0,0,28.1,60,0,10.2,60,0,10.4,10.1,7.4,60,0,7.6,7.1,3.9,60,0,4.6,3.0,64.6,60,0,69.0,60.0,28.1,60,0,39.0,18.0,239,0.0,1021.4,60,0,1021.4,0,1007.1,60,0,46.2,60,0
86282,2014-02-03 00:00:00,15270,60,0,0.0,0.0,0.0,60,0,0.0,0.0,0.0,60,0,0.0,0.0,0.0,60,0,0.0,0.0,337.4,60,0,342.9,323.3,0,0,0,28.1,60,0,10.2,60,0,10.4,10.1,7.4,60,0,7.6,7.1,3.9,60,0,4.6,3.0,64.6,60,0,69.0,60.0,28.1,60,0,39.0,18.0,239,0.0,1021.4,60,0,1021.4,0,1007.1,60,0,46.2,60,0
86282,2014-02-03 12:00:00,15280,60,0,0.0,0.0,0.0,60,0,0.0,0.0,0.0,60,0,0.0,0.0,0.0,60,0,0.0,0.0,337.4,60,0,342.9,323.3,0,0,0,28.1,60,0,10.2,60,0,10.4,10.1,7.4,60,0,7.6,7.1,3.9,60,0,4.6,3.0,64.6,60,0,69.0,60.0,28.1,60,0,39.0,18.0,239,0.0,1021.4,60,0,1021.4,0,1007.1,60,0,46.2,60,0
86282,2014-02-04 00:00:00,15290,60,0,0.0,0.0,0.0,60,0,0.0,0.0,0.0,60,0,0.0,0.0,0.0,60,0,0.0,0.0,337.4,60,0,342.9,323.3,0,0,0,28.1,60,0,10.2,60,0,10.4,10.1,7.4,60,0,7.6,7.1,3.9,60,0,4.6,3.0,64.6,60,0,69.0,60.0,28.1,60,0,39.0,18.0,239,0.0,1021.4,60,0,1021.4,0,1007.1,60,0,46.2,60,0
86282,2014-02-04 12:00:00,15300,60,0,0.0,0.0,0.0,60,0,0.0,0.0,0.0,60,0,0.0,0.0,0.0,60,0,0.0,0.0,337.4,60,0,342.9,323.3,0,0,0,28.1,60,0,10.2,60,0,10.4,10.1,7.4,60,0,7.6,7.1,3.9,60,0,4.6,3.0,64.6,60,0,69.0,60.0,28.1,60,0,39.0,18.0,239,0.0,1021.4,60,0,1021.4,0,1007.1,60,0,46.2,60,0
86282,2014-02-05 00:00:00,15310,60,0,0.0,0.0,0.0,60,0,0.0,0.0,0.0,60,0,0.0,0.0,0.0,60,0,0.0,0.0,337.4,60,0,342.9,323.3,0,0,0,28.1,60,0,10.2,60,0,10.4,10.1,7.4,60,0,7.6,7.1,3.9,60,0,4.6,3.0,64.6,60,0,69.0,60.0,28.1,60,0,39.0,18.0,239,0.0,1021.4,60,0,1021.4,0,1007.1,60,0,46.2,60,0
86282,2014-02-05 12:00:00,15320,60,0,0.0,0.0,0.0,60,0,0.0,0.0,0.0,60,0,0.0,0.0,0.0,60,0,0.0,0.0,337.4,60,0,342.9,323.3,0,0,0,28.1,60,0,10.2,60,0,10.4,10.1,7.4,60,0,7.6,7.1,3.9,60,0,4.6,3.0,64.6,60,0,69.0,60.0,28.1,60,0,39.0,18.0,239,0.0,1021.4,60,0,1021.4,0,1007.1,60,0,46.2,60,0
86282,2014-02-06 00:00:00,15330,60,0,0.0,0.0,0.0,60,0,0.0,0.0,0.0,60,0,0.0,0.0,0.0,60,0,0.0,0.0,337.4,60,0,342.9,323.3,0,0,0,28.1,60,0,10.2,60,0,10.4,10.1,7.4,60,0,7.6,7.1,3.9,60,0,4.6,3.0,64.6,60,0,69.0,60.0,28.1,60,0,39.0,18.0,239,0.0,1021.4,60,0,1021.4,0,1007.1,60,0,46.2,60,0
86282,2014-02-06 12:00:00,15340,60,0,0.0,0.0,0.0,60,0,0.0,0.0,0.0,60,0,0.0,0.0,0.0,60,0,0.0,0.0,337.4,60,0,342.9,323.3,0,0,0,28.1,60,0,10.2,60,0,10.4,10.1,7.4,60,0,7.6,7.1,3.9,60,0,4.6,3.0,64.6,60,0,69.0,60.0,28.1,60,0,39.0,18.0,239,0.0,1021.4,60,0,1021.4,0,1007.1,60,0,46.2,60,0
86282,2014-02-07 00:00:00,15350,60,0,0.0,0.0,0.0,60,0,0.0,0.0,0.0,60,0,0.0,0.0,0.0,60,0,0.0,0.0,337.4,60,0,342.9,323.3,0,0,0,28.1,60,0,10.2,60,0,10.4,10.1,7.4,60,0,7.6,7.1,3.9,60,0,4.6,3.0,64.6,60,0,69.0,60.0,28.1,60,0,39.0,18.0,239,0.0,1021.4,60,0,1021.4,0,1007.1,60,0,46.2,60,0
86282,2014-02-07 12:00:00,15360,60,0,0.0,0.0,0.0,60,0,0.0,0.0,0.0,60,0,0.0,0.0,0.0,60,0,0.0,0.0,337.4,60,0,342.9,323.3,0,0,0,28.1,60,0,10.2,60,0,10.4,10.1,7.4,60,0,7.6,7.1,3.9,60,0,4.6,3.0,64.6,60,0,69.0,60.0,28.1,60,0,39.0,18.0,239,0.0,1021.4,60,0,1021.4,0,1007.1,60,0,46.2,60,0
86282,2014-02-08 00:00:00,15370,60,0,0.0,0.0,0.0,60,0,0.0,0.0,0.0,60,0,0.0,0.0,0.0,60,0,0.0,0.0,337.4,60,0,342.9,323.3,0,0,0,28.1,60,0,10.2,60,0,10.4,10.1,7.4,60,0,7.6,7.1,3.9,60,0,4.6,3.0,64.6,60,0,69.0,60.0,28.1,60,0,39.0,18.0,239,0.0,1021.4,60,0,1021.4,0,1007.1,60,0,46.2,60,0
86282,2014-02-08 12:00:00,15380,60,0,0.0,0.0,0.0,60,0,0.0,0.0,0.0,60,0,0.0,0.0,0.0,60,0,0.0,0.0,337.4,60,0,342.9,323.3,0,0,0,28.1,60,0,10.2,60,0,10.4,10.1,7.4,60,0,7.6,7.1,3.9,60,0,4.6,3.0,64.6,60,0,69.0,60.0,28.1,60,0,39.0,18.0,239,0.0,1021.4,60,0,1021.4,0,1007.1,60,0,46.2,60,0
86282,2014-02-09 00:00:00,15390,60,0,0.0,0.0,0.0,60,0,0.0,0.0,0.0,60,0,0.0,0.0,0.0,60,0,0.0,0.0,337.4,60,0,342.9,323.3,0,0,0,28.1,60,0,10.2,60,0,10.4,10.1,7.4,60,0,7.6,7.1,3.9,60,0,4.6,3.0,64.6,60,0,69.0,60.0,28.1,60,0,39.0,18.0,239,0.0,1021.4,60,0,1021.4,0,1007.1,60,0,46.2,60,0
86282,2014-02-09 12:00:00,15400,60,0,0.0,0.0,0.0,60,0,0.0,0.0,0.0,60,0,0.0,0.0,0.0,60,0,0.0,0.0,337.4,60,0,342.9,323.3,0,0,0,28.1,60,0,10.2,60,0,10.4,10.1,7.4,60,0,7.6,7.1,3.9,60,0,4.6,3.0,64.6,60,0,69.0,60.0,28.1,60,0,39.0,18.0,239,0.0,1021.4,60,0,1021.4,0,1007.1,60,0,46.2,60,0
86282,2014-02-10 00:00:00,15410,60,0,0.0,0.0,0.0,60,0,0.0,0.0,0.0,60,0,0.0,0.0,0.0,60,0,0.0,0.0,337.4,60,0,342.9,323.3,0,0,0,28.1,60,0,10.2,60,0,10.4,10.1,7.4,60,0,7.6,7.1,3.9,60,0,4.6,3.0,64.6,60,0,69.0,60.0,28.1,60,0,39.0,18.0,239,0.0,1021.4,60,0,1021.4,0,1007.1,60,0,46.2,60,0
86282,2014-02-10 12:00:00,15420,60,0,0.0,0.0,0.0,60,0,0.0,0.0,0.0,60,0,0.0,0.0,0.0,60,0,0.0,0.0,337.4,60,0,342.9,323.3,0,0,0,28.1,60,0,10.2,60,0,10.4,10.1,7.4,60,0,7.6,7.1,3.9,60,0,4.6,3.0,64.6,60,0,69.0,60.0,28.1,60,0,39.0,18.0,239,0.0,1021.4,60,0,1021.4,0,1007.1,60,0,46.2,60,0
86282,2014-02-11 00:00:00,15430,60,0,0.0,0.0,0.0,60,0,0.0,0.0,0.0,60,0,0.0,0.0,0.0,60,0,0.0,0.0,337.4,60,0,342.9,323.3,0,0,0,28.1,60,0,10.2,60,0,10.4,10.1,7.4,60,0,7.6,7.1,3.9,60,0,4.6,3.0,64.6,60,0,69.0,60.0,28.1,60,0,39.0,18.0,239,0.0,1021.4,60,0,1021.4,0,1007.1,60,0,46.2,60,0
86282,2014-02-11 12:00:00,15440,60,0,0.0,0.0,0.0,60,0,0.0,0.0,0.0,60,0,0.0,0.0,0.0,60,0,0.0,0.0,337.4,60,0,342.9,323.3,0,0,0,28.1,60,0,10.2,60,0,10.4,10.1,7.4,60,0,7.6,7.1,3.9,60,0,4.6,3.0,64.6,60,0,69.0,60.0,28.1,60,0,39.0,18.0,239,0.0,1021.4,60,0,1021.4,0,1007.1,60,0,46.2,60,0
86282,2014-02-12 00:00:00,15450,60,0,0.0,0.0,0.0,60,0,0.0,0.0,0.0,60,0,0.0,0.0,0.0,60,0,0.0,0.0,337.4,60,0,342.9,323.3,0,0,0,28.1,60,0,10.2,60,0,10.4,10.1,7.4,60,0,7.6,7.1,3.9,60,0,4.6,3.0,64.6,60,0,69.0,60.0,28.1,60,0,39.0,18.0,239,0.0,1021.4,60,0,1021.4,0,1007.1,60,0,46.2,60,0
86282,2014-02-12 12:00:00,15460,60,0,0.0,0.0,0.0,60,0,0.0,0.0,0.0,60,0,0.0,0.0,0.0,60,0,0.0,0.0,337.4,60,0,342.9,323.3,0,0,0,28.1,60,0,10.2,60,0,10.4,10.1,7.4,60,0,7.6,7.1,3.9,60,0,4.6,3.0,64.6,60,0,69.0,60.0,28.1,60,0,39.0,18.0,239,0.0,1021.4,60,0,1021.4,0,1007.1,60,0,46.2,60,0
86282,2014-02-13 00:00:00,15470,60,0,0.0,0.0,0.0,60,0,0.0,0.0,0.0,60,0,0.0,0.0,0.0,60,0,0.0,0.0,337.4,60,0,342.9,323.3,0,0,0,28.1,60,0,10.2,60,0,10.4,10.1,7.4,60,0,7.6,7.1,3.9,60,0,4.6,3.0,64.6,60,0,69.0,60.0,28.1,60,0,39.0,18.0,239,0.0,1021.4,60,0,1021.4,0,1007.1,60,0,46.2,60,0
86282,2014-02-13 12:00:00,15480,60,0,0.0,0.0,0.0,60,0,0.0,0.0,0.0,60,0,0.0,0.0,0.0,60,0,0.0,0.0,337.4,60,0,342.9,323.3,0,0,0,28.1,60,0,10.2,60,0,10.4,10.1,7.4,60,0,7.6,7.1,3.9,60,0,4.6,3.0,64.6,60,0,69.0,60.0,28.1,60,0,39.0,18.0,239,0.0,1021.4,60,0,1021.4,0,1007.1,60,0,46.2,60,0
86282,2014-02-14 00:00:00,15490,60,0,0.0,0.0,0.0,60,0,0.0,0.0,0.0,60,0,0.0,0.0,0.0,60,0,0.0,0.0,337.4,60,0,342.9,323.3,0,0,0,28.1,60,0,10.2,60,0,10.4,10.1,7.4,60,0,7.6,7.1,3.9,60,0,4.6,3.0,64.6,60,0,69.0,60.0,28.1,60,0,39.0,18.0,239,0.0,1021.4,60,0,1021.4,0,1007.1,60,0,46.2,60,0
86282,2014-02-14 12:00:00,15500,60,0,0.0,0.0,0.0,60,0,0.0,0.0,0.0,60,0,0.0,0.0,0.0,60,0,0.0,0.0,337.4,60,0,342.9,323.3,0,0,0,28.1,60,0,10.2,60,0,10.4,10.1,7.4,60,0,7.6,7.1,3.9,60,0,4.6,3.0,64.6,60,0,69.0,60.0,28.1,60,0,39.0,18.0,239,0.0,1021.4,60,0,1021.4,0,1007.1,60,0,46.2,60,0
86282,2014-02-15 00:00:00,15510,60,0,0.0,0.0,0.0,60,0,0.0,0.0,0.0,60,0,0.0,0.0,0.0,60,0,0.0,0.0,337.4,60,0,342.9,323.3,0,0,0,28.1,60,0,10.2,60,0,10.4,10.1,7.4,60,0,7.6,7.1,3.9,60,0,4.6,3.0,64.6,60,0,69.0,60.0,28.1,60,0,39.0,18.0,239,0.0,1021.4,60,0,1021.4,0,1007.1,60,0,46.2,60,0
86282,2014-02-15 12:00:00,15520,60,0,0.0,0.0,0.0,60,0,0.0,0.0,0.0,60,0,0.0,0.0,0.0,60,0,0.0,0.0,337.4,60,0,342.9,323.3,0,0,0,28.1,60,0,10.2,60,0,10.4,10.1,7.4,60,0,7.6,7.1,3.9,60,0,4.6,3.0,64.6,60,0,69.0,60.0,28.1,60,0,39.0,18.0,239,0.0,1021.4,60,0,1021.4,0,1007.1,60,0,46.2,60,0
86282,2014-02-16 00:00:00,15530,60,0,0.0,0.0,0.0,60,0,0.0,0.0,0.0,60,0,0.0,0.0,0.0,60,0,0.0,0.0,337.4,60,0,342.9,323.3,0,0,0,28.1,60,0,10.2,60,0,10.4,10.1,7.4,60,0,7.6,7.1,3.9,60,0,4.6,3.0,64.6,60,0,69.0,60.0,28.1,60,0,39.0,18.0,239,0.0,1021.4,60,0,1021.4,0,1007.1,60,0,46.2,60,0
86282,2014-02-16 12:00:00,15540,60,0,0.0,0.0,0.0,60,0,0.0,0.0,0.0,60,0,0.0,0.0,0.0,60,0,0.0,0.0,337.4,60,0,342.9,323.3,0,0,0,28.1,60,0,10.2,60,0,10.4,10.1,7.4,60,0,7.6,7.1,3.9,60,0,4.6,3.0,64.6,60,0,69.0,60.0,28.1,60,0,39.0,18.0,239,0.0,1021.4,60,0,1021.4,0,1007.1,60,0,46.2,60,0
86282,2014-02-17 00:00:00,15550,60,0,0.0,0.0,0.0,60,0,0.0,0.0,0.0,60,0,0.0,0.0,0.0,60,0,0.0,0.0,337.4,60,0,342.9,323.3,0,0,0,28.1,60,0,10.2,60,0,10.4,10.1,7.4,60,0,7.6,7.1,3.9,60,0,4.6,3.0,64.6,60,0,69.0,60.0,28.1,60,0,39.0,18.0,239,0.0,1021.4,60,0,1021.4,0,1007.1,60,0,46.2,60,0
86282,2014-02-17 12:00:00,15560,60,0,0.0,0.0,0.0,60,0,0.0,0.0,0.0,60,0,0.0,0.0,0.0,60,0,0.0,0.0,337.4,60,0,342.9,323.3,0,0,0,28.1,60,0,10.2,60,0,10.4,10.1,7.4,60,0,7.6,7.1,3.9,60,0,4.6,3.0,64.6,60,0,69.0,60.0,28.1,60,0,39.0,18.0,239,0.0,1021.4,60,0,1021.4,0,1007.1,60,0,46.2,60,0
86282,2014-02-18 00:00:00,15570,60,0,0.0,0.0,0.0,60,0,0.0,0.0,0.0,60,0,0.0,0.0,0.0,60,0,0.0,0.0,337.4,60,0,342.9,323.3,0,0,0,28.1,60,0,10.2,60,0,10.4,10.1,7.4,60,0,7.6,7.1,3.9,60,0,4.6,3.0,64.6,60,0,69.0,60.0,28.1,60,0,39.0,18.0,239,0.0,1021.4,60,0,1021.4,0,1007.1,60,0,46.2,60,0
86282,2014-02-18 12:00:00,15580,60,0,0.0,0.0,0.0,60,0,0.0,0.0,0.0,60,0,0.0,0.0,0.0,60,0,0.0,0.0,337.4,60,0,342.9,323.3,0,0,0,28.1,60,0,10.2,60,0,10.4,10.1,7.4,60,0,7.6,7.1,3.9,60,0,4.6,3.0,64.6,60,0,69.0,60.0,28.1,60,0,39.0,18.0,239,0.0,1021.4,60,0,1021.4,0,1007.1,60,0,46.2,60,0
86282,2014-02-19 00:00:00,15590,60,0,0.0,0.0,0.0,60,0,0.0,0.0,0.0,60,0,0.0,0.0,0.0,60,0,0.0,0.0,337.4,60,0,342.9,323.3,0,0,0,28.1,60,0,10.2,60,0,10.4,10.1,7.4,60,0,7.6,7.1,3.9,60,0,4.6,3.0,64.6,60,0,69.0,60.0,28.1,60,0,39.0,18.0,239,0.0,1021.4,60,0,1021.4,0,1007.1,60,0,46.2,60,0
86282,2014-02-19 12:00:00,15600,60,0,0.0,0.0,0.0,60,0,0.0,0.0,0.0,60,0,0.0,0.0,0.0,60,0,0.0,0.0,337.4,60,0,342.9,323.3,0,0,0,28.1,60,0,10.2,60,0,10.4,10.1,7.4,60,0,7.6,7.1,3.9,60,0,4.6,3.0,64.6,60,0,69.0,60.0,28.1,60,0,39.0,18.0,239,0.0,1021.4,60,0,1021.4,0,1007.1,60,0,46.2,60,0
86282,2014-02-20 00:00:00,15610,60,0,0.0,0.0,0.0,60,0,0.0,0.0,0.0,60,0,0.0,0.0,0.0,60,0,0.0,0.0,337.4,60,0,342.9,323.3,0,0,0,28.1,60,0,10.2,60,0,10.4,10.1,7.4,60,0,7.6,7.1,3.9,60,0,4.6,3.0,64.6,60,0,69.0,60.0,28.1,60,0,39.0,18.0,239,0.0,1021.4,60,0,1021.4,0,1007.1,60,0,46.2,60,0
86282,2014-02-20 12:00:00,15620,60,0,0.0,0.0,0.0,60,0,0.0,0.0,0.0,60,0,0.0,0.0,0.0,60,0,0.0,0.0,337.4,60,0,342.9,323.3,0,0,0,28.1,60,0,10.2,60,0,10.4,10.1,7.4,60,0,7.6,7.1,3.9,60,0,4.6,3.0,64.6,60,0,69.0,60.0,28.1,60,0,39.0,18.0,239,0.0,1021.4,60,0,1021.4,0,1007.1,60,0,46.2,60,0
86282,2014-02-21 00:00:00,15630,60,0,0.0,0.0,0.0,60,0,0.0,0.0,0.0,60,0,0.0,0.0,0.0,60,0,0.0,0.0,337.4,60,0,342.9,323.3,0,0,0,28.1,60,0,10.2,60,0,10.4,10.1,7.4,60,0,7.6,7.1,3.9,60,0,4.6,3.0,64.6,60,0,69.0,60.0,28.1,60,0,39.0,18.0,239,0.0,1021.4,60,0,1021.4,0,1007.1,60,0,46.2,60,0
86282,2014-02-21 12:00:00,15640,60,0,0.0,0.0,0.0,60,0,0.0,0.0,0.0,60,0,0.0,0.0,0.0,60,0,0.0,0.0,337.4,60,0,342.9,323.3,0,0,0,28.1,60,0,10.2,60,0,10.4,10.1,7.4,60,0,7.6,7.1,3.9,60,0,4.6,3.0,64.6,60,0,69.0,60.0,28.1,60,0,39.0,18.0,239,0.0,1021.4,60,0,1021.4,0,1007.1,60,0,46.2,60,0
86282,2014-02-22 00:00:00,15650,60,0,0.0,0.0,0.0,60,0,0.0,0.0,0.0,60,0,0.0,0.0,0.0,60,0,0.0,0.0,337.4,60,0,342.9,323.3,0,0,0,28.1,60,0,10.2,60,0,10.4,10.1,7.4,60,0,7.6,7.1,3.9,60,0,4.6,3.0,64.6,60,0,69.0,60.0,28.1,60,0,39.0,18.0,239,0.0,1021.4,60,0,1021.4,0,1007.1,60,0,46.2,60,0
86282,2014-02-22 12:00:00,15660,60,0,0.0,0.0,0.0,60,0,0.0,0.0,0.0,60,0,0.0,0.0,0.0,60,0,0.0,0.0,337.4,60,0,342.9,323.3,0,0,0,28.1,60,0,10.2,60,0,10.4,10.1,7.4,60,0,7.6,7.1,3.9,60,0,4.6,3.0,64.6,60,0,69.0,60.0,28.1,60,0,39.0,18.0,239,0.0,1021.4,60,0,1021.4,0,1007.1,60,0,46.2,60,0
86282,2014-02-23 00:00:00,15670,60,0,0.0,0.0,0.0,60,0,0.0,0.0,0.0,60,0,0.0,0.0,0.0,60,0,0.0,0.0,337.4,60,0,342.9,323.3,0,0,0,28.1,60,0,10.2,60,0,10.4,10.1,7.4,60,0,7.6,7.1,3.9,60,0,4.6,3.0,64.6,60,0,69.0,60.0,28.1,60,0,39.0,18.0,239,0.0,1021.4,60,0,1021.4,0,1007.1,60,0,46.2,60,0
86282,2014-02-23 12:00:00,15680,60,0,0.0,0.0,0.0,60,0,0.0,0.0,0.0,60,0,0.0,0.0,0.0,60,0,0.0,0.0,337.4,60,0,342.9,323.3,0,0,0,28.1,60,0,10.2,60,0,10.4,10.1,7.4,60,0,7.6,7.1,3.9,60,0,4.6,3.0,64.6,60,0,69.0,60.0,28.1,60,0,39.0,18.0,239,0.0,1021.4,60,0,1021.4,0,1007.1,60,0,46.2,60,0
86282,2014-02-24 00:00:00,15690,60,0,0.0,0.0,0.0,60,0,0.0,0.0,0.0,60,0,0.0,0.0,0.0,60,0,0.0,0.0,337.4,60,0,342.9,323.3,0,0,0,28.1,60,0,10.2,60,0,10.4,10.1,7.4,60,0,7.6,7.1,3.9,60,0,4.6,3.0,64.6,60,0,69.0,60.0,28.1,60,0,39.0,18.0,239,0.0,1021.4,60,0,1021.4,0,1007.1,60,0,46.2,60,0
86282,2014-02-24 12:00:00,15700,60,0,0.0,0.0,0.0,60,0,0.0,0.0,0.0,60,0,0.0,0.0,0.0,60,0,0.0,0.0,337.4,60,0,342.9,323.3,0,0,0,28.1,60,0,10.2,60,0,10.4,10.1,7.4,60,0,7.6,7.1,3.9,60,0,4.6,3.0,64.6,60,0,69.0,60.0,28.1,60,0,39.0,18.0,239,0.0,1021.4,60,0,1021.4,0,1007.1,60,0,46.2,60,0
86282,2014-02-25 00:00:00,15710,60,0,0.0,0.0,0.0,60,0,0.0,0.0,0.0,60,0,0.0,0.0,0.0,60,0,0.0,0.0,337.4,60,0,342.9,323.3,0,0,0,28.1,60,0,10.2,60,0,10.4,10.1,7.4,60,0,7.6,7.1,3.9,60,0,4.6,3.0,64.6,60,0,69.0,60.0,28.1,60,0,39.0,18.0,239,0.0,1021.4,60,0,1021.4,0,1007.1,60,0,46.2,60,0
86282,2014-02-25 12:00:00,15720,60,0,0.0,0.0,0.0,60,0,0.0,0.0,0.0,60,0,0.0,0.0,0.0,60,0,0.0,0.0,337.4,60,0,342.9,323.3,0,0,0,28.1,60,0,10.2,60,0,10.4,10.1,7.4,60,0,7.6,7.1,3.9,60,0,4.6,3.0,64.6,60,0,69.0,60.0,28.1,60,0,39.0,18.0,239,0.0,1021.4,60,0,1021.4,0,1007.1,60,0,46.2,60,0
86282,2014-02-26 00:00:00,15730,60,0,0.0,0.0,0.0,60,0,0.0,0.0,0.0,60,0,0.0,0.0,0.0,60,0,0.0,0.0,337.4,60,0,342.9,323.3,0,0,0,28.1,60,0,10.2,60,0,10.4,10.1,7.4,60,0,7.6,7.1,3.9,60,0,4.6,3.0,64.6,60,0,69.0,60.0,28.1,60,0,39.0,18.0,239,0.0,1021.4,60,0,1021.4,0,1007.1,60,0,46.2,60,0
86282,2014-02-26 12:00:00,15740,60,0,0.0,0.0,0.0,60,0,0.0,0.0,0.0,60,0,0.0,0.0,0.0,60,0,0.0,0.0,337.4,60,0,342.9,323.3,0,0,0,28.1,60,0,10.2,60,0,10.4,10.1,7.4,60,0,7.6,7.1,3.9,60,0,4.6,3.0,64.6,60,0,69.0,60.0,28.1,60,0,39.0,18.0,239,0.0,1021.4,60,0,1021.4,0,1007.1,60,0,46.2,60,0
86282,2014-02-27 00:00:00,15750,60,0,0.0,0.0,0.0,60,0,0.0,0.0,0.0,60,0,0.0,0.0,0.0,60,0,0.0,0.0,337.4,60,0,342.9,323.3,0,0,0,28.1,60,0,10.2,60,0,10.4,10.1,7.4,60,0,7.6,7.1,3.9,60,0,4.6,3.0,64.6,60,0,69.0,60.0,28.1,60,0,39.0,18.0,239,0.0,1021.4,60,0,1021.4,0,1007.1,60,0,46.2,60,0
86282,2014-02-27 12:00:00,15760,60,0,0.0,0.0,0.0,60,0,0.0,0.0,0.0,60,0,0.0,0.0,0.0,60,0,0.0,0.0,337.4,60,0,342.9,323.3,0,0,0,28.1,60,0,10.2,60,0,10.4,10.1,7.4,60,0,7.6,7.1,3.9,60,0,4.6,3.0,64.6,60,0,69.0,60.0,28.1,60,0,39.0,18.0,239,0.0,1021.4,60,0,1021.4,0,1007.1,60,0,46.2,60,0
86282,2014-02-28 00:00:00,15770,60,0,0.0,0.0,0.0,60,0,0.0,0.0,0.0,60,0,0.0,0.0,0.0,60,0,0.0,0.0,337.4,60,0,342.9,323.3,0,0,0,28.1,60,0,10.2,60,0,10.4,10.1,7.4,60,0,7.6,7.1,3.9,60,0,4.6,3.0,64.6,60,0,69.0,60.0,28.1,60,0,39.0,18.0,239,0.0,1021.4,60,0,1021.4,0,1007.1,60,0,46.2,60,0
86282,2014-02-28 12:00:00,15780,60,0,0.0,0.0,0.0,60,0,0.0,0.0,0.0,60,0,0.0,0.0,0.0,60,0,0.0,0.0,337.4,60,0,342.9,323.3,0,0,0,28.1,60,0,10.2,60,0,10.4,10.1,7.4,60,0,7.6,7.1,3.9,60,0,4.6,3.0,64.6,60,0,69.0,60.0,28.1,60,0,39.0,18.0,239,0.0,1021.4,60,0,1021.4,0,1007.1,60,0,46.2,60,0
86282,2014-03-01 00:00:00,15790,60,0,0.0,0.0,0.0,60,0,0.0,0.0,0.0,60,0,0.0,0.0,0.0,60,0,0.0,0.0,337.4,60,0,342.9,323.3,0,0,0,28.1,60,0,10.2,60,0,10.4,10.1,7.4,60,0,7.6,7.1,3.9,60,0,4.6,3.0,64.6,60,0,69.0,60.0,28.1,60,0,39.0,18.0,239,0.0,1021.4,60,0,1021.4,0,1007.1,60,0,46.2,60,0
86282,2014-03-01 12:00:00,15800,60,0,0.0,0.0,0.0,60,0,0.0,0.0,0.0,60,0,0.0,0.0,0.0,60,0,0.0,0.0,337.4,60,0,342.9,323.3,0,0,0,28.1,60,0,10.2,60,0,10.4,10.1,7.4,60,0,7.6,7.1,3.9,60,0,4.6,3.0,64.6,60,0,69.0,60.0,28.1,60,0,39.0,18.0,239,0.0,1021.4,60,0,1021.4,0,1007.1,60,0,46.2,60,0
86282,2014-03-02 00:00:00,15810,60,0,0.0,0.0,0.0,60,0,0.0,0.0,0.0,60,0,0.0,0.0,0.0,60,0,0.0,0.0,337.4,60,0,342.9,323.3,0,0,0,28.1,60,0,10.2,60,0,10.4,10.1,7.4,60,0,7.6,7.1,3.9,60,0,4.6,3.0,64.6,60,0,69.0,60.0,28.1,60,0,39.0,18.0,239,0.0,1021.4,60,0,1021.4,0,1007.1,60,0,46.2,60,0
86282,2014-03-02 12:00:00,15820,60,0,0.0,0.0,0.0,60,0,0.0,0.0,0.0,60,0,0.0,0.0,0.0,60,0,0.0,0.0,337.4,60,0,342.9,323.3,0,0,0,28.1,60,0,10.2,60,0,10.4,10.1,7.4,60,0,7.6,7.1,3.9,60,0,4.6,3.0,64.6,60,0,69.0,60.0,28.1,60,0,39.0,18.0,239,0.0,1021.4,60,0,1021.4,0,1007.1,60,0,46.2,60,0
86282,2014-03-03 00:00:00,15830,60,0,0.0,0.0,0.0,60,0,0.0,0.0,0.0,60,0,0.0,0.0,0.0,60,0,0.0,0.0,337.4,60,0,342.9,323.3,0,0,0,28.1,60,0,10.2,60,0,10.4,10.1,7.4,60,0,7.6,7.1,3.9,60,0,4.6,3.0,64.6,60,0,69.0,60.0,28.1,60,0,39.0,18.0,239,0.0,1021.4,60,0,1021.4,0,1007.1,60,0,46.2,60,0
86282,2014-03-03 12:00:00,15840,60,0,0.0,0.0,0.0,60,0,0.0,0.0,0.0,60,0,0.0,0.0,0.0,60,0,0.0,0.0,337.4,60,0,342.9,323.3,0,0,0,28.1,60,0,10.2,60,0,10.4,10.1,7.4,60,0,7.6,7.1,3.9,60,0,4.6,3.0,64.6,60,0,69.0,60.0,28.1,60,0,39.0,18.0,239,0.0,1021.4,60,0,1021.4,0,1007.1,60,0,46.2,60,0
86282,2014-03-04 00:00:00,15850,60,0,0.0,0.0,0.0,60,0,0.0,0.0,0.0,60,0,0.0,0.0,0.0,60,0,0.0,0.0,337.4,60,0,342.9,323.3,0,0,0,28.1,60,0,10.2,60,0,10.4,10.1,7.4,60,0,7.6,7.1,3.9,60,0,4.6,3.0,64.6,60,0,69.0,60.0,28.1,60,0,39.0,18.0,239,0.0,1021.4,60,0,1021.4,0,1007.1,60,0,46.2,60,0
86282,2014-03-04 12:00:00,15860,60,0,0.0,0.0,0.0,60,0,0.0,0.0,0.0,60,0,0.0,0.0,0.0,60,0,0.0,0.0,337.4,60,0,342.9,323.3,0,0,0,28.1,60,0,10.2,60,0,10.4,10.1,7.4,60,0,7.6,7.1,3.9,60,0,4.6,3.0,64.6,60,0,69.0,60.0,28.1,60,0,39.0,18.0,239,0.0,1021.4,60,0,1021.4,0,1007.1,60,0,46.2,60,0
86282,2014-03-05 00:00:00,15870,60,0,0.0,0.0,0.0,60,0,0.0,0.0,0.0,60,0,0.0,0.0,0.0,60,0,0.0,0.0,337.4,60,0,342.9,323.3,0,0,0,28.1,60,0,10.2,60,0,10.4,10.1,7.4,60,0,7.6,7.1,3.9,60,0,4.6,3.0,64.6,60,0,69.0,60.0,28.1,60,0,39.0,18.0,239,0.0,1021.4,60,0,1021.4,0,1007.1,60,0,46.2,60,0
86282,2014-03-05 12:00:00,15880,60,0,0.0,0.0,0.0,60,0,0.0,0.0,0.0,60,0,0.0,0.0,0.0,60,0,0.0,0.0,337.4,60,0,342.9,323.3,0,0,0,28.1,60,0,10.2,60,0,10.4,10.1,7.4,60,0,7.6,7.1,3.9,60,0,4.6,3.0,64.6,60,0,69.0,60.0,28.1,60,0,39.0,18.0,239,0.0,1021.4,60,0,1021.4,0,1007.1,60,0,46.2,60,0
86282,2014-03-06 00:00:00,15890,60,0,0.0,0.0,0.0,60,0,0.0,0.0,0.0,60,0,0.0,0.0,0.0,60,0,0.0,0.0,337.4,60,0,342.9,323.3,0,0,0,28.1,60,0,10.2,60,0,10.4,10.1,7.4,60,0,7.6,7.1,3.9,60,0,4.6,3.0,64.6,60,0,69.0,60.0,28.1,60,0,39.0,18.0,239,0.0,1021.4,60,0,1021.4,0,1007.1,60,0,46.2,60,0
86282,2014-03-06 12:00:00,15900,60,0,0.0,0.0,0.0,60,0,0.0,0.0,0.0,60,0,0.0,0.0,0.0,60,0,0.0,0.0,337.4,60,0,342.9,323.3,0,0,0,28.1,60,0,10.2,60,0,10.4,10.1,7.4,60,0,7.6,7.1,3.9,60,0,4.6,3.0,64.6,60,0,69.0,60.0,28.1,60,0,39.0,18.0,239,0.0,1021.4,60,0,1021.4,0,1007.1,60,0,46.2,60,0
86282,2014-03-07 00:00:00,15910,60,0,0.0,0.0,0.0,60,0,0.0,0.0,0.0,60,0,0.0,0.0,0.0,60,0,0.0,0.0,337.4,60,0,342.9,323.3,0,0,0,28.1,60,0,10.2,60,0,10.4,10.1,7.4,60,0,7.6,7.1,3.9,60,0,4.6,3.0,64.6,60,0,69.0,60.0,28.1,60,0,39.0,18.0,239,0.0,1021.4,60,0,1021.4,0,1007.1,60,0,46.2,60,0
86282,2014-03-07 12:00:00,15920,60,0,0.0,0.0,0.0,60,0,0.0,0.0,0.0,60,0,0.0,0.0,0.0,60,0,0.0,0.0,337.4,60,0,342.9,323.3,0,0,0,28.1,60,0,10.2,60,0,10.4,10.1,7.4,60,0,7.6,7.1,3.9,60,0,4.6,3.0,64.6,60,0,69.0,60.0,28.1,60,0,39.0,18.0,239,0.0,1021.4,60,0,1021.4,0,1007.1,60,0,46.2,60,0
86282,2014-03-08 00:00:00,15930,60,0,0.0,0.0,0.0,60,0,0.0,0.0,0.0,60,0,0.0,0.0,0.0,60,0,0.0,0.0,337.4,60,0,342.9,323.3,0,0,0,28.1,60,0,10.2,60,0,10.4,10.1,7.4,60,0,7.6,7.1,3.9,60,0,4.6,3.0,64.6,60,0,69.0,60.0,28.1,60,0,39.0,18.0,239,0.0,1021.4,60,0,1021.4,0,1007.1,60,0,46.2,60,0
86282,2014-03-08 12:00:00,15940,60,0,0.0,0.0,0.0,60,0,0.0,0.0,0.0,60,0,0.0,0.0,0.0,60,0,0.0,0.0,337.4,60,0,342.9,323.3,0,0,0,28.1,60,0,10.2,60,0,10.4,10.1,7.4,60,0,7.6,7.1,3.9,60,0,4.6,3.0,64.6,60,0,69.0,60.0,28.1,60,0,39.0,18.0,239,0.0,1021.4,60,0,1021.4,0,1007.1,60,0,46.2,60,0
86282,2014-03-09 00:00:00,15950,60,0,0.0,0.0,0.0,60,0,0.0,0.0,0.0,60,0,0.0,0.0,0.0,60,0,0.0,0.0,337.4,60,0,342.9,323.3,0,0,0,28.1,60,0,10.2,60,0,10.4,10.1,7.4,60,0,7.6,7.1,3.9,60,0,4.6,3.0,64.6,60,0,69.0,60.0,28.1,60,0,39.0,18.0,239,0.0,1021.4,60,0,1021.4,0,1007.1,60,0,46.2,60,0
86282,2014-03-09 12:00:00,15960,60,0,0.0,0.0,0.0,60,0,0.0,0.0,0.0,60,0,0.0,0.0,0.0,60,0,0.0,0.0,337.4,60,0,342.9,323.3,0,0,0,28.1,60,0,10.2,60,0,10.4,10.1,7.4,60,0,7.6,7.1,3.9,60,0,4.6,3.0,64.6,60,0,69.0,60.0,28.1,60,0,39.0,18.0,239,0.0,1021.4,60,0,1021.4,0,1007.1,60,0,46.2,60,0
86282,2014-03-10 00:00:00,15970,60,0,0.0,0.0,0.0,60,0,0.0,0.0,0.0,60,0,0.0,0.0,0.0,60,0,0.0,0.0,337.4,60,0,342.9,323.3,0,0,0,28.1,60,0,10.2,60,0,10.4,10.1,7.4,60,0,7.6,7.1,3.9,60,0,4.6,3.0,64.6,60,0,69.0,60.0,28.1,60,0,39.0,18.0,239,0.0,1021.4,60,0,1021.4,0,1007.1,60,0,46.2,60,0
86282,2014-03-10 12:00:00,15980,60,0,0.0,0.0,0.0,60,0,0.0,0.0,0.0,60,0,0.0,0.0,0.0,60,0,0.0,0.0,337.4,60,0,342.9,323.3,0,0,0,28.1,60,0,10.2,60,0,10.4,10.1,7.4,60,0,7.6,7.1,3.9,60,0,4.6,3.0,64.6,60,0,69.0,60.0,28.1,60,0,39.0,18.0,239,0.0,1021.4,60,0,1021.4,0,1007.1,60,0,46.2,60,0
86282,2014-03-11 00:00:00,15990,60,0,0.0,0.0,0.0,60,0,0.0,0.0,0.0,60,0,0.0,0.0,0.0,60,0,0.0,0.0,337.4,60,0,342.9,323.3,0,0,0,28.1,60,0,10.2,60,0,10.4,10.1,7.4,60,0,7.6,7.1,3.9,60,0,4.6,3.0,64.6,60,0,69.0,60.0,28.1,60,0,39.0,18.0,239,0.0,1021.4,60,0,1021.4,0,1007.1,60,0,46.2,60,0
86282,2014-03-11 12:00:00,16000,60,0,0.0,0.0,0.0,60,0,0.0,0.0,0.0,60,0,0.0,0.0,0.0,60,0,0.0,0.0,337.4,60,0,342.9,323.3,0,0,0,28.1,60,0,10.2,60,0,10.4,10.1,7.4,60,0,7.6,7.1,3.9,60,0,4.6,3.0,64.6,60,0,69.0,60.0,28.1,60,0,39.0,18.0,239,0.0,1021.4,60,0,1021.4,0,1007.1,60,0,46.2,60,0
86282,2014-03-12 00:00:00,16010,60,0,0.0,0.0,0.0,60,0,0.0,0.0,0.0,60,0,0.0,0.0,0.0,60,0,0.0,0.0,337.4,60,0,342.9,323.3,0,0,0,28.1,60,0,10.2,60,0,10.4,10.1,7.4,60,0,7.6,7.1,3.9,60,0,4.6,3.0,64.6,60,0,69.0,60.0,28.1,60,0,39.0,18.0,239,0.0,1021.4,60,0,1021.4,0,1007.1,60,0,46.2,60,0
86282,2014-03-12 12:00:00,16020,60,0,0.0,0.0,0.0,60,0,0.0,0.0,0.0,60,0,0.0,0.0,0.0,60,0,0.0,0.0,337.4,60,0,342.9,323.3,0,0,0,28.1,60,0,10.2,60,0,10.4,10.1,7.4,60,0,7.6,7.1,3.9,60,0,4.6,3.0,64.6,60,0,69.0,60.0,28.1,60,0,39.0,18.0,239,0.0,1021.4,60,0,1021.4,0,1007.1,60,0,46.2,60,0
86282,2014-03-13 00:00:00,16030,60,0,0.0,0.0,0.0,60,0,0.0,0.0,0.0,60,0,0.0,0.0,0.0,60,0,0.0,0.0,337.4,60,0,342.9,323.3,0,0,0,28.1,60,0,10.2,60,0,10.4,10.1,7.4,60,0,7.6,7.1,3.9,60,0,4.6,3.0,64.6,60,0,69.0,60.0,28.1,60,0,39.0,18.0,239,0.0,1021.4,60,0,1021.4,0,1007.1,60,0,46.2,60,0
86282,2014-03-13 12:00:00,16040,60,0,0.0,0.0,0.0,60,0,0.0,0.0,0.0,60,0,0.0,0.0,0.0,60,0,0.0,0.0,337.4,60,0,342.9,323.3,0,0,0,28.1,60,0,10.2,60,0,10.4,10.1,7.4,60,0,7.6,7.1,3.9,60,0,4.6,3.0,64.6,60,0,69.0,60.0,28.1,60,0,39.0,18.0,239,0.0,1021.4,60,0,1021.4,0,1007.1,60,0,46.2,60,0
86282,2014-03-14 00:00:00,16050,60,0,0.0,0.0,0.0,60,0,0.0,0.0,0.0,60,0,0.0,0.0,0.0,60,0,0.0,0.0,337.4,60,0,342.9,323.3,0,0,0,28.1,60,0,10.2,60,0,10.4,10.1,7.4,60,0,7.6,7.1,3.9,60,0,4.6,3.0,64.6,60,0,69.0,60.0,28.1,60,0,39.0,18.0,239,0.0,1021.4,60,0,1021.4,0,1007.1,60,0,46.2,60,0
86282,2014-03-14 12:00:00,16060,60,0,0.0,0.0,0.0,60,0,0.0,0.0,0.0,60,0,0.0,0.0,0.0,60,0,0.0,0.0,337.4,60,0,342.9,323.3,0,0,0,28.1,60,0,10.2,60,0,10.4,10.1,7.4,60,0,7.6,7.1,3.9,60,0,4.6,3.0,64.6,60,0,69.0,60.0,28.1,60,0,39.0,18.0,239,0.0,1021.4,60,0,1021.4,0,1007.1,60,0,46.2,60,0
86282,2014-03-15 00:00:00,16070,60,0,0.0,0.0,0.0,60,0,0.0,0.0,0.0,60,0,0.0,0.0,0.0,60,0,0.0,0.0,337.4,60,0,342.9,323.3,0,0,0,28.1,60,0,10.2,60,0,10.4,10.1,7.4,60,0,7.6,7.1,3.9,60,0,4.6,3.0,64.6,60,0,69.0,60.0,28.1,60,0,39.0,18.0,239,0.0,1021.4,60,0,1021.4,0,1007.1,60,0,46.2,60,0
86282,2014-03-15 12:00:00,16080,60,0,0.0,0.0,0.0,60,0,0.0,0.0,0.0,60,0,0.0,0.0,0.0,60,0,0.0,0.0,337.4,60,0,342.9,323.3,0,0,0,28.1,60,0,10.2,60,0,10.4,10.1,7.4,60,0,7.6,7.1,3.9,60,0,4.6,3.0,64.6,60,0,69.0,60.0,28.1,60,0,39.0,18.0,239,0.0,1021.4,60,0,1021.4,0,1007.1,60,0,46.2,60,0
86282,2014-03-16 00:00:00,16090,60,0,0.0,0.0,0.0,60,0,0.0,0.0,0.0,60,0,0.0,0.0,0.0,60,0,0.0,0.0,337.4,60,0,342.9,323.3,0,0,0,28.1,60,0,10.2,60,0,10.4,10.1,7.4,60,0,7.6,7.1,3.9,60,0,4.6,3.0,64.6,60,0,69.0,60.0,28.1,60,0,39.0,18.0,239,0.0,1021.4,60,0,1021.4,0,1007.1,60,0,46.2,60,0
86282,2014-03-16 12:00:00,16100,60,0,0.0,0.0,0.0,60,0,0.0,0.0,0.0,60,0,0.0,0.0,0.0,60,0,0.0,0.0,337.4,60,0,342.9,323.3,0,0,0,28.1,60,0,10.2,60,0,10.4,10.1,7.4,60,0,7.6,7.1,3.9,60,0,4.6,3.0,64.6,60,0,69.0,60.0,28.1,60,0,39.0,18.0,239,0.0,1021.4,60,0,1021.4,0,1007.1,60,0,46.2,60,0
86282,2014-03-17 00:00:00,16110,60,0,0.0,0.0,0.0,60,0,0.0,0.0,0.0,60,0,0.0,0.0,0.0,60,0,0.0,0.0,337.4,60,0,342.9,323.3,0,0,0,28.1,60,0,10.2,60,0,10.4,10.1,7.4,60,0,7.6,7.1,3.9,60,0,4.6,3.0,64.6,60,0,69.0,60.0,28.1,60,0,39.0,18.0,239,0.0,1021.4,60,0,1021.4,0,1007.1,60,0,46.2,60,0
86282,2014-03-17 12:00:00,16120,60,0,0.0,0.0,0.0,60,0,0.0,0.0,0.0,60,0,0.0,0.0,0.0,60,0,0.0,0.0,337.4,60,0,342.9,323.3,0,0,0,28.1,60,0,10.2,60,0,10.4,10.1,7.4,60,0,7.6,7.1,3.9,60,0,4.6,3.0,64.6,60,0,69.0,60.0,28.1,60,0,39.0,18.0,239,0.0,1021.4,60,0,1021.4,0,1007.1,60,0,46.2,60,0
86282,2014-03-18 00:00:00,16130,60,0,0.0,0.0,0.0,60,0,0.0,0.0,0.0,60,0,0.0,0.0,0.0,60,0,0.0,0.0,337.4,60,0,342.9,323.3,0,0,0,28.1,60,0,10.2,60,0,10.4,10.1,7.4,60,0,7.6,7.1,3.9,60,0,4.6,3.0,64.6,60,0,69.0,60.0,28.1,60,0,39.0,18.0,239,0.0,1021.4,60,0,1021.4,0,1007.1,60,0,46.2,60,0
86282,2014-03-18 12:00:00,16140,60,0,0.0,0.0,0.0,60,0,0.0,0.0,0.0,60,0,0.0,0.0,0.0,60,0,0.0,0.0,337.4,60,0,342.9,323.3,0,0,0,28.1,60,0,10.2,60,0,10.4,10.1,7.4,60,0,7.6,7.1,3.9,60,0,4.6,3.0,64.6,60,0,69.0,60.0,28.1,60,0,39.0,18.0,239,0.0,1021.4,60,0,1021.4,0,1007.1,60,0,46.2,60,0
86282,2014-03-19 00:00:00,16150,60,0,0.0,0.0,0.0,60,0,0.0,0.0,0.0,60,0,0.0,0.0,0.0,60,0,0.0,0.0,337.4,60,0,342.9,323.3,0,0,0,28.1,60,0,10.2,60,0,10.4,10.1,7.4,60,0,7.6,7.1,3.9,60,0,4.6,3.0,64.6,60,0,69.0,60.0,28.1,60,0,39.0,18.0,239,0.0,1021.4,60,0,1021.4,0,1007.1,60,0,46.2,60,0
86282,2014-03-19 12:00:00,16160,60,0,0.0,0.0,0.0,60,0,0.0,0.0,0.0,60,0,0.0,0.0,0.0,60,0,0.0,0.0,337.4,60,0,342.9,323.3,0,0,0,28.1,60,0,10.2,60,0,10.4,10.1,7.4,60,0,7.6,7.1,3.9,60,0,4.6,3.0,64.6,60,0,69.0,60.0,28.1,60,0,39.0,18.0,239,0.0,1021.4,60,0,1021.4,0,1007.1,60,0,46.2,60,0
86282,2014-03-20 00:00:00,16170,60,0,0.0,0.0,0.0,60,0,0.0,0.0,0.0,60,0,0.0,0.0,0.0,60,0,0.0,0.0,337.4,60,0,342.9,323.3,0,0,0,28.1,60,0,10.2,60,0,10.4,10.1,7.4,60,0,7.6,7.1,3.9,60,0,4.6,3.0,64.6,60,0,69.0,60.0,28.1,60,0,39.0,18.0,239,0.0,1021.4,60,0,1021.4,0,1007.1,60,0,46.2,60,0
86282,2014-03-20 12:00:00,16180,60,0,0.0,0.0,0.0,60,0,0.0,0.0,0.0,60,0,0.0,0.0,0.0,60,0,0.0,0.0,337.4,60,0,342.9,323.3,0,0,0,28.1,60,0,10.2,60,0,10.4,10.1,7.4,60,0,7.6,7.1,3.9,60,0,4.6,3.0,64.6,60,0,69.0,60.0,28.1,60,0,39.0,18.0,239,0.0,1021.4,60,0,1021.4,0,1007.1,60,0,46.2,60,0
86282,2014-03-21 00:00:00,16190,60,0,0.0,0.0,0.0,60,0,0.0,0.0,0.0,60,0,0.0,0.0,0.0,60,0,0.0,0.0,337.4,60,0,342.9,323.3,0,0,0,28.1,60,0,10.2,60,0,10.4,10.1,7.4,60,0,7.6,7.1,3.9,60,0,4.6,3.0,64.6,60,0,69.0,60.0,28.1,60,0,39.0,18.0,239,0.0,1021.4,60,0,1021.4,0,1007.1,60,0,46.2,60,0
86282,2014-03-21 12:00:00,16200,60,0,0.0,0.0,0.0,60,0,0.0,0.0,0.0,60,0,0.0,0.0,0.0,60,0,0.0,0.0,337.4,60,0,342.9,323.3,0,0,0,28.1,60,0,10.2,60,0,10.4,10.1,7.4,60,0,7.6,7.1,3.9,60,0,4.6,3.0,64.6,60,0,69.0,60.0,28.1,60,0,39.0,18.0,239,0.0,1021.4,60,0,1021.4,0,1007.1,60,0,46.2,60,0
86282,2014-03-22 00:00:00,16210,60,0,0.0,0.0,0.0,60,0,0.0,0.0,0.0,60,0,0.0,0.0,0.0,60,0,0.0,0.0,337.4,60,0,342.9,323.3,0,0,0,28.1,60,0,10.2,60,0,10.4,10.1,7.4,60,0,7.6,7.1,3.9,60,0,4.6,3.0,64.6,60,0,69.0,60.0,28.1,60,0,39.0,18.0,239,0.0,1021.4,60,0,1021.4,0,1007.1,60,0,46.2,60,0
86282,2014-03-22 12:00:00,16220,60,0,0.0,0.0,0.0,60,0,0.0,0.0,0.0,60,0,0.0,0.0,0.0,60,0,0.0,0.0,337.4,60,0,342.9,323.3,0,0,0,28.1,60,0,10.2,60,0,10.4,10.1,7.4,60,0,7.6,7.1,3.9,60,0,4.6,3.0,64.6,60,0,69.0,60.0,28.1,60,0,39.0,18.0,239,0.0,1021.4,60,0,1021.4,0,1007.1,60,0,46.2,60,0
86282,2014-03-23 00:00:00,16230,60,0,0.0,0.0,0.0,60,0,0.0,0.0,0.0,60,0,0.0,0.0,0.0,60,0,0.0,0.0,337.4,60,0,342.9,323.3,0,0,0,28.1,60,0,10.2,60,0,10.4,10.1,7.4,60,0,7.6,7.1,3.9,60,0,4.6,3.0,64.6,60,0,69.0,60.0,28.1,60,0,39.0,18.0,239,0.0,1021.4,60,0,1021.4,0,1007.1,60,0,46.2,60,0
86282,2014-03-23 12:00:00,16240,60,0,0.0,0.0,0.0,60,0,0.0,0.0,0.0,60,0,0.0,0.0,0.0,60,0,0.0,0.0,337.4,60,0,342.9,323.3,0,0,0,28.1,60,0,10.2,60,0,10.4,10.1,7.4,60,0,7.6,7.1,3.9,60,0,4.6,3.0,64.6,60,0,69.0,60.0,28.1,60,0,39.0,18.0,239,0.0,1021.4,60,0,1021.4,0,1007.1,60,0,46.2,60,0
86282,2014-03-24 00:00:00,16250,60,0,0.0,0.0,0.0,60,0,0.0,0.0,0.0,60,0,0.0,0.0,0.0,60,0,0.0,0.0,337.4,60,0,342.9,323.3,0,0,0,28.1,60,0,10.2,60,0,10.4,10.1,7.4,60,0,7.6,7.1,3.9,60,0,4.6,3.0,64.6,60,0,69.0,60.0,28.1,60,0,39.0,18.0,239,0.0,1021.4,60,0,1021.4,0,1007.1,60,0,46.2,60,0
86282,2014-03-24 12:00:00,16260,60,0,0.0,0.0,0.0,60,0,0.0,0.0,0.0,60,0,0.0,0.0,0.0,60,0,0.0,0.0,337.4,60,0,342.9,323.3,0,0,0,28.1,60,0,10.2,60,0,10.4,10.1,7.4,60,0,7.6,7.1,3.9,60,0,4.6,3.0,64.6,60,0,69.0,60.0,28.1,60,0,39.0,18.0,239,0.0,1021.4,60,0,1021.4,0,1007.1,60,0,46.2,60,0
86282,2014-03-25 00:00:00,16270,60,0,0.0,0.0,0.0,60,0,0.0,0.0,0.0,60,0,0.0,0.0,0.0,60,0,0.0,0.0,337.4,60,0,342.9,323.3,0,0,0,28.1,60,0,10.2,60,0,10.4,10.1,7.4,60,0,7.6,7.1,3.9,60,0,4.6,3.0,64.6,60,0,69.0,60.0,28.1,60,0,39.0,18.0,239,0.0,1021.4,60,0,1021.4,0,1007.1,60,0,46.2,60,0
86282,2014-03-25 12:00:00,16280,60,0,0.0,0.0,0.0,60,0,0.0,0.0,0.0,60,0,0.0,0.0,0.0,60,0,0.0,0.0,337.4,60,0,342.9,323.3,0,0,0,28.1,60,0,10.2,60,0,10.4,10.1,7.4,60,0,7.6,7.1,3.9,60,0,4.6,3.0,64.6,60,0,69.0,60.0,28.1,60,0,39.0,18.0,239,0.0,1021.4,60,0,1021.4,0,1007.1,60,0,46.2,60,0
86282,2014-03-26 00:00:00,16290,60,0,0.0,0.0,0.0,60,0,0.0,0.0,0.0,60,0,0.0,0.0,0.0,60,0,0.0,0.0,337.4,60,0,342.9,323.3,0,0,0,28.1,60,0,10.2,60,0,10.4,10.1,7.4,60,0,7.6,7.1,3.9,60,0,4.6,3.0,64.6,60,0,69.0,60.0,28.1,60,0,39.0,18.0,239,0.0,1021.4,60,0,1021.4,0,1007.1,60,0,46.2,60,0
86282,2014-03-26 12:00:00,16300,60,0,0.0,0.0,0.0,60,0,0.0,0.0,0.0,60,0,0.0,0.0,0.0,60,0,0.0,0.0,337.4,60,0,342.9,323.3,0,0,0,28.1,60,0,10.2,60,0,10.4,10.1,7.4,60,0,7.6,7.1,3.9,60,0,4.6,3.0,64.6,60,0,69.0,60.0,28.1,60,0,39.0,18.0,239,0.0,1021.4,60,0,1021.4,0,1007.1,60,0,46.2,60,0
86282,2014-03-27 00:00:00,16310,60,0,0.0,0.0,0.0,60,0,0.0,0.0,0.0,60,0,0.0,0.0,0.0,60,0,0.0,0.0,337.4,60,0,342.9,323.3,0,0,0,28.1,60,0,10.2,60,0,10.4,10.1,7.4,60,0,7.6,7.1,3.9,60,0,4.6,3.0,64.6,60,0,69.0,60.0,28.1,60,0,39.0,18.0,239,0.0,1021.4,60,0,1021.4,0,1007.1,60,0,46.2,60,0
86282,2014-03-27 12:00:00,16320,60,0,0.0,0.0,0.0,60,0,0.0,0.0,0.0,60,0,0.0,0.0,0.0,60,0,0.0,0.0,337.4,60,0,342.9,323.3,0,0,0,28.1,60,0,10.2,60,0,10.4,10.1,7.4,60,0,7.6,7.1,3.9,60,0,4.6,3.0,64.6,60,0,69.0,60.0,28.1,60,0,39.0,18.0,239,0.0,1021.4,60,0,1021.4,0,1007.1,60,0,46.2,60,0
86282,2014-03-28 00:00:00,16330,60,0,0.0,0.0,0.0,60,0,0.0,0.0,0.0,60,0,0.0,0.0,0.0,60,0,0.0,0.0,337.4,60,0,342.9,323.3,0,0,0,28.1,60,0,10.2,60,0,10.4,10.1,7.4,60,0,7.6,7.1,3.9,60,0,4.6,3.0,64.6,60,0,69.0,60.0,28.1,60,0,39.0,18.0,239,0.0,1021.4,60,0,1021.4,0,1007.1,60,0,46.2,60,0
86282,2014-03-28 12:00:00,16340,60,0,0.0,0.0,0.0,60,0,0.0,0.0,0.0,60,0,0.0,0.0,0.0,60,0,0.0,0.0,337.4,60,0,342.9,323.3,0,0,0,28.1,60,0,10.2,60,0,10.4,10.1,7.4,60,0,7.6,7.1,3.9,60,0,4.6,3.0,64.6,60,0,69.0,60.0,28.1,60,0,39.0,18.0,239,0.0,1021.4,60,0,1021.4,0,1007.1,60,0,46.2,60,0
86282,2014-03-29 00:00:00,16350,60,0,0.0,0.0,0.0,60,0,0.0,0.0,0.0,60,0,0.0,0.0,0.0,60,0,0.0,0.0,337.4,60,0,342.9,323.3,0,0,0,28.1,60,0,10.2,60,0,10.4,10.1,7.4,60,0,7.6,7.1,3.9,60,0,4.6,3.0,64.6,60,0,69.0,60.0,28.1,60,0,39.0,18.0,239,0.0,1021.4,60,0,1021.4,0,1007.1,60,0,46.2,60,0
86282,2014-03-29 12:00:00,16360,60,0,0.0,0.0,0.0,60,0,0.0,0.0,0.0,60,0,0.0,0.0,0.0,60,0,0.0,0.0,337.4,60,0,342.9,323.3,0,0,0,28.1,60,0,10.2,60,0,10.4,10.1,7.4,60,0,7.6,7.1,3.9,60,0,4.6,3.0,64.6,60,0,69.0,60.0,28.1,60,0,39.0,18.0,239,0.0,1021.4,60,0,1021.4,0,1007.1,60,0,46.2,60,0
86282,2014-03-30 00:00:00,16370,60,0,0.0,0.0,0.0,60,0,0.0,0.0,0.0,60,0,0.0,0.0,0.0,60,0,0.0,0.0,337.4,60,0,342.9,323.3,0,0,0,28.1,60,0,10.2,60,0,10.4,10.1,7.4,60,0,7.6,7.1,3.9,60,0,4.6,3.0,64.6,60,0,69.0,60.0,28.1,60,0,39.0,18.0,239,0.0,1021.4,60,0,1021.4,0,1007.1,60,0,46.2,60,0
86282,2014-03-30 12:00:00,16380,60,0,0.0,0.0,0.0,60,0,0.0,0.0,0.0,60,0,0.0,0.0,0.0,60,0,0.0,0.0,337.4,60,0,342.9,323.3,0,0,0,28.1,60,0,10.2,60,0,10.4,10.1,7.4,60,0,7.6,7.1,3.9,60,0,4.6,3.0,64.6,60,0,69.0,60.0,28.1,60,0,39.0,18.0,239,0.0,1021.4,60,0,1021.4,0,1007.1,60,0,46.2,60,0
86282,2014-03-31 00:00:00,16390,60,0,0.0,0.0,0.0,60,0,0.0,0.0,0.0,60,0,0.0,0.0,0.0,60,0,0.0,0.0,337.4,60,0,342.9,323.3,0,0,0,28.1,60,0,10.2,60,0,10.4,10.1,7.4,60,0,7.6,7.1,3.9,60,0,4.6,3.0,64.6,60,0,69.0,60.0,28.1,60,0,39.0,18.0,239,0.0,1021.4,60,0,1021.4,0,1007.1,60,0,46.2,60,0
86282,2014-03-31 12:00:00,16400,60,0,0.0,0.0,0.0,60,0,0.0,0.0,0.0,60,0,0.0,0.0,0.0,60,0,0.0,0.0,337.4,60,0,342.9,323.3,0,0,0,28.1,60,0,10.2,60,0,10.4,10.1,7.4,60,0,7.6,7.1,3.9,60,0,4.6,3.0,64.6,60,0,69.0,60.0,28.1,60,0,39.0,18.0,239,0.0,1021.4,60,0,1021.4,0,1007.1,60,0,46.2,60,0
86282,2014-04-01 00:00:00,16410,60,0,0.0,0.0,0.0,60,0,0.0,0.0,0.0,60,0,0.0,0.0,0.0,60,0,0.0,0.0,337.4,60,0,342.9,323.3,0,0,0,28.1,60,0,10.2,60,0,10.4,10.1,7.4,60,0,7.6,7.1,3.9,60,0,4.6,3.0,64.6,60,0,69.0,60.0,28.1,60,0,39.0,18.0,239,0.0,1021.4,60,0,1021.4,0,1007.1,60,0,46.2,60,0
86282,2014-04-01 12:00:00,16420,60,0,0.0,0.0,0.0,60,0,0.0,0.0,0.0,60,0,0.0,0.0,0.0,60,0,0.0,0.0,337.4,60,0,342.9,323.3,0,0,0,28.1,60,0,10.2,60,0,10.4,10.1,7.4,60,0,7.6,7.1,3.9,60,0,4.6,3.0,64.6,60,0,69.0,60.0,28.1,60,0,39.0,18.0,239,0.0,1021.4,60,0,1021.4,0,1007.1,60,0,46.2,60,0
86282,2014-04-02 00:00:00,16430,60,0,0.0,0.0,0.0,60,0,0.0,0.0,0.0,60,0,0.0,0.0,0.0,60,0,0.0,0.0,337.4,60,0,342.9,323.3,0,0,0,28.1,60,0,10.2,60,0,10.4,10.1,7.4,60,0,7.6,7.1,3.9,60,0,4.6,3.0,64.6,60,0,69.0,60.0,28.1,60,0,39.0,18.0,239,0.0,1021.4,60,0,1021.4,0,1007.1,60,0,46.2,60,0
86282,2014-04-02 12:00:00,16440,60,0,0.0,0.0,0.0,60,0,0.0,0.0,0.0,60,0,0.0,0.0,0.0,60,0,0.0,0.0,337.4,60,0,342.9,323.3,0,0,0,28.1,60,0,10.2,60,0,10.4,10.1,7.4,60,0,7.6,7.1,3.9,60,0,4.6,3.0,64.6,60,0,69.0,60.0,28.1,60,0,39.0,18.0,239,0.0,1021.4,60,0,1021.4,0,1007.1,60,0,46.2,60,0
86282,2014-04-03 00:00:00,16450,60,0,0.0,0.0,0.0,60,0,0.0,0.0,0.0,60,0,0.0,0.0,0.0,60,0,0.0,0.0,337.4,60,0,342.9,323.3,0,0,0,28.1,60,0,10.2,60,0,10.4,10.1,7.4,60,0,7.6,7.1,3.9,60,0,4.6,3.0,64.6,60,0,69.0,60.0,28.1,60,0,39.0,18.0,239,0.0,1021.4,60,0,1021.4,0,1007.1,60,0,46.2,60,0
86282,2014-04-03 12:00:00,16460,60,0,0.0,0.0,0.0,60,0,0.0,0.0,0.0,60,0,0.0,0.0,0.0,60,0,0.0,0.0,337.4,60,0,342.9,323.3,0,0,0,28.1,60,0,10.2,60,0,10.4,10.1,7.4,60,0,7.6,7.1,3.9,60,0,4.6,3.0,64.6,60,0,69.0,60.0,28.1,60,0,39.0,18.0,239,0.0,1021.4,60,0,1021.4,0,1007.1,60,0,46.2,60,0
86282,2014-04-04 00:00:00,16470,60,0,0.0,0.0,0.0,60,0,0.0,0.0,0.0,60,0,0.0,0.0,0.0,60,0,0.0,0.0,337.4,60,0,342.9,323.3,0,0,0,28.1,60,0,10.2,60,0,10.4,10.1,7.4,60,0,7.6,7.1,3.9,60,0,4.6,3.0,64.6,60,0,69.0,60.0,28.1,60,0,39.0,18.0,239,0.0,1021.4,60,0,1021.4,0,1007.1,60,0,46.2,60,0
86282,2014-04-04 12:00:00,16480,60,0,0.0,0.0,0.0,60,0,0.0,0.0,0.0,60,0,0.0,0.0,0.0,60,0,0.0,0.0,337.4,60,0,342.9,323.3,0,0,0,28.1,60,0,10.2,60,0,10.4,10.1,7.4,60,0,7.6,7.1,3.9,60,0,4.6,3.0,64.6,60,0,69.0,60.0,28.1,60,0,39.0,18.0,239,0.0,1021.4,60,0,1021.4,0,1007.1,60,0,46.2,60,0
86282,2014-04-05 00:00:00,16490,60,0,0.0,0.0,0.0,60,0,0.0,0.0,0.0,60,0,0.0,0.0,0.0,60,0,0.0,0.0,337.4,60,0,342.9,323.3,0,0,0,28.1,60,0,10.2,60,0,10.4,10.1,7.4,60,0,7.6,7.1,3.9,60,0,4.6,3.0,64.6,60,0,69.0,60.0,28.1,60,0,39.0,18.0,239,0.0,1021.4,60,0,1021.4,0,1007.1,60,0,46.2,60,0
86282,2014-04-05 12:00:00,16500,60,0,0.0,0.0,0.0,60,0,0.0,0.0,0.0,60,0,0.0,0.0,0.0,60,0,0.0,0.0,337.4,60,0,342.9,323.3,0,0,0,28.1,60,0,10.2,60,0,10.4,10.1,7.4,60,0,7.6,7.1,3.9,60,0,4.6,3.0,64.6,60,0,69.0,60.0,28.1,60,0,39.0,18.0,239,0.0,1021.4,60,0,1021.4,0,1007.1,60,0,46.2,60,0
86282,2014-04-06 00:00:00,16510,60,0,0.0,0.0,0.0,60,0,0.0,0.0,0.0,60,0,0.0,0.0,0.0,60,0,0.0,0.0,337.4,60,0,342.9,323.3,0,0,0,28.1,60,0,10.2,60,0,10.4,10.1,7.4,60,0,7.6,7.1,3.9,60,0,4.6,3.0,64.6,60,0,69.0,60.0,28.1,60,0,39.0,18.0,239,0.0,1021.4,60,0,1021.4,0,1007.1,60,0,46.2,60,0
86282,2014-04-06 12:00:00,16520,60,0,0.0,0.0,0.0,60,0,0.0,0.0,0.0,60,0,0.0,0.0,0.0,60,0,0.0,0.0,337.4,60,0,342.9,323.3,0,0,0,28.1,60,0,10.2,60,0,10.4,10.1,7.4,60,0,7.6,7.1,3.9,60,0,4.6,3.0,64.6,60,0,69.0,60.0,28.1,60,0,39.0,18.0,239,0.0,1021.4,60,0,1021.4,0,1007.1,60,0,46.2,60,0
86282,2014-04-07 00:00:00,16530,60,0,0.0,0.0,0.0,60,0,0.0,0.0,0.0,60,0,0.0,0.0,0.0,60,0,0.0,0.0,337.4,60,0,342.9,323.3,0,0,0,28.1,60,0,10.2,60,0,10.4,10.1,7.4,60,0,7.6,7.1,3.9,60,0,4.6,3.0,64.6,60,0,69.0,60.0,28.1,60,0,39.0,18.0,239,0.0,1021.4,60,0,1021.4,0,1007.1,60,0,46.2,60,0
86282,2014-04-07 12:00:00,16540,60,0,0.0,0.0,0.0,60,0,0.0,0.0,0.0,60,0,0.0,0.0,0.0,60,0,0.0,0.0,337.4,60,0,342.9,323.3,0,0,0,28.1,60,0,10.2,60,0,10.4,10.1,7.4,60,0,7.6,7.1,3.9,60,0,4.6,3.0,64.6,60,0,69.0,60.0,28.1,60,0,39.0,18.0,239,0.0,1021.4,60,0,1021.4,0,1007.1,60,0,46.2,60,0
86282,2014-04-08 00:00:00,16550,60,0,0.0,0.0,0.0,60,0,0.0,0.0,0.0,60,0,0.0,0.0,0.0,60,0,0.0,0.0,337.4,60,0,342.9,323.3,0,0,0,28.1,60,0,10.2,60,0,10.4,10.1,7.4,60,0,7.6,7.1,3.9,60,0,4.6,3.0,64.6,60,0,69.0,60.0,28.1,60,0,39.0,18.0,239,0.0,1021.4,60,0,1021.4,0,1007.1,60,0,46.2,60,0
86282,2014-04-08 12:00:00,16560,60,0,0.0,0.0,0.0,60,0,0.0,0.0,0.0,60,0,0.0,0.0,0.0,60,0,0.0,0.0,337.4,60,0,342.9,323.3,0,0,0,28.1,60,0,10.2,60,0,10.4,10.1,7.4,60,0,7.6,7.1,3.9,60,0,4.6,3.0,64.6,60,0,69.0,60.0,28.1,60,0,39.0,18.0,239,0.0,1021.4,60,0,1021.4,0,1007.1,60,0,46.2,60,0
86282,2014-04-09 00:00:00,16570,60,0,0.0,0.0,0.0,60,0,0.0,0.0,0.0,60,0,0.0,0.0,0.0,60,0,0.0,0.0,337.4,60,0,342.9,323.3,0,0,0,28.1,60,0,10.2,60,0,10.4,10.1,7.4,60,0,7.6,7.1,3.9,60,0,4.6,3.0,64.6,60,0,69.0,60.0,28.1,60,0,39.0,18.0,239,0.0,1021.4,60,0,1021.4,0,1007.1,60,0,46.2,60,0
86282,2014-04-09 12:00:00,16580,60,0,0.0,0.0,0.0,60,0,0.0,0.0,0.0,60,0,0.0,0.0,0.0,60,0,0.0,0.0,337.4,60,0,342.9,323.3,0,0,0,28.1,60,0,10.2,60,0,10.4,10.1,7.4,60,0,7.6,7.1,3.9,60,0,4.6,3.0,64.6,60,0,69.0,60.0,28.1,60,0,39.0,18.0,239,0.0,1021.4,60,0,1021.4,0,1007.1,60,0,46.2,60,0
86282,2014-04-10 00:00:00,16590,60,0,0.0,0.0,0.0,60,0,0.0,0.0,0.0,60,0,0.0,0.0,0.0,60,0,0.0,0.0,337.4,60,0,342.9,323.3,0,0,0,28.1,60,0,10.2,60,0,10.4,10.1,7.4,60,0,7.6,7.1,3.9,60,0,4.6,3.0,64.6,60,0,69.0,60.0,28.1,60,0,39.0,18.0,239,0.0,1021.4,60,0,1021.4,0,1007.1,60,0,46.2,60,0
86282,2014-04-10 12:00:00,16600,60,0,0.0,0.0,0.0,60,0,0.0,0.0,0.0,60,0,0.0,0.0,0.0,60,0,0.0,0.0,337.4,60,0,342.9,323.3,0,0,0,28.1,60,0,10.2,60,0,10.4,10.1,7.4,60,0,7.6,7.1,3.9,60,0,4.6,3.0,64.6,60,0,69.0,60.0,28.1,60,0,39.0,18.0,239,0.0,1021.4,60,0,1021.4,0,1007.1,60,0,46.2,60,0
86282,2014-04-11 00:00:00,16610,60,0,0.0,0.0,0.0,60,0,0.0,0.0,0.0,60,0,0.0,0.0,0.0,60,0,0.0,0.0,337.4,60,0,342.9,323.3,0,0,0,28.1,60,0,10.2,60,0,10.4,10.1,7.4,60,0,7.6,7.1,3.9,60,0,4.6,3.0,64.6,60,0,69.0,60.0,28.1,60,0,39.0,18.0,239,0.0,1021.4,60,0,1021.4,0,1007.1,60,0,46.2,60,0
86282,2014-04-11 12:00:00,16620,60,0,0.0,0.0,0.0,60,0,0.0,0.0,0.0,60,0,0.0,0.0,0.0,60,0,0.0,0.0,337.4,60,0,342.9,323.3,0,0,0,28.1,60,0,10.2,60,0,10.4,10.1,7.4,60,0,7.6,7.1,3.9,60,0,4.6,3.0,64.6,60,0,69.0,60.0,28.1,60,0,39.0,18.0,239,0.0,1021.4,60,0,1021.4,0,1007.1,60,0,46.2,60,0
86282,2014-04-12 00:00:00,16630,60,0,0.0,0.0,0.0,60,0,0.0,0.0,0.0,60,0,0.0,0.0,0.0,60,0,0.0,0.0,337.4,60,0,342.9,323.3,0,0,0,28.1,60,0,10.2,60,0,10.4,10.1,7.4,60,0,7.6,7.1,3.9,60,0,4.6,3.0,64.6,60,0,69.0,60.0,28.1,60,0,39.0,18.0,239,0.0,1021.4,60,0,1021.4,0,1007.1,60,0,46.2,60,0
86282,2014-04-12 12:00:00,16640,60,0,0.0,0.0,0.0,60,0,0.0,0.0,0.0,60,0,0.0,0.0,0.0,60,0,0.0,0.0,337.4,60,0,342.9,323.3,0,0,0,28.1,60,0,10.2,60,0,10.4,10.1,7.4,60,0,7.6,7.1,3.9,60,0,4.6,3.0,64.6,60,0,69.0,60.0,28.1,60,0,39.0,18.0,239,0.0,1021.4,60,0,1021.4,0,1007.1,60,0,46.2,60,0
86282,2014-04-13 00:00:00,16650,60,0,0.0,0.0,0.0,60,0,0.0,0.0,0.0,60,0,0.0,0.0,0.0,60,0,0.0,0.0,337.4,60,0,342.9,323.3,0,0,0,28.1,60,0,10.2,60,0,10.4,10.1,7.4,60,0,7.6,7.1,3.9,60,0,4.6,3.0,64.6,60,0,69.0,60.0,28.1,60,0,39.0,18.0,239,0.0,1021.4,60,0,1021.4,0,1007.1,60,0,46.2,60,0
86282,2014-04-13 12:00:00,16660,60,0,0.0,0.0,0.0,60,0,0.0,0.0,0.0,60,0,0.0,0.0,0.0,60,0,0.0,0.0,337.4,60,0,342.9,323.3,0,0,0,28.1,60,0,10.2,60,0,10.4,10.1,7.4,60,0,7.6,7.1,3.9,60,0,4.6,3.0,64.6,60,0,69.0,60.0,28.1,60,0,39.0,18.0,239,0.0,1021.4,60,0,1021.4,0,1007.1,60,0,46.2,60,0
86282,2014-04-14 00:00:00,16670,60,0,0.0,0.0,0.0,60,0,0.0,0.0,0.0,60,0,0.0,0.0,0.0,60,0,0.0,0.0,337.4,60,0,342.9,323.3,0,0,0,28.1,60,0,10.2,60,0,10.4,10.1,7.4,60,0,7.6,7.1,3.9,60,0,4.6,3.0,64.6,60,0,69.0,60.0,28.1,60,0,39.0,18.0,239,0.0,1021.4,60,0,1021.4,0,1007.1,60,0,46.2,60,0
86282,2014-04-14 12:00:00,16680,60,0,0.0,0.0,0.0,60,0,0.0,0.0,0.0,60,0,0.0,0.0,0.0,60,0,0.0,0.0,337.4,60,0,342.9,323.3,0,0,0,28.1,60,0,10.2,60,0,10.4,10.1,7.4,60,0,7.6,7.1,3.9,60,0,4.6,3.0,64.6,60,0,69.0,60.0,28.1,60,0,39.0,18.0,239,0.0,1021.4,60,0,1021.4,0,1007.1,60,0,46.2,60,0
86282,2014-04-15 00:00:00,16690,60,0,0.0,0.0,0.0,60,0,0.0,0.0,0.0,60,0,0.0,0.0,0.0,60,0,0.0,0.0,337.4,60,0,342.9,323.3,0,0,0,28.1,60,0,10.2,60,0,10.4,10.1,7.4,60,0,7.6,7.1,3.9,60,0,4.6,3.0,64.6,60,0,69.0,60.0,28.1,60,0,39.0,18.0,239,0.0,1021.4,60,0,1021.4,0,1007.1,60,0,46.2,60,0
86282,2014-04-15 12:00:00,16700,60,0,0.0,0.0,0.0,60,0,0.0,0.0,0.0,60,0,0.0,0.0,0.0,60,0,0.0,0.0,337.4,60,0,342.9,323.3,0,0,0,28.1,60,0,10.2,60,0,10.4,10.1,7.4,60,0,7.6,7.1,3.9,60,0,4.6,3.0,64.6,60,0,69.0,60.0,28.1,60,0,39.0,18.0,239,0.0,1021.4,60,0,1021.4,0,1007.1,60,0,46.2,60,0
86282,2014-04-16 00:00:00,16710,60,0,0.0,0.0,0.0,60,0,0.0,0.0,0.0,60,0,0.0,0.0,0.0,60,0,0.0,0.0,337.4,60,0,342.9,323.3,0,0,0,28.1,60,0,10.2,60,0,10.4,10.1,7.4,60,0,7.6,7.1,3.9,60,0,4.6,3.0,64.6,60,0,69.0,60.0,28.1,60,0,39.0,18.0,239,0.0,1021.4,60,0,1021.4,0,1007.1,60,0,46.2,60,0
86282,2014-04-16 12:00:00,16720,60,0,0.0,0.0,0.0,60,0,0.0,0.0,0.0,60,0,0.0,0.0,0.0,60,0,0.0,0.0,337.4,60,0,342.9,323.3,0,0,0,28.1,60,0,10.2,60,0,10.4,10.1,7.4,60,0,7.6,7.1,3.9,60,0,4.6,3.0,64.6,60,0,69.0,60.0,28.1,60,0,39.0,18.0,239,0.0,1021.4,60,0,1021.4,0,1007.1,60,0,46.2,60,0
86282,2014-04-17 00:00:00,16730,60,0,0.0,0.0,0.0,60,0,0.0,0.0,0.0,60,0,0.0,0.0,0.0,60,0,0.0,0.0,337.4,60,0,342.9,323.3,0,0,0,28.1,60,0,10.2,60,0,10.4,10.1,7.4,60,0,7.6,7.1,3.9,60,0,4.6,3.0,64.6,60,0,69.0,60.0,28.1,60,0,39.0,18.0,239,0.0,1021.4,60,0,1021.4,0,1007.1,60,0,46.2,60,0
86282,2014-04-17 12:00:00,16740,60,0,0.0,0.0,0.0,60,0,0.0,0.0,0.0,60,0,0.0,0.0,0.0,60,0,0.0,0.0,337.4,60,0,342.9,323.3,0,0,0,28.1,60,0,10.2,60,0,10.4,10.1,7.4,60,0,7.6,7.1,3.9,60,0,4.6,3.0,64.6,60,0,69.0,60.0,28.1,60,0,39.0,18.0,239,0.0,1021.4,60,0,1021.4,0,1007.1,60,0,46.2,60,0
86282,2014-04-18 00:00:00,16750,60,0,0.0,0.0,0.0,60,0,0.0,0.0,0.0,60,0,0.0,0.0,0.0,60,0,0.0,0.0,337.4,60,0,342.9,323.3,0,0,0,28.1,60,0,10.2,60,0,10.4,10.1,7.4,60,0,7.6,7.1,3.9,60,0,4.6,3.0,64.6,60,0,69.0,60.0,28.1,60,0,39.0,18.0,239,0.0,1021.4,60,0,1021.4,0,1007.1,60,0,46.2,60,0
86282,2014-04-18 12:00:00,16760,60,0,0.0,0.0,0.0,60,0,0.0,0.0,0.0,60,0,0.0,0.0,0.0,60,0,0.0,0.0,337.4,60,0,342.9,323.3,0,0,0,28.1,60,0,10.2,60,0,10.4,10.1,7.4,60,0,7.6,7.1,3.9,60,0,4.6,3.0,64.6,60,0,69.0,60.0,28.1,60,0,39.0,18.0,239,0.0,1021.4,60,0,1021.4,0,1007.1,60,0,46.2,60,0
86282,2014-04-19 00:00:00,16770,60,0,0.0,0.0,0.0,60,0,0.0,0.0,0.0,60,0,0.0,0.0,0.0,60,0,0.0,0.0,337.4,60,0,342.9,323.3,0,0,0,28.1,60,0,10.2,60,0,10.4,10.1,7.4,60,0,7.6,7.1,3.9,60,0,4.6,3.0,64.6,60,0,69.0,60.0,28.1,60,0,39.0,18.0,239,0.0,1021.4,60,0,1021.4,0,1007.1,60,0,46.2,60,0
86282,2014-04-19 12:00:00,16780,60,0,0.0,0.0,0.0,60,0,0.0,0.0,0.0,60,0,0.0,0.0,0.0,60,0,0.0,0.0,337.4,60,0,342.9,323.3,0,0,0,28.1,60,0,10.2,60,0,10.4,10.1,7.4,60,0,7.6,7.1,3.9,60,0,4.6,3.0,64.6,60,0,69.0,60.0,28.1,60,0,39.0,18.0,239,0.0,1021.4,60,0,1021.4,0,1007.1,60,0,46.2,60,0
86282,2014-04-20 00:00:00,16790,60,0,0.0,0.0,0.0,60,0,0.0,0.0,0.0,60,0,0.0,0.0,0.0,60,0,0.0,0.0,337.4,60,0,342.9,323.3,0,0,0,28.1,60,0,10.2,60,0,10.4,10.1,7.4,60,0,7.6,7.1,3.9,60,0,4.6,3.0,64.6,60,0,69.0,60.0,28.1,60,0,39.0,18.0,239,0.0,1021.4,60,0,1021.4,0,1007.1,60,0,46.2,60,0
86282,2014-04-20 12:00:00,16800,60,0,0.0,0.0,0.0,60,0,0.0,0.0,0.0,60,0,0.0,0.0,0.0,60,0,0.0,0.0,337.4,60,0,342.9,323.3,0,0,0,28.1,60,0,10.2,60,0,10.4,10.1,7.4,60,0,7.6,7.1,3.9,60,0,4.6,3.0,64.6,60,0,69.0,60.0,28.1,60,0,39.0,18.0,239,0.0,1021.4,60,0,1021.4,0,1007.1,60,0,46.2,60,0
86282,2014-04-21 00:00:00,16810,60,0,0.0,0.0,0.0,60,0,0.0,0.0,0.0,60,0,0.0,0.0,0.0,60,0,0.0,0.0,337.4,60,0,342.9,323.3,0,0,0,28.1,60,0,10.2,60,0,10.4,10.1,7.4,60,0,7.6,7.1,3.9,60,0,4.6,3.0,64.6,60,0,69.0,60.0,28.1,60,0,39.0,18.0,239,0.0,1021.4,60,0,1021.4,0,1007.1,60,0,46.2,60,0
86282,2014-04-21 12:00:00,16820,60,0,0.0,0.0,0.0,60,0,0.0,0.0,0.0,60,0,0.0,0.0,0.0,60,0,0.0,0.0,337.4,60,0,342.9,323.3,0,0,0,28.1,60,0,10.2,60,0,10.4,10.1,7.4,60,0,7.6,7.1,3.9,60,0,4.6,3.0,64.6,60,0,69.0,60.0,28.1,60,0,39.0,18.0,239,0.0,1021.4,60,0,1021.4,0,1007.1,60,0,46.2,60,0
86282,2014-04-22 00:00:00,16830,60,0,0.0,0.0,0.0,60,0,0.0,0.0,0.0,60,0,0.0,0.0,0.0,60,0,0.0,0.0,337.4,60,0,342.9,323.3,0,0,0,28.1,60,0,10.2,60,0,10.4,10.1,7.4,60,0,7.6,7.1,3.9,60,0,4.6,3.0,64.6,60,0,69.0,60.0,28.1,60,0,39.0,18.0,239,0.0,1021.4,60,0,1021.4,0,1007.1,60,0,46.2,60,0
86282,2014-04-22 12:00:00,16840,60,0,0.0,0.0,0.0,60,0,0.0,0.0,0.0,60,0,0.0,0.0,0.0,60,0,0.0,0.0,337.4,60,0,342.9,323.3,0,0,0,28.1,60,0,10.2,60,0,10.4,10.1,7.4,60,0,7.6,7.1,3.9,60,0,4.6,3.0,64.6,60,0,69.0,60.0,28.1,60,0,39.0,18.0,239,0.0,1021.4,60,0,1021.4,0,1007.1,60,0,46.2,60,0
86282,2014-04-23 00:00:00,16850,60,0,0.0,0.0,0.0,60,0,0.0,0.0,0.0,60,0,0.0,0.0,0.0,60,0,0.0,0.0,337.4,60,0,342.9,323.3,0,0,0,28.1,60,0,10.2,60,0,10.4,10.1,7.4,60,0,7.6,7.1,3.9,60,0,4.6,3.0,64.6,60,0,69.0,60.0,28.1,60,0,39.0,18.0,239,0.0,1021.4,60,0,1021.4,0,1007.1,60,0,46.2,60,0
86282,2014-04-23 12:00:00,16860,60,0,0.0,0.0,0.0,60,0,0.0,0.0,0.0,60,0,0.0,0.0,0.0,60,0,0.0,0.0,337.4,60,0,342.9,323.3,0,0,0,28.1,60,0,10.2,60,0,10.4,10.1,7.4,60,0,7.6,7.1,3.9,60,0,4.6,3.0,64.6,60,0,69.0,60.0,28.1,60,0,39.0,18.0,239,0.0,1021.4,60,0,1021.4,0,1007.1,60,0,46.2,60,0
86282,2014-04-24 00:00:00,16870,60,0,0.0,0.0,0.0,60,0,0.0,0.0,0.0,60,0,0.0,0.0,0.0,60,0,0.0,0.0,337.4,60,0,342.9,323.3,0,0,0,28.1,60,0,10.2,60,0,10.4,10.1,7.4,60,0,7.6,7.1,3.9,60,0,4.6,3.0,64.6,60,0,69.0,60.0,28.1,60,0,39.0,18.0,239,0.0,1021.4,60,0,1021.4,0,1007.1,60,0,46.2,60,0
86282,2014-04-24 12:00:00,16880,60,0,0.0,0.0,0.0,60,0,0.0,0.0,0.0,60,0,0.0,0.0,0.0,60,0,0.0,0.0,337.4,60,0,342.9,323.3,0,0,0,28.1,60,0,10.2,60,0,10.4,10.1,7.4,60,0,7.6,7.1,3.9,60,0,4.6,3.0,64.6,60,0,69.0,60.0,28.1,60,0,39.0,18.0,239,0.0,1021.4,60,0,1021.4,0,1007.1,60,0,46.2,60,0
86282,2014-04-25 00:00:00,16890,60,0,0.0,0.0,0.0,60,0,0.0,0.0,0.0,60,0,0.0,0.0,0.0,60,0,0.0,0.0,337.4,60,0,342.9,323.3,0,0,0,28.1,60,0,10.2,60,0,10.4,10.1,7.4,60,0,7.6,7.1,3.9,60,0,4.6,3.0,64.6,60,0,69.0,60.0,28.1,60,0,39.0,18.0,239,0.0,1021.4,60,0,1021.4,0,1007.1,60,0,46.2,60,0
86282,2014-04-25 12:00:00,16900,60,0,0.0,0.0,0.0,60,0,0.0,0.0,0.0,60,0,0.0,0.0,0.0,60,0,0.0,0.0,337.4,60,0,342.9,323.3,0,0,0,28.1,60,0,10.2,60,0,10.4,10.1,7.4,60,0,7.6,7.1,3.9,60,0,4.6,3.0,64.6,60,0,69.0,60.0,28.1,60,0,39.0,18.0,239,0.0,1021.4,60,0,1021.4,0,1007.1,60,0,46.2,60,0
86282,2014-04-26 00:00:00,16910,60,0,0.0,0.0,0.0,60,0,0.0,0.0,0.0,60,0,0.0,0.0,0.0,60,0,0.0,0.0,337.4,60,0,342.9,323.3,0,0,0,28.1,60,0,10.2,60,0,10.4,10.1,7.4,60,0,7.6,7.1,3.9,60,0,4.6,3.0,64.6,60,0,69.0,60.0,28.1,60,0,39.0,18.0,239,0.0,1021.4,60,0,1021.4,0,1007.1,60,0,46.2,60,0
86282,2014-04-26 12:00:00,16920,60,0,0.0,0.0,0.0,60,0,0.0,0.0,0.0,60,0,0.0,0.0,0.0,60,0,0.0,0.0,337.4,60,0,342.9,323.3,0,0,0,28.1,60,0,10.2,60,0,10.4,10.1,7.4,60,0,7.6,7.1,3.9,60,0,4.6,3.0,64.6,60,0,69.0,60.0,28.1,60,0,39.0,18.0,239,0.0,1021.4,60,0,1021.4,0,1007.1,60,0,46.2,60,0
86282,2014-04-27 00:00:00,16930,60,0,0.0,0.0,0.0,60,0,0.0,0.0,0.0,60,0,0.0,0.0,0.0,60,0,0.0,0.0,337.4,60,0,342.9,323.3,0,0,0,28.1,60,0,10.2,60,0,10.4,10.1,7.4,60,0,7.6,7.1,3.9,60,0,4.6,3.0,64.6,60,0,69.0,60.0,28.1,60,0,39.0,18.0,239,0.0,1021.4,60,0,1021.4,0,1007.1,60,0,46.2,60,0
86282,2014-04-27 12:00:00,16940,60,0,0.0,0.0,0.0,60,0,0.0,0.0,0.0,60,0,0.0,0.0,0.0,60,0,0.0,0.0,337.4,60,0,342.9,323.3,0,0,0,28.1,60,0,10.2,60,0,10.4,10.1,7.4,60,0,7.6,7.1,3.9,60,0,4.6,3.0,64.6,60,0,69.0,60.0,28.1,60,0,39.0,18.0,239,0.0,1021.4,60,0,1021.4,0,1007.1,60,0,46.2,60,0
86282,2014-04-28 00:00:00,16950,60,0,0.0,0.0,0.0,60,0,0.0,0.0,0.0,60,0,0.0,0.0,0.0,60,0,0.0,0.0,337.4,60,0,342.9,323.3,0,0,0,28.1,60,0,10.2,60,0,10.4,10.1,7.4,60,0,7.6,7.1,3.9,60,0,4.6,3.0,64.6,60,0,69.0,60.0,28.1,60,0,39.0,18.0,239,0.0,1021.4,60,0,1021.4,0,1007.1,60,0,46.2,60,0
86282,2014-04-28 12:00:00,16960,60,0,0.0,0.0,0.0,60,0,0.0,0.0,0.0,60,0,0.0,0.0,0.0,60,0,0.0,0.0,337.4,60,0,342.9,323.3,0,0,0,28.1,60,0,10.2,60,0,10.4,10.1,7.4,60,0,7.6,7.1,3.9,60,0,4.6,3.0,64.6,60,0,69.0,60.0,28.1,60,0,39.0,18.0,239,0.0,1021.4,60,0,1021.4,0,1007.1,60,0,46.2,60,0
86282,2014-04-29 00:00:00,16970,60,0,0.0,0.0,0.0,60,0,0.0,0.0,0.0,60,0,0.0,0.0,0.0,60,0,0.0,0.0,337.4,60,0,342.9,323.3,0,0,0,28.1,60,0,10.2,60,0,10.4,10.1,7.4,60,0,7.6,7.1,3.9,60,0,4.6,3.0,64.6,60,0,69.0,60.0,28.1,60,0,39.0,18.0,239,0.0,1021.4,60,0,1021.4,0,1007.1,60,0,46.2,60,0
86282,2014-04-29 12:00:00,16980,60,0,0.0,0.0,0.0,60,0,0.0,0.0,0.0,60,0,0.0,0.0,0.0,60,0,0.0,0.0,337.4,60,0,342.9,323.3,0,0,0,28.1,60,0,10.2,60,0,10.4,10.1,7.4,60,0,7.6,7.1,3.9,60,0,4.6,3.0,64.6,60,0,69.0,60.0,28.1,60,0,39.0,18.0,239,0.0,1021.4,60,0,1021.4,0,1007.1,60,0,46.2,60,0
86282,2014-04-30 00:00:00,16990,60,0,0.0,0.0,0.0,60,0,0.0,0.0,0.0,60,0,0.0,0.0,0.0,60,0,0.0,0.0,337.4,60,0,342.9,323.3,0,0,0,28.1,60,0,10.2,60,0,10.4,10.1,7.4,60,0,7.6,7.1,3.9,60,0,4.6,3.0,64.6,60,0,69.0,60.0,28.1,60,0,39.0,18.0,239,0.0,1021.4,60,0,1021.4,0,1007.1,60,0,46.2,60,0
86282,2014-04-30 12:00:00,17000,60,0,0.0,0.0,0.0,60,0,0.0,0.0,0.0,60,0,0.0,0.0,0.0,60,0,0.0,0.0,337.4,60,0,342.9,323.3,0,0,0,28.1,60,0,10.2,60,0,10.4,10.1,7.4,60,0,7.6,7.1,3.9,60,0,4.6,3.0,64.6,60,0,69.0,60.0,28.1,60,0,39.0,18.0,239,0.0,1021.4,60,0,1021.4,0,1007.1,60,0,46.2,60,0
86282,2014-05-01 00:00:00,17010,60,0,0.0,0.0,0.0,60,0,0.0,0.0,0.0,60,0,0.0,0.0,0.0,60,0,0.0,0.0,337.4,60,0,342.9,323.3,0,0,0,28.1,60,0,10.2,60,0,10.4,10.1,7.4,60,0,7.6,7.1,3.9,60,0,4.6,3.0,64.6,60,0,69.0,60.0,28.1,60,0,39.0,18.0,239,0.0,1021.4,60,0,1021.4,0,1007.1,60,0,46.2,60,0
86282,2014-05-01 12:00:00,17020,60,0,0.0,0.0,0.0,60,0,0.0,0.0,0.0,60,0,0.0,0.0,0.0,60,0,0.0,0.0,337.4,60,0,342.9,323.3,0,0,0,28.1,60,0,10.2,60,0,10.4,10.1,7.4,60,0,7.6,7.1,3.9,60,0,4.6,3.0,64.6,60,0,69.0,60.0,28.1,60,0,39.0,18.0,239,0.0,1021.4,60,0,1021.4,0,1007.1,60,0,46.2,60,0
86282,2014-05-02 00:00:00,17030,60,0,0.0,0.0,0.0,60,0,0.0,0.0,0.0,60,0,0.0,0.0,0.0,60,0,0.0,0.0,337.4,60,0,342.9,323.3,0,0,0,28.1,60,0,10.2,60,0,10.4,10.1,7.4,60,0,7.6,7.1,3.9,60,0,4.6,3.0,64.6,60,0,69.0,60.0,28.1,60,0,39.0,18.0,239,0.0,1021.4,60,0,1021.4,0,1007.1,60,0,46.2,60,0
86282,2014-05-02 12:00:00,17040,60,0,0.0,0.0,0.0,60,0,0.0,0.0,0.0,60,0,0.0,0.0,0.0,60,0,0.0,0.0,337.4,60,0,342.9,323.3,0,0,0,28.1,60,0,10.2,60,0,10.4,10.1,7.4,60,0,7.6,7.1,3.9,60,0,4.6,3.0,64.6,60,0,69.0,60.0,28.1,60,0,39.0,18.0,239,0.0,1021.4,60,0,1021.4,0,1007.1,60,0,46.2,60,0
86282,2014-05-03 00:00:00,17050,60,0,0.0,0.0,0.0,60,0,0.0,0.0,0.0,60,0,0.0,0.0,0.0,60,0,0.0,0.0,337.4,60,0,342.9,323.3,0,0,0,28.1,60,0,10.2,60,0,10.4,10.1,7.4,60,0,7.6,7.1,3.9,60,0,4.6,3.0,64.6,60,0,69.0,60.0,28.1,60,0,39.0,18.0,239,0.0,1021.4,60,0,1021.4,0,1007.1,60,0,46.2,60,0
86282,2014-05-03 12:00:00,17060,60,0,0.0,0.0,0.0,60,0,0.0,0.0,0.0,60,0,0.0,0.0,0.0,60,0,0.0,0.0,337.4,60,0,342.9,323.3,0,0,0,28.1,60,0,10.2,60,0,10.4,10.1,7.4,60,0,7.6,7.1,3.9,60,0,4.6,3.0,64.6,60,0,69.0,60.0,28.1,60,0,39.0,18.0,239,0.0,1021.4,60,0,1021.4,0,1007.1,60,0,46.2,60,0
86282,2014-05-04 00:00:00,17070,60,0,0.0,0.0,0.0,60,0,0.0,0.0,0.0,60,0,0.0,0.0,0.0,60,0,0.0,0.0,337.4,60,0,342.9,323.3,0,0,0,28.1,60,0,10.2,60,0,10.4,10.1,7.4,60,0,7.6,7.1,3.9,60,0,4.6,3.0,64.6,60,0,69.0,60.0,28.1,60,0,39.0,18.0,239,0.0,1021.4,60,0,1021.4,0,1007.1,60,0,46.2,60,0
86282,2014-05-04 12:00:00,17080,60,0,0.0,0.0,0.0,60,0,0.0,0.0,0.0,60,0,0.0,0.0,0.0,60,0,0.0,0.0,337.4,60,0,342.9,323.3,0,0,0,28.1,60,0,10.2,60,0,10.4,10.1,7.4,60,0,7.6,7.1,3.9,60,0,4.6,3.0,64.6,60,0,69.0,60.0,28.1,60,0,39.0,18.0,239,0.0,1021.4,60,0,1021.4,0,1007.1,60,0,46.2,60,0
86282,2014-05-05 00:00:00,17090,60,0,0.0,0.0,0.0,60,0,0.0,0.0,0.0,60,0,0.0,0.0,0.0,60,0,0.0,0.0,337.4,60,0,342.9,323.3,0,0,0,28.1,60,0,10.2,60,0,10.4,10.1,7.4,60,0,7.6,7.1,3.9,60,0,4.6,3.0,64.6,60,0,69.0,60.0,28.1,60,0,39.0,18.0,239,0.0,1021.4,60,0,1021.4,0,1007.1,60,0,46.2,60,0
86282,2014-05-05 12:00:00,17100,60,0,0.0,0.0,0.0,60,0,0.0,0.0,0.0,60,0,0.0,0.0,0.0,60,0,0.0,0.0,337.4,60,0,342.9,323.3,0,0,0,28.1,60,0,10.2,60,0,10.4,10.1,7.4,60,0,7.6,7.1,3.9,60,0,4.6,3.0,64.6,60,0,69.0,60.0,28.1,60,0,39.0,18.0,239,0.0,1021.4,60,0,1021.4,0,1007.1,60,0,46.2,60,0
86282,2014-05-06 00:00:00,17110,60,0,0.0,0.0,0.0,60,0,0.0,0.0,0.0,60,0,0.0,0.0,0.0,60,0,0.0,0.0,337.4,60,0,342.9,323.3,0,0,0,28.1,60,0,10.2,60,0,10.4,10.1,7.4,60,0,7.6,7.1,3.9,60,0,4.6,3.0,64.6,60,0,69.0,60.0,28.1,60,0,39.0,18.0,239,0.0,1021.4,60,0,1021.4,0,1007.1,60,0,46.2,60,0
86282,2014-05-06 12:00:00,17120,60,0,0.0,0.0,0.0,60,0,0.0,0.0,0.0,60,0,0.0,0.0,0.0,60,0,0.0,0.0,337.4,60,0,342.9,323.3,0,0,0,28.1,60,0,10.2,60,0,10.4,10.1,7.4,60,0,7.6,7.1,3.9,60,0,4.6,3.0,64.6,60,0,69.0,60.0,28.1,60,0,39.0,18.0,239,0.0,1021.4,60,0,1021.4,0,1007.1,60,0,46.2,60,0
86282,2014-05-07 00:00:00,17130,60,0,0.0,0.0,0.0,60,0,0.0,0.0,0.0,60,0,0.0,0.0,0.0,60,0,0.0,0.0,337.4,60,0,342.9,323.3,0,0,0,28.1,60,0,10.2,60,0,10.4,10.1,7.4,60,0,7.6,7.1,3.9,60,0,4.6,3.0,64.6,60,0,69.0,60.0,28.1,60,0,39.0,18.0,239,0.0,1021.4,60,0,1021.4,0,1007.1,60,0,46.2,60,0
86282,2014-05-07 12:00:00,17140,60,0,0.0,0.0,0.0,60,0,0.0,0.0,0.0,60,0,0.0,0.0,0.0,60,0,0.0,0.0,337.4,60,0,342.9,323.3,0,0,0,28.1,60,0,10.2,60,0,10.4,10.1,7.4,60,0,7.6,7.1,3.9,60,0,4.6,3.0,64.6,60,0,69.0,60.0,28.1,60,0,39.0,18.0,239,0.0,1021.4,60,0,1021.4,0,1007.1,60,0,46.2,60,0
86282,2014-05-08 00:00:00,17150,60,0,0.0,0.0,0.0,60,0,0.0,0.0,0.0,60,0,0.0,0.0,0.0,60,0,0.0,0.0,337.4,60,0,342.9,323.3,0,0,0,28.1,60,0,10.2,60,0,10.4,10.1,7.4,60,0,7.6,7.1,3.9,60,0,4.6,3.0,64.6,60,0,69.0,60.0,28.1,60,0,39.0,18.0,239,0.0,1021.4,60,0,1021.4,0,1007.1,60,0,46.2,60,0
86282,2014-05-08 12:00:00,17160,60,0,0.0,0.0,0.0,60,0,0.0,0.0,0.0,60,0,0.0,0.0,0.0,60,0,0.0,0.0,337.4,60,0,342.9,323.3,0,0,0,28.1,60,0,10.2,60,0,10.4,10.1,7.4,60,0,7.6,7.1,3.9,60,0,4.6,3.0,64.6,60,0,69.0,60.0,28.1,60,0,39.0,18.0,239,0.0,1021.4,60,0,1021.4,0,1007.1,60,0,46.2,60,0
86282,2014-05-09 00:00:00,17170,60,0,0.0,0.0,0.0,60,0,0.0,0.0,0.0,60,0,0.0,0.0,0.0,60,0,0.0,0.0,337.4,60,0,342.9,323.3,0,0,0,28.1,60,0,10.2,60,0,10.4,10.1,7.4,60,0,7.6,7.1,3.9,60,0,4.6,3.0,64.6,60,0,69.0,60.0,28.1,60,0,39.0,18.0,239,0.0,1021.4,60,0,1021.4,0,1007.1,60,0,46.2,60,0
86282,2014-05-09 12:00:00,17180,60,0,0.0,0.0,0.0,60,0,0.0,0.0,0.0,60,0,0.0,0.0,0.0,60,0,0.0,0.0,337.4,60,0,342.9,323.3,0,0,0,28.1,60,0,10.2,60,0,10.4,10.1,7.4,60,0,7.6,7.1,3.9,60,0,4.6,3.0,64.6,60,0,69.0,60.0,28.1,60,0,39.0,18.0,239,0.0,1021.4,60,0,1021.4,0,1007.1,60,0,46.2,60,0
86282,2014-05-10 00:00:00,17190,60,0,0.0,0.0,0.0,60,0,0.0,0.0,0.0,60,0,0.0,0.0,0.0,60,0,0.0,0.0,337.4,60,0,342.9,323.3,0,0,0,28.1,60,0,10.2,60,0,10.4,10.1,7.4,60,0,7.6,7.1,3.9,60,0,4.6,3.0,64.6,60,0,69.0,60.0,28.1,60,0,39.0,18.0,239,0.0,1021.4,60,0,1021.4,0,1007.1,60,0,46.2,60,0
86282,2014-05-10 12:00:00,17200,60,0,0.0,0.0,0.0,60,0,0.0,0.0,0.0,60,0,0.0,0.0,0.0,60,0,0.0,0.0,337.4,60,0,342.9,323.3,0,0,0,28.1,60,0,10.2,60,0,10.4,10.1,7.4,60,0,7.6,7.1,3.9,60,0,4.6,3.0,64.6,60,0,69.0,60.0,28.1,60,0,39.0,18.0,239,0.0,1021.4,60,0,1021.4,0,1007.1,60,0,46.2,60,0
86282,2014-05-11 00:00:00,17210,60,0,0.0,0.0,0.0,60,0,0.0,0.0,0.0,60,0,0.0,0.0,0.0,60,0,0.0,0.0,337.4,60,0,342.9,323.3,0,0,0,28.1,60,0,10.2,60,0,10.4,10.1,7.4,60,0,7.6,7.1,3.9,60,0,4.6,3.0,64.6,60,0,69.0,60.0,28.1,60,0,39.0,18.0,239,0.0,1021.4,60,0,1021.4,0,1007.1,60,0,46.2,60,0
86282,2014-05-11 12:00:00,17220,60,0,0.0,0.0,0.0,60,0,0.0,0.0,0.0,60,0,0.0,0.0,0.0,60,0,0.0,0.0,337.4,60,0,342.9,323.3,0,0,0,28.1,60,0,10.2,60,0,10.4,10.1,7.4,60,0,7.6,7.1,3.9,60,0,4.6,3.0,64.6,60,0,69.0,60.0,28.1,60,0,39.0,18.0,239,0.0,1021.4,60,0,1021.4,0,1007.1,60,0,46.2,60,0
86282,2014-05-12 00:00:00,17230,60,0,0.0,0.0,0.0,60,0,0.0,0.0,0.0,60,0,0.0,0.0,0.0,60,0,0.0,0.0,337.4,60,0,342.9,323.3,0,0,0,28.1,60,0,10.2,60,0,10.4,10.1,7.4,60,0,7.6,7.1,3.9,60,0,4.6,3.0,64.6,60,0,69.0,60.0,28.1,60,0,39.0,18.0,239,0.0,1021.4,60,0,1021.4,0,1007.1,60,0,46.2,60,0
86282,2014-05-12 12:00:00,17240,60,0,0.0,0.0,0.0,60,0,0.0,0.0,0.0,60,0,0.0,0.0,0.0,60,0,0.0,0.0,337.4,60,0,342.9,323.3,0,0,0,28.1,60,0,10.2,60,0,10.4,10.1,7.4,60,0,7.6,7.1,3.9,60,0,4.6,3.0,64.6,60,0,69.0,60.0,28.1,60,0,39.0,18.0,239,0.0,1021.4,60,0,1021.4,0,1007.1,60,0,46.2,60,0
86282,2014-05-13 00:00:00,17250,60,0,0.0,0.0,0.0,60,0,0.0,0.0,0.0,60,0,0.0,0.0,0.0,60,0,0.0,0.0,337.4,60,0,342.9,323.3,0,0,0,28.1,60,0,10.2,60,0,10.4,10.1,7.4,60,0,7.6,7.1,3.9,60,0,4.6,3.0,64.6,60,0,69.0,60.0,28.1,60,0,39.0,18.0,239,0.0,1021.4,60,0,1021.4,0,1007.1,60,0,46.2,60,0
86282,2014-05-13 12:00:00,17260,60,0,0.0,0.0,0.0,60,0,0.0,0.0,0.0,60,0,0.0,0.0,0.0,60,0,0.0,0.0,337.4,60,0,342.9,323.3,0,0,0,28.1,60,0,10.2,60,0,10.4,10.1,7.4,60,0,7.6,7.1,3.9,60,0,4.6,3.0,64.6,60,0,69.0,60.0,28.1,60,0,39.0,18.0,239,0.0,1021.4,60,0,1021.4,0,1007.1,60,0,46.2,60,0
86282,2014-05-14 00:00:00,17270,60,0,0.0,0.0,0.0,60,0,0.0,0.0,0.0,60,0,0.0,0.0,0.0,60,0,0.0,0.0,337.4,60,0,342.9,323.3,0,0,0,28.1,60,0,10.2,60,0,10.4,10.1,7.4,60,0,7.6,7.1,3.9,60,0,4.6,3.0,64.6,60,0,69.0,60.0,28.1,60,0,39.0,18.0,239,0.0,1021.4,60,0,1021.4,0,1007.1,60,0,46.2,60,0
86282,2014-05-14 12:00:00,17280,60,0,0.0,0.0,0.0,60,0,0.0,0.0,0.0,60,0,0.0,0.0,0.0,60,0,0.0,0.0,337.4,60,0,342.9,323.3,0,0,0,28.1,60,0,10.2,60,0,10.4,10.1,7.4,60,0,7.6,7.1,3.9,60,0,4.6,3.0,64.6,60,0,69.0,60.0,28.1,60,0,39.0,18.0,239,0.0,1021.4,60,0,1021.4,0,1007.1,60,0,46.2,60,0
86282,2014-05-15 00:00:00,17290,60,0,0.0,0.0,0.0,60,0,0.0,0.0,0.0,60,0,0.0,0.0,0.0,60,0,0.0,0.0,337.4,60,0,342.9,323.3,0,0,0,28.1,60,0,10.2,60,0,10.4,10.1,7.4,60,0,7.6,7.1,3.9,60,0,4.6,3.0,64.6,60,0,69.0,60.0,28.1,60,0,39.0,18.0,239,0.0,1021.4,60,0,1021.4,0,1007.1,60,0,46.2,60,0
86282,2014-05-15 12:00:00,17300,60,0,0.0,0.0,0.0,60,0,0.0,0.0,0.0,60,0,0.0,0.0,0.0,60,0,0.0,0.0,337.4,60,0,342.9,323.3,0,0,0,28.1,60,0,10.2,60,0,10.4,10.1,7.4,60,0,7.6,7.1,3.9,60,0,4.6,3.0,64.6,60,0,69.0,60.0,28.1,60,0,39.0,18.0,239,0.0,1021.4,60,0,1021.4,0,1007.1,60,0,46.2,60,0
86282,2014-05-16 00:00:00,17310,60,0,0.0,0.0,0.0,60,0,0.0,0.0,0.0,60,0,0.0,0.0,0.0,60,0,0.0,0.0,337.4,60,0,342.9,323.3,0,0,0,28.1,60,0,10.2,60,0,10.4,10.1,7.4,60,0,7.6,7.1,3.9,60,0,4.6,3.0,64.6,60,0,69.0,60.0,28.1,60,0,39.0,18.0,239,0.0,1021.4,60,0,1021.4,0,1007.1,60,0,46.2,60,0
86282,2014-05-16 12:00:00,17320,60,0,0.0,0.0,0.0,60,0,0.0,0.0,0.0,60,0,0.0,0.0,0.0,60,0,0.0,0.0,337.4,60,0,342.9,323.3,0,0,0,28.1,60,0,10.2,60,0,10.4,10.1,7.4,60,0,7.6,7.1,3.9,60,0,4.6,3.0,64.6,60,0,69.0,60.0,28.1,60,0,39.0,18.0,239,0.0,1021.4,60,0,1021.4,0,1007.1,60,0,46.2,60,0
86282,2014-05-17 00:00:00,17330,60,0,0.0,0.0,0.0,60,0,0.0,0.0,0.0,60,0,0.0,0.0,0.0,60,0,0.0,0.0,337.4,60,0,342.9,323.3,0,0,0,28.1,60,0,10.2,60,0,10.4,10.1,7.4,60,0,7.6,7.1,3.9,60,0,4.6,3.0,64.6,60,0,69.0,60.0,28.1,60,0,39.0,18.0,239,0.0,1021.4,60,0,1021.4,0,1007.1,60,0,46.2,60,0
86282,2014-05-17 12:00:00,17340,60,0,0.0,0.0,0.0,60,0,0.0,0.0,0.0,60,0,0.0,0.0,0.0,60,0,0.0,0.0,337.4,60,0,342.9,323.3,0,0,0,28.1,60,0,10.2,60,0,10.4,10.1,7.4,60,0,7.6,7.1,3.9,60,0,4.6,3.0,64.6,60,0,69.0,60.0,28.1,60,0,39.0,18.0,239,0.0,1021.4,60,0,1021.4,0,1007.1,60,0,46.2,60,0
86282,2014-05-18 00:00:00,17350,60,0,0.0,0.0,0.0,60,0,0.0,0.0,0.0,60,0,0.0,0.0,0.0,60,0,0.0,0.0,337.4,60,0,342.9,323.3,0,0,0,28.1,60,0,10.2,60,0,10.4,10.1,7.4,60,0,7.6,7.1,3.9,60,0,4.6,3.0,64.6,60,0,69.0,60.0,28.1,60,0,39.0,18.0,239,0.0,1021.4,60,0,1021.4,0,1007.1,60,0,46.2,60,0
86282,2014-05-18 12:00:00,17360,60,0,0.0,0.0,0.0,60,0,0.0,0.0,0.0,60,0,0.0,0.0,0.0,60,0,0.0,0.0,337.4,60,0,342.9,323.3,0,0,0,28.1,60,0,10.2,60,0,10.4,10.1,7.4,60,0,7.6,7.1,3.9,60,0,4.6,3.0,64.6,60,0,69.0,60.0,28.1,60,0,39.0,18.0,239,0.0,1021.4,60,0,1021.4,0,1007.1,60,0,46.2,60,0
86282,2014-05-19 00:00:00,17370,60,0,0.0,0.0,0.0,60,0,0.0,0.0,0.0,60,0,0.0,0.0,0.0,60,0,0.0,0.0,337.4,60,0,342.9,323.3,0,0,0,28.1,60,0,10.2,60,0,10.4,10.1,7.4,60,0,7.6,7.1,3.9,60,0,4.6,3.0,64.6,60,0,69.0,60.0,28.1,60,0,39.0,18.0,239,0.0,1021.4,60,0,1021.4,0,1007.1,60,0,46.2,60,0
86282,2014-05-19 12:00:00,17380,60,0,0.0,0.0,0.0,60,0,0.0,0.0,0.0,60,0,0.0,0.0,0.0,60,0,0.0,0.0,337.4,60,0,342.9,323.3,0,0,0,28.1,60,0,10.2,60,0,10.4,10.1,7.4,60,0,7.6,7.1,3.9,60,0,4.6,3.0,64.6,60,0,69.0,60.0,28.1,60,0,39.0,18.0,239,0.0,1021.4,60,0,1021.4,0,1007.1,60,0,46.2,60,0
86282,2014-05-20 00:00:00,17390,60,0,0.0,0.0,0.0,60,0,0.0,0.0,0.0,60,0,0.0,0.0,0.0,60,0,0.0,0.0,337.4,60,0,342.9,323.3,0,0,0,28.1,60,0,10.2,60,0,10.4,10.1,7.4,60,0,7.6,7.1,3.9,60,0,4.6,3.0,64.6,60,0,69.0,60.0,28.1,60,0,39.0,18.0,239,0.0,1021.4,60,0,1021.4,0,1007.1,60,0,46.2,60,0
86282,2014-05-20 12:00:00,17400,60,0,0.0,0.0,0.0,60,0,0.0,0.0,0.0,60,0,0.0,0.0,0.0,60,0,0.0,0.0,337.4,60,0,342.9,323.3,0,0,0,28.1,60,0,10.2,60,0,10.4,10.1,7.4,60,0,7.6,7.1,3.9,60,0,4.6,3.0,64.6,60,0,69.0,60.0,28.1,60,0,39.0,18.0,239,0.0,1021.4,60,0,1021.4,0,1007.1,60,0,46.2,60,0
86282,2014-05-21 00:00:00,17410,60,0,0.0,0.0,0.0,60,0,0.0,0.0,0.0,60,0,0.0,0.0,0.0,60,0,0.0,0.0,337.4,60,0,342.9,323.3,0,0,0,28.1,60,0,10.2,60,0,10.4,10.1,7.4,60,0,7.6,7.1,3.9,60,0,4.6,3.0,64.6,60,0,69.0,60.0,28.1,60,0,39.0,18.0,239,0.0,1021.4,60,0,1021.4,0,1007.1,60,0,46.2,60,0
86282,2014-05-21 12:00:00,17420,60,0,0.0,0.0,0.0,60,0,0.0,0.0,0.0,60,0,0.0,0.0,0.0,60,0,0.0,0.0,337.4,60,0,342.9,323.3,0,0,0,28.1,60,0,10.2,60,0,10.4,10.1,7.4,60,0,7.6,7.1,3.9,60,0,4.6,3.0,64.6,60,0,69.0,60.0,28.1,60,0,39.0,18.0,239,0.0,1021.4,60,0,1021.4,0,1007.1,60,0,46.2,60,0
86282,2014-05-22 00:00:00,17430,60,0,0.0,0.0,0.0,60,0,0.0,0.0,0.0,60,0,0.0,0.0,0.0,60,0,0.0,0.0,337.4,60,0,342.9,323.3,0,0,0,28.1,60,0,10.2,60,0,10.4,10.1,7.4,60,0,7.6,7.1,3.9,60,0,4.6,3.0,64.6,60,0,69.0,60.0,28.1,60,0,39.0,18.0,239,0.0,1021.4,60,0,1021.4,0,1007.1,60,0,46.2,60,0
86282,2014-05-22 12:00:00,17440,60,0,0.0,0.0,0.0,60,0,0.0,0.0,0.0,60,0,0.0,0.0,0.0,60,0,0.0,0.0,337.4,60,0,342.9,323.3,0,0,0,28.1,60,0,10.2,60,0,10.4,10.1,7.4,60,0,7.6,7.1,3.9,60,0,4.6,3.0,64.6,60,0,69.0,60.0,28.1,60,0,39.0,18.0,239,0.0,1021.4,60,0,1021.4,0,1007.1,60,0,46.2,60,0
86282,2014-05-23 00:00:00,17450,60,0,0.0,0.0,0.0,60,0,0.0,0.0,0.0,60,0,0.0,0.0,0.0,60,0,0.0,0.0,337.4,60,0,342.9,323.3,0,0,0,28.1,60,0,10.2,60,0,10.4,10.1,7.4,60,0,7.6,7.1,3.9,60,0,4.6,3.0,64.6,60,0,69.0,60.0,28.1,60,0,39.0,18.0,239,0.0,1021.4,60,0,1021.4,0,1007.1,60,0,46.2,60,0
86282,2014-05-23 12:00:00,17460,60,0,0.0,0.0,0.0,60,0,0.0,0.0,0.0,60,0,0.0,0.0,0.0,60,0,0.0,0.0,337.4,60,0,342.9,323.3,0,0,0,28.1,60,0,10.2,60,0,10.4,10.1,7.4,60,0,7.6,7.1,3.9,60,0,4.6,3.0,64.6,60,0,69.0,60.0,28.1,60,0,39.0,18.0,239,0.0,1021.4,60,0,1021.4,0,1007.1,60,0,46.2,60,0
86282,2014-05-24 00:00:00,17470,60,0,0.0,0.0,0.0,60,0,0.0,0.0,0.0,60,0,0.0,0.0,0.0,60,0,0.0,0.0,337.4,60,0,342.9,323.3,0,0,0,28.1,60,0,10.2,60,0,10.4,10.1,7.4,60,0,7.6,7.1,3.9,60,0,4.6,3.0,64.6,60,0,69.0,60.0,28.1,60,0,39.0,18.0,239,0.0,1021.4,60,0,1021.4,0,1007.1,60,0,46.2,60,0
86282,2014-05-24 12:00:00,17480,60,0,0.0,0.0,0.0,60,0,0.0,0.0,0.0,60,0,0.0,0.0,0.0,60,0,0.0,0.0,337.4,60,0,342.9,323.3,0,0,0,28.1,60,0,10.2,60,0,10.4,10.1,7.4,60,0,7.6,7.1,3.9,60,0,4.6,3.0,64.6,60,0,69.0,60.0,28.1,60,0,39.0,18.0,239,0.0,1021.4,60,0,1021.4,0,1007.1,60,0,46.2,60,0
86282,2014-05-25 00:00:00,17490,60,0,0.0,0.0,0.0,60,0,0.0,0.0,0.0,60,0,0.0,0.0,0.0,60,0,0.0,0.0,337.4,60,0,342.9,323.3,0,0,0,28.1,60,0,10.2,60,0,10.4,10.1,7.4,60,0,7.6,7.1,3.9,60,0,4.6,3.0,64.6,60,0,69.0,60.0,28.1,60,0,39.0,18.0,239,0.0,1021.4,60,0,1021.4,0,1007.1,60,0,46.2,60,0
86282,2014-05-25 12:00:00,17500,60,0,0.0,0.0,0.0,60,0,0.0,0.0,0.0,60,0,0.0,0.0,0.0,60,0,0.0,0.0,337.4,60,0,342.9,323.3,0,0,0,28.1,60,0,10.2,60,0,10.4,10.1,7.4,60,0,7.6,7.1,3.9,60,0,4.6,3.0,64.6,60,0,69.0,60.0,28.1,60,0,39.0,18.0,239,0.0,1021.4,60,0,1021.4,0,1007.1,60,0,46.2,60,0
86282,2014-05-26 00:00:00,17510,60,0,0.0,0.0,0.0,60,0,0.0,0.0,0.0,60,0,0.0,0.0,0.0,60,0,0.0,0.0,337.4,60,0,342.9,323.3,0,0,0,28.1,60,0,10.2,60,0,10.4,10.1,7.4,60,0,7.6,7.1,3.9,60,0,4.6,3.0,64.6,60,0,69.0,60.0,28.1,60,0,39.0,18.0,239,0.0,1021.4,60,0,1021.4,0,1007.1,60,0,46.2,60,0
86282,2014-05-26 12:00:00,17520,60,0,0.0,0.0,0.0,60,0,0.0,0.0,0.0,60,0,0.0,0.0,0.0,60,0,0.0,0.0,337.4,60,0,342.9,323.3,0,0,0,28.1,60,0,10.2,60,0,10.4,10.1,7.4,60,0,7.6,7.1,3.9,60,0,4.6,3.0,64.6,60,0,69.0,60.0,28.1,60,0,39.0,18.0,239,0.0,1021.4,60,0,1021.4,0,1007.1,60,0,46.2,60,0
86282,2014-05-27 00:00:00,17530,60,0,0.0,0.0,0.0,60,0,0.0,0.0,0.0,60,0,0.0,0.0,0.0,60,0,0.0,0.0,337.4,60,0,342.9,323.3,0,0,0,28.1,60,0,10.2,60,0,10.4,10.1,7.4,60,0,7.6,7.1,3.9,60,0,4.6,3.0,64.6,60,0,69.0,60.0,28.1,60,0,39.0,18.0,239,0.0,1021.4,60,0,1021.4,0,1007.1,60,0,46.2,60,0
86282,2014-05-27 12:00:00,17540,60,0,0.0,0.0,0.0,60,0,0.0,0.0,0.0,60,0,0.0,0.0,0.0,60,0,0.0,0.0,337.4,60,0,342.9,323.3,0,0,0,28.1,60,0,10.2,60,0,10.4,10.1,7.4,60,0,7.6,7.1,3.9,60,0,4.6,3.0,64.6,60,0,69.0,60.0,28.1,60,0,39.0,18.0,239,0.0,1021.4,60,0,1021.4,0,1007.1,60,0,46.2,60,0
86282,2014-05-28 00:00:00,17550,60,0,0.0,0.0,0.0,60,0,0.0,0.0,0.0,60,0,0.0,0.0,0.0,60,0,0.0,0.0,337.4,60,0,342.9,323.3,0,0,0,28.1,60,0,10.2,60,0,10.4,10.1,7.4,60,0,7.6,7.1,3.9,60,0,4.6,3.0,64.6,60,0,69.0,60.0,28.1,60,0,39.0,18.0,239,0.0,1021.4,60,0,1021.4,0,1007.1,60,0,46.2,60,0
86282,2014-05-28 12:00:00,17560,60,0,0.0,0.0,0.0,60,0,0.0,0.0,0.0,60,0,0.0,0.0,0.0,60,0,0.0,0.0,337.4,60,0,342.9,323.3,0,0,0,28.1,60,0,10.2,60,0,10.4,10.1,7.4,60,0,7.6,7.1,3.9,60,0,4.6,3.0,64.6,60,0,69.0,60.0,28.1,60,0,39.0,18.0,239,0.0,1021.4,60,0,1021.4,0,1007.1,60,0,46.2,60,0
86282,2014-05-29 00:00:00,17570,60,0,0.0,0.0,0.0,60,0,0.0,0.0,0.0,60,0,0.0,0.0,0.0,60,0,0.0,0.0,337.4,60,0,342.9,323.3,0,0,0,28.1,60,0,10.2,60,0,10.4,10.1,7.4,60,0,7.6,7.1,3.9,60,0,4.6,3.0,64.6,60,0,69.0,60.0,28.1,60,0,39.0,18.0,239,0.0,1021.4,60,0,1021.4,0,1007.1,60,0,46.2,60,0
86282,2014-05-29 12:00:00,17580,60,0,0.0,0.0,0.0,60,0,0.0,0.0,0.0,60,0,0.0,0.0,0.0,60,0,0.0,0.0,337.4,60,0,342.9,323.3,0,0,0,28.1,60,0,10.2,60,0,10.4,10.1,7.4,60,0,7.6,7.1,3.9,60,0,4.6,3.0,64.6,60,0,69.0,60.0,28.1,60,0,39.0,18.0,239,0.0,1021.4,60,0,1021.4,0,1007.1,60,0,46.2,60,0
86282,2014-05-30 00:00:00,17590,60,0,0.0,0.0,0.0,60,0,0.0,0.0,0.0,60,0,0.0,0.0,0.0,60,0,0.0,0.0,337.4,60,0,342.9,323.3,0,0,0,28.1,60,0,10.2,60,0,10.4,10.1,7.4,60,0,7.6,7.1,3.9,60,0,4.6,3.0,64.6,60,0,69.0,60.0,28.1,60,0,39.0,18.0,239,0.0,1021.4,60,0,1021.4,0,1007.1,60,0,46.2,60,0
86282,2014-05-30 12:00:00,17600,60,0,0.0,0.0,0.0,60,0,0.0,0.0,0.0,60,0,0.0,0.0,0.0,60,0,0.0,0.0,337.4,60,0,342.9,323.3,0,0,0,28.1,60,0,10.2,60,0,10.4,10.1,7.4,60,0,7.6,7.1,3.9,60,0,4.6,3.0,64.6,60,0,69.0,60.0,28.1,60,0,39.0,18.0,239,0.0,1021.4,60,0,1021.4,0,1007.1,60,0,46.2,60,0
86282,2014-05-31 00:00:00,17610,60,0,0.0,0.0,0.0,60,0,0.0,0.0,0.0,60,0,0.0,0.0,0.0,60,0,0.0,0.0,337.4,60,0,342.9,323.3,0,0,0,28.1,60,0,10.2,60,0,10.4,10.1,7.4,60,0,7.6,7.1,3.9,60,0,4.6,3.0,64.6,60,0,69.0,60.0,28.1,60,0,39.0,18.0,239,0.0,1021.4,60,0,1021.4,0,1007.1,60,0,46.2,60,0
86282,2014-05-31 12:00:00,17620,60,0,0.0,0.0,0.0,60,0,0.0,0.0,0.0,60,0,0.0,0.0,0.0,60,0,0.0,0.0,337.4,60,0,342.9,323.3,0,0,0,28.1,60,0,10.2,60,0,10.4,10.1,7.4,60,0,7.6,7.1,3.9,60,0,4.6,3.0,64.6,60,0,69.0,60.0,28.1,60,0,39.0,18.0,239,0.0,1021.4,60,0,1021.4,0,1007.1,60,0,46.2,60,0
86282,2014-06-01 00:00:00,17630,60,0,0.0,0.0,0.0,60,0,0.0,0.0,0.0,60,0,0.0,0.0,0.0,60,0,0.0,0.0,337.4,60,0,342.9,323.3,0,0,0,28.1,60,0,10.2,60,0,10.4,10.1,7.4,60,0,7.6,7.1,3.9,60,0,4.6,3.0,64.6,60,0,69.0,60.0,28.1,60,0,39.0,18.0,239,0.0,1021.4,60,0,1021.4,0,1007.1,60,0,46.2,60,0
86282,2014-06-01 12:00:00,17640,60,0,0.0,0.0,0.0,60,0,0.0,0.0,0.0,60,0,0.0,0.0,0.0,60,0,0.0,0.0,337.4,60,0,342.9,323.3,0,0,0,28.1,60,0,10.2,60,0,10.4,10.1,7.4,60,0,7.6,7.1,3.9,60,0,4.6,3.0,64.6,60,0,69.0,60.0,28.1,60,0,39.0,18.0,239,0.0,1021.4,60,0,1021.4,0,1007.1,60,0,46.2,60,0
86282,2014-06-02 00:00:00,17650,60,0,0.0,0.0,0.0,60,0,0.0,0.0,0.0,60,0,0.0,0.0,0.0,60,0,0.0,0.0,337.4,60,0,342.9,323.3,0,0,0,28.1,60,0,10.2,60,0,10.4,10.1,7.4,60,0,7.6,7.1,3.9,60,0,4.6,3.0,64.6,60,0,69.0,60.0,28.1,60,0,39.0,18.0,239,0.0,1021.4,60,0,1021.4,0,1007.1,60,0,46.2,60,0
86282,2014-06-02 12:00:00,17660,60,0,0.0,0.0,0.0,60,0,0.0,0.0,0.0,60,0,0.0,0.0,0.0,60,0,0.0,0.0,337.4,60,0,342.9,323.3,0,0,0,28.1,60,0,10.2,60,0,10.4,10.1,7.4,60,0,7.6,7.1,3.9,60,0,4.6,3.0,64.6,60,0,69.0,60.0,28.1,60,0,39.0,18.0,239,0.0,1021.4,60,0,1021.4,0,1007.1,60,0,46.2,60,0
86282,2014-06-03 00:00:00,17670,60,0,0.0,0.0,0.0,60,0,0.0,0.0,0.0,60,0,0.0,0.0,0.0,60,0,0.0,0.0,337.4,60,0,342.9,323.3,0,0,0,28.1,60,0,10.2,60,0,10.4,10.1,7.4,60,0,7.6,7.1,3.9,60,0,4.6,3.0,64.6,60,0,69.0,60.0,28.1,60,0,39.0,18.0,239,0.0,1021.4,60,0,1021.4,0,1007.1,60,0,46.2,60,0
86282,2014-06-03 12:00:00,17680,60,0,0.0,0.0,0.0,60,0,0.0,0.0,0.0,60,0,0.0,0.0,0.0,60,0,0.0,0.0,337.4,60,0,342.9,323.3,0,0,0,28.1,60,0,10.2,60,0,10.4,10.1,7.4,60,0,7.6,7.1,3.9,60,0,4.6,3.0,64.6,60,0,69.0,60.0,28.1,60,0,39.0,18.0,239,0.0,1021.4,60,0,1021.4,0,1007.1,60,0,46.2,60,0
86282,2014-06-04 00:00:00,17690,60,0,0.0,0.0,0.0,60,0,0.0,0.0,0.0,60,0,0.0,0.0,0.0,60,0,0.0,0.0,337.4,60,0,342.9,323.3,0,0,0,28.1,60,0,10.2,60,0,10.4,10.1,7.4,60,0,7.6,7.1,3.9,60,0,4.6,3.0,64.6,60,0,69.0,60.0,28.1,60,0,39.0,18.0,239,0.0,1021.4,60,0,1021.4,0,1007.1,60,0,46.2,60,0
86282,2014-06-04 12:00:00,17700,60,0,0.0,0.0,0.0,60,0,0.0,0.0,0.0,60,0,0.0,0.0,0.0,60,0,0.0,0.0,337.4,60,0,342.9,323.3,0,0,0,28.1,60,0,10.2,60,0,10.4,10.1,7.4,60,0,7.6,7.1,3.9,60,0,4.6,3.0,64.6,60,0,69.0,60.0,28.1,60,0,39.0,18.0,239,0.0,1021.4,60,0,1021.4,0,1007.1,60,0,46.2,60,0
86282,2014-06-05 00:00:00,17710,60,0,0.0,0.0,0.0,60,0,0.0,0.0,0.0,60,0,0.0,0.0,0.0,60,0,0.0,0.0,337.4,60,0,342.9,323.3,0,0,0,28.1,60,0,10.2,60,0,10.4,10.1,7.4,60,0,7.6,7.1,3.9,60,0,4.6,3.0,64.6,60,0,69.0,60.0,28.1,60,0,39.0,18.0,239,0.0,1021.4,60,0,1021.4,0,1007.1,60,0,46.2,60,0
86282,2014-06-05 12:00:00,17720,60,0,0.0,0.0,0.0,60,0,0.0,0.0,0.0,60,0,0.0,0.0,0.0,60,0,0.0,0.0,337.4,60,0,342.9,323.3,0,0,0,28.1,60,0,10.2,60,0,10.4,10.1,7.4,60,0,7.6,7.1,3.9,60,0,4.6,3.0,64.6,60,0,69.0,60.0,28.1,60,0,39.0,18.0,239,0.0,1021.4,60,0,1021.4,0,1007.1,60,0,46.2,60,0
86282,2014-06-06 00:00:00,17730,60,0,0.0,0.0,0.0,60,0,0.0,0.0,0.0,60,0,0.0,0.0,0.0,60,0,0.0,0.0,337.4,60,0,342.9,323.3,0,0,0,28.1,60,0,10.2,60,0,10.4,10.1,7.4,60,0,7.6,7.1,3.9,60,0,4.6,3.0,64.6,60,0,69.0,60.0,28.1,60,0,39.0,18.0,239,0.0,1021.4,60,0,1021.4,0,1007.1,60,0,46.2,60,0
86282,2014-06-06 12:00:00,17740,60,0,0.0,0.0,0.0,60,0,0.0,0.0,0.0,60,0,0.0,0.0,0.0,60,0,0.0,0.0,337.4,60,0,342.9,323.3,0,0,0,28.1,60,0,10.2,60,0,10.4,10.1,7.4,60,0,7.6,7.1,3.9,60,0,4.6,3.0,64.6,60,0,69.0,60.0,28.1,60,0,39.0,18.0,239,0.0,1021.4,60,0,1021.4,0,1007.1,60,0,46.2,60,0
86282,2014-06-07 00:00:00,17750,60,0,0.0,0.0,0.0,60,0,0.0,0.0,0.0,60,0,0.0,0.0,0.0,60,0,0.0,0.0,337.4,60,0,342.9,323.3,0,0,0,28.1,60,0,10.2,60,0,10.4,10.1,7.4,60,0,7.6,7.1,3.9,60,0,4.6,3.0,64.6,60,0,69.0,60.0,28.1,60,0,39.0,18.0,239,0.0,1021.4,60,0,1021.4,0,1007.1,60,0,46.2,60,0
86282,2014-06-07 12:00:00,17760,60,0,0.0,0.0,0.0,60,0,0.0,0.0,0.0,60,0,0.0,0.0,0.0,60,0,0.0,0.0,337.4,60,0,342.9,323.3,0,0,0,28.1,60,0,10.2,60,0,10.4,10.1,7.4,60,0,7.6,7.1,3.9,60,0,4.6,3.0,64.6,60,0,69.0,60.0,28.1,60,0,39.0,18.0,239,0.0,1021.4,60,0,1021.4,0,1007.1,60,0,46.2,60,0
86282,2014-06-08 00:00:00,17770,60,0,0.0,0.0,0.0,60,0,0.0,0.0,0.0,60,0,0.0,0.0,0.0,60,0,0.0,0.0,337.4,60,0,342.9,323.3,0,0,0,28.1,60,0,10.2,60,0,10.4,10.1,7.4,60,0,7.6,7.1,3.9,60,0,4.6,3.0,64.6,60,0,69.0,60.0,28.1,60,0,39.0,18.0,239,0.0,1021.4,60,0,1021.4,0,1007.1,60,0,46.2,60,0
86282,2014-06-08 12:00:00,17780,60,0,0.0,0.0,0.0,60,0,0.0,0.0,0.0,60,0,0.0,0.0,0.0,60,0,0.0,0.0,337.4,60,0,342.9,323.3,0,0,0,28.1,60,0,10.2,60,0,10.4,10.1,7.4,60,0,7.6,7.1,3.9,60,0,4.6,3.0,64.6,60,0,69.0,60.0,28.1,60,0,39.0,18.0,239,0.0,1021.4,60,0,1021.4,0,1007.1,60,0,46.2,60,0
86282,2014-06-09 00:00:00,17790,60,0,0.0,0.0,0.0,60,0,0.0,0.0,0.0,60,0,0.0,0.0,0.0,60,0,0.0,0.0,337.4,60,0,342.9,323.3,0,0,0,28.1,60,0,10.2,60,0,10.4,10.1,7.4,60,0,7.6,7.1,3.9,60,0,4.6,3.0,64.6,60,0,69.0,60.0,28.1,60,0,39.0,18.0,239,0.0,1021.4,60,0,1021.4,0,1007.1,60,0,46.2,60,0
86282,2014-06-09 12:00:00,17800,60,0,0.0,0.0,0.0,60,0,0.0,0.0,0.0,60,0,0.0,0.0,0.0,60,0,0.0,0.0,337.4,60,0,342.9,323.3,0,0,0,28.1,60,0,10.2,60,0,10.4,10.1,7.4,60,0,7.6,7.1,3.9,60,0,4.6,3.0,64.6,60,0,69.0,60.0,28.1,60,0,39.0,18.0,239,0.0,1021.4,60,0,1021.4,0,1007.1,60,0,46.2,60,0
86282,2014-06-10 00:00:00,17810,60,0,0.0,0.0,0.0,60,0,0.0,0.0,0.0,60,0,0.0,0.0,0.0,60,0,0.0,0.0,337.4,60,0,342.9,323.3,0,0,0,28.1,60,0,10.2,60,0,10.4,10.1,7.4,60,0,7.6,7.1,3.9,60,0,4.6,3.0,64.6,60,0,69.0,60.0,28.1,60,0,39.0,18.0,239,0.0,1021.4,60,0,1021.4,0,1007.1,60,0,46.2,60,0
86282,2014-06-10 12:00:00,17820,60,0,0.0,0.0,0.0,60,0,0.0,0.0,0.0,60,0,0.0,0.0,0.0,60,0,0.0,0.0,337.4,60,0,342.9,323.3,0,0,0,28.1,60,0,10.2,60,0,10.4,10.1,7.4,60,0,7.6,7.1,3.9,60,0,4.6,3.0,64.6,60,0,69.0,60.0,28.1,60,0,39.0,18.0,239,0.0,1021.4,60,0,1021.4,0,1007.1,60,0,46.2,60,0
86282,2014-06-11 00:00:00,17830,60,0,0.0,0.0,0.0,60,0,0.0,0.0,0.0,60,0,0.0,0.0,0.0,60,0,0.0,0.0,337.4,60,0,342.9,323.3,0,0,0,28.1,60,0,10.2,60,0,10.4,10.1,7.4,60,0,7.6,7.1,3.9,60,0,4.6,3.0,64.6,60,0,69.0,60.0,28.1,60,0,39.0,18.0,239,0.0,1021.4,60,0,1021.4,0,1007.1,60,0,46.2,60,0
86282,2014-06-11 12:00:00,17840,60,0,0.0,0.0,0.0,60,0,0.0,0.0,0.0,60,0,0.0,0.0,0.0,60,0,0.0,0.0,337.4,60,0,342.9,323.3,0,0,0,28.1,60,0,10.2,60,0,10.4,10.1,7.4,60,0,7.6,7.1,3.9,60,0,4.6,3.0,64.6,60,0,69.0,60.0,28.1,60,0,39.0,18.0,239,0.0,1021.4,60,0,1021.4,0,1007.1,60,0,46.2,60,0
86282,2014-06-12 00:00:00,17850,60,0,0.0,0.0,0.0,60,0,0.0,0.0,0.0,60,0,0.0,0.0,0.0,60,0,0.0,0.0,337.4,60,0,342.9,323.3,0,0,0,28.1,60,0,10.2,60,0,10.4,10.1,7.4,60,0,7.6,7.1,3.9,60,0,4.6,3.0,64.6,60,0,69.0,60.0,28.1,60,0,39.0,18.0,239,0.0,1021.4,60,0,1021.4,0,1007.1,60,0,46.2,60,0
86282,2014-06-12 12:00:00,17860,60,0,0.0,0.0,0.0,60,0,0.0,0.0,0.0,60,0,0.0,0.0,0.0,60,0,0.0,0.0,337.4,60,0,342.9,323.3,0,0,0,28.1,60,0,10.2,60,0,10.4,10.1,7.4,60,0,7.6,7.1,3.9,60,0,4.6,3.0,64.6,60,0,69.0,60.0,28.1,60,0,39.0,18.0,239,0.0,1021.4,60,0,1021.4,0,1007.1,60,0,46.2,60,0
86282,2014-06-13 00:00:00,17870,60,0,0.0,0.0,0.0,60,0,0.0,0.0,0.0,60,0,0.0,0.0,0.0,60,0,0.0,0.0,337.4,60,0,342.9,323.3,0,0,0,28.1,60,0,10.2,60,0,10.4,10.1,7.4,60,0,7.6,7.1,3.9,60,0,4.6,3.0,64.6,60,0,69.0,60.0,28.1,60,0,39.0,18.0,239,0.0,1021.4,60,0,1021.4,0,1007.1,60,0,46.2,60,0
86282,2014-06-13 12:00:00,17880,60,0,0.0,0.0,0.0,60,0,0.0,0.0,0.0,60,0,0.0,0.0,0.0,60,0,0.0,0.0,337.4,60,0,342.9,323.3,0,0,0,28.1,60,0,10.2,60,0,10.4,10.1,7.4,60,0,7.6,7.1,3.9,60,0,4.6,3.0,64.6,60,0,69.0,60.0,28.1,60,0,39.0,18.0,239,0.0,1021.4,60,0,1021.4,0,1007.1,60,0,46.2,60,0
86282,2014-06-14 00:00:00,17890,60,0,0.0,0.0,0.0,60,0,0.0,0.0,0.0,60,0,0.0,0.0,0.0,60,0,0.0,0.0,337.4,60,0,342.9,323.3,0,0,0,28.1,60,0,10.2,60,0,10.4,10.1,7.4,60,0,7.6,7.1,3.9,60,0,4.6,3.0,64.6,60,0,69.0,60.0,28.1,60,0,39.0,18.0,239,0.0,1021.4,60,0,1021.4,0,1007.1,60,0,46.2,60,0
86282,2014-06-14 12:00:00,17900,60,0,0.0,0.0,0.0,60,0,0.0,0.0,0.0,60,0,0.0,0.0,0.0,60,0,0.0,0.0,337.4,60,0,342.9,323.3,0,0,0,28.1,60,0,10.2,60,0,10.4,10.1,7.4,60,0,7.6,7.1,3.9,60,0,4.6,3.0,64.6,60,0,69.0,60.0,28.1,60,0,39.0,18.0,239,0.0,1021.4,60,0,1021.4,0,1007.1,60,0,46.2,60,0
86282,2014-06-15 00:00:00,17910,60,0,0.0,0.0,0.0,60,0,0.0,0.0,0.0,60,0,0.0,0.0,0.0,60,0,0.0,0.0,337.4,60,0,342.9,323.3,0,0,0,28.1,60,0,10.2,60,0,10.4,10.1,7.4,60,0,7.6,7.1,3.9,60,0,4.6,3.0,64.6,60,0,69.0,60.0,28.1,60,0,39.0,18.0,239,0.0,1021.4,60,0,1021.4,0,1007.1,60,0,46.2,60,0
86282,2014-06-15 12:00:00,17920,60,0,0.0,0.0,0.0,60,0,0.0,0.0,0.0,60,0,0.0,0.0,0.0,60,0,0.0,0.0,337.4,60,0,342.9,323.3,0,0,0,28.1,60,0,10.2,60,0,10.4,10.1,7.4,60,0,7.6,7.1,3.9,60,0,4.6,3.0,64.6,60,0,69.0,60.0,28.1,60,0,39.0,18.0,239,0.0,1021.4,60,0,1021.4,0,1007.1,60,0,46.2,60,0
86282,2014-06-16 00:00:00,17930,60,0,0.0,0.0,0.0,60,0,0.0,0.0,0.0,60,0,0.0,0.0,0.0,60,0,0.0,0.0,337.4,60,0,342.9,323.3,0,0,0,28.1,60,0,10.2,60,0,10.4,10.1,7.4,60,0,7.6,7.1,3.9,60,0,4.6,3.0,64.6,60,0,69.0,60.0,28.1,60,0,39.0,18.0,239,0.0,1021.4,60,0,1021.4,0,1007.1,60,0,46.2,60,0
86282,2014-06-16 12:00:00,17940,60,0,0.0,0.0,0.0,60,0,0.0,0.0,0.0,60,0,0.0,0.0,0.0,60,0,0.0,0.0,337.4,60,0,342.9,323.3,0,0,0,28.1,60,0,10.2,60,0,10.4,10.1,7.4,60,0,7.6,7.1,3.9,60,0,4.6,3.0,64.6,60,0,69.0,60.0,28.1,60,0,39.0,18.0,239,0.0,1021.4,60,0,1021.4,0,1007.1,60,0,46.2,60,0
86282,2014-06-17 00:00:00,17950,60,0,0.0,0.0,0.0,60,0,0.0,0.0,0.0,60,0,0.0,0.0,0.0,60,0,0.0,0.0,337.4,60,0,342.9,323.3,0,0,0,28.1,60,0,10.2,60,0,10.4,10.1,7.4,60,0,7.6,7.1,3.9,60,0,4.6,3.0,64.6,60,0,69.0,60.0,28.1,60,0,39.0,18.0,239,0.0,1021.4,60,0,1021.4,0,1007.1,60,0,46.2,60,0
86282,2014-06-17 12:00:00,17960,60,0,0.0,0.0,0.0,60,0,0.0,0.0,0.0,60,0,0.0,0.0,0.0,60,0,0.0,0.0,337.4,60,0,342.9,323.3,0,0,0,28.1,60,0,10.2,60,0,10.4,10.1,7.4,60,0,7.6,7.1,3.9,60,0,4.6,3.0,64.6,60,0,69.0,60.0,28.1,60,0,39.0,18.0,239,0.0,1021.4,60,0,1021.4,0,1007.1,60,0,46.2,60,0
86282,2014-06-18 00:00:00,17970,60,0,0.0,0.0,0.0,60,0,0.0,0.0,0.0,60,0,0.0,0.0,0.0,60,0,0.0,0.0,337.4,60,0,342.9,323.3,0,0,0,28.1,60,0,10.2,60,0,10.4,10.1,7.4,60,0,7.6,7.1,3.9,60,0,4.6,3.0,64.6,60,0,69.0,60.0,28.1,60,0,39.0,18.0,239,0.0,1021.4,60,0,1021.4,0,1007.1,60,0,46.2,60,0
86282,2014-06-18 12:00:00,17980,60,0,0.0,0.0,0.0,60,0,0.0,0.0,0.0,60,0,0.0,0.0,0.0,60,0,0.0,0.0,337.4,60,0,342.9,323.3,0,0,0,28.1,60,0,10.2,60,0,10.4,10.1,7.4,60,0,7.6,7.1,3.9,60,0,4.6,3.0,64.6,60,0,69.0,60.0,28.1,60,0,39.0,18.0,239,0.0,1021.4,60,0,1021.4,0,1007.1,60,0,46.2,60,0
86282,2014-06-19 00:00:00,17990,60,0,0.0,0.0,0.0,60,0,0.0,0.0,0.0,60,0,0.0,0.0,0.0,60,0,0.0,0.0,337.4,60,0,342.9,323.3,0,0,0,28.1,60,0,10.2,60,0,10.4,10.1,7.4,60,0,7.6,7.1,3.9,60,0,4.6,3.0,64.6,60,0,69.0,60.0,28.1,60,0,39.0,18.0,239,0.0,1021.4,60,0,1021.4,0,1007.1,60,0,46.2,60,0
86282,2014-06-19 12:00:00,18000,60,0,0.0,0.0,0.0,60,0,0.0,0.0,0.0,60,0,0.0,0.0,0.0,60,0,0.0,0.0,337.4,60,0,342.9,323.3,0,0,0,28.1,60,0,10.2,60,0,10.4,10.1,7.4,60,0,7.6,7.1,3.9,60,0,4.6,3.0,64.6,60,0,69.0,60.0,28.1,60,0,39.0,18.0,239,0.0,1021.4,60,0,1021.4,0,1007.1,60,0,46.2,60,0
86282,2014-06-20 00:00:00,18010,60,0,0.0,0.0,0.0,60,0,0.0,0.0,0.0,60,0,0.0,0.0,0.0,60,0,0.0,0.0,337.4,60,0,342.9,323.3,0,0,0,28.1,60,0,10.2,60,0,10.4,10.1,7.4,60,0,7.6,7.1,3.9,60,0,4.6,3.0,64.6,60,0,69.0,60.0,28.1,60,0,39.0,18.0,239,0.0,1021.4,60,0,1021.4,0,1007.1,60,0,46.2,60,0
86282,2014-06-20 12:00:00,18020,60,0,0.0,0.0,0.0,60,0,0.0,0.0,0.0,60,0,0.0,0.0,0.0,60,0,0.0,0.0,337.4,60,0,342.9,323.3,0,0,0,28.1,60,0,10.2,60,0,10.4,10.1,7.4,60,0,7.6,7.1,3.9,60,0,4.6,3.0,64.6,60,0,69.0,60.0,28.1,60,0,39.0,18.0,239,0.0,1021.4,60,0,1021.4,0,1007.1,60,0,46.2,60,0
86282,2014-06-21 00:00:00,18030,60,0,0.0,0.0,0.0,60,0,0.0,0.0,0.0,60,0,0.0,0.0,0.0,60,0,0.0,0.0,337.4,60,0,342.9,323.3,0,0,0,28.1,60,0,10.2,60,0,10.4,10.1,7.4,60,0,7.6,7.1,3.9,60,0,4.6,3.0,64.6,60,0,69.0,60.0,28.1,60,0,39.0,18.0,239,0.0,1021.4,60,0,1021.4,0,1007.1,60,0,46.2,60,0
86282,2014-06-21 12:00:00,18040,60,0,0.0,0.0,0.0,60,0,0.0,0.0,0.0,60,0,0.0,0.0,0.0,60,0,0.0,0.0,337.4,60,0,342.9,323.3,0,0,0,28.1,60,0,10.2,60,0,10.4,10.1,7.4,60,0,7.6,7.1,3.9,60,0,4.6,3.0,64.6,60,0,69.0,60.0,28.1,60,0,39.0,18.0,239,0.0,1021.4,60,0,1021.4,0,1007.1,60,0,46.2,60,0
86282,2014-06-22 00:00:00,18050,60,0,0.0,0.0,0.0,60,0,0.0,0.0,0.0,60,0,0.0,0.0,0.0,60,0,0.0,0.0,337.4,60,0,342.9,323.3,0,0,0,28.1,60,0,10.2,60,0,10.4,10.1,7.4,60,0,7.6,7.1,3.9,60,0,4.6,3.0,64.6,60,0,69.0,60.0,28.1,60,0,39.0,18.0,239,0.0,1021.4,60,0,1021.4,0,1007.1,60,0,46.2,60,0
86282,2014-06-22 12:00:00,18060,60,0,0.0,0.0,0.0,60,0,0.0,0.0,0.0,60,0,0.0,0.0,0.0,60,0,0.0,0.0,337.4,60,0,342.9,323.3,0,0,0,28.1,60,0,10.2,60,0,10.4,10.1,7.4,60,0,7.6,7.1,3.9,60,0,4.6,3.0,64.6,60,0,69.0,60.0,28.1,60,0,39.0,18.0,239,0.0,1021.4,60,0,1021.4,0,1007.1,60,0,46.2,60,0
86282,2014-06-23 00:00:00,18070,60,0,0.0,0.0,0.0,60,0,0.0,0.0,0.0,60,0,0.0,0.0,0.0,60,0,0.0,0.0,337.4,60,0,342.9,323.3,0,0,0,28.1,60,0,10.2,60,0,10.4,10.1,7.4,60,0,7.6,7.1,3.9,60,0,4.6,3.0,64.6,60,0,69.0,60.0,28.1,60,0,39.0,18.0,239,0.0,1021.4,60,0,1021.4,0,1007.1,60,0,46.2,60,0
86282,2014-06-23 12:00:00,18080,60,0,0.0,0.0,0.0,60,0,0.0,0.0,0.0,60,0,0.0,0.0,0.0,60,0,0.0,0.0,337.4,60,0,342.9,323.3,0,0,0,28.1,60,0,10.2,60,0,10.4,10.1,7.4,60,0,7.6,7.1,3.9,60,0,4.6,3.0,64.6,60,0,69.0,60.0,28.1,60,0,39.0,18.0,239,0.0,1021.4,60,0,1021.4,0,1007.1,60,0,46.2,60,0
86282,2014-06-24 00:00:00,18090,60,0,0.0,0.0,0.0,60,0,0.0,0.0,0.0,60,0,0.0,0.0,0.0,60,0,0.0,0.0,337.4,60,0,342.9,323.3,0,0,0,28.1,60,0,10.2,60,0,10.4,10.1,7.4,60,0,7.6,7.1,3.9,60,0,4.6,3.0,64.6,60,0,69.0,60.0,28.1,60,0,39.0,18.0,239,0.0,1021.4,60,0,1021.4,0,1007.1,60,0,46.2,60,0
86282,2014-06-24 12:00:00,18100,60,0,0.0,0.0,0.0,60,0,0.0,0.0,0.0,60,0,0.0,0.0,0.0,60,0,0.0,0.0,337.4,60,0,342.9,323.3,0,0,0,28.1,60,0,10.2,60,0,10.4,10.1,7.4,60,0,7.6,7.1,3.9,60,0,4.6,3.0,64.6,60,0,69.0,60.0,28.1,60,0,39.0,18.0,239,0.0,1021.4,60,0,1021.4,0,1007.1,60,0,46.2,60,0
86282,2014-06-25 00:00:00,18110,60,0,0.0,0.0,0.0,60,0,0.0,0.0,0.0,60,0,0.0,0.0,0.0,60,0,0.0,0.0,337.4,60,0,342.9,323.3,0,0,0,28.1,60,0,10.2,60,0,10.4,10.1,7.4,60,0,7.6,7.1,3.9,60,0,4.6,3.0,64.6,60,0,69.0,60.0,28.1,60,0,39.0,18.0,239,0.0,1021.4,60,0,1021.4,0,1007.1,60,0,46.2,60,0
86282,2014-06-25 12:00:00,18120,60,0,0.0,0.0,0.0,60,0,0.0,0.0,0.0,60,0,0.0,0.0,0.0,60,0,0.0,0.0,337.4,60,0,342.9,323.3,0,0,0,28.1,60,0,10.2,60,0,10.4,10.1,7.4,60,0,7.6,7.1,3.9,60,0,4.6,3.0,64.6,60,0,69.0,60.0,28.1,60,0,39.0,18.0,239,0.0,1021.4,60,0,1021.4,0,1007.1,60,0,46.2,60,0
86282,2014-06-26 00:00:00,18130,60,0,0.0,0.0,0.0,60,0,0.0,0.0,0.0,60,0,0.0,0.0,0.0,60,0,0.0,0.0,337.4,60,0,342.9,323.3,0,0,0,28.1,60,0,10.2,60,0,10.4,10.1,7.4,60,0,7.6,7.1,3.9,60,0,4.6,3.0,64.6,60,0,69.0,60.0,28.1,60,0,39.0,18.0,239,0.0,1021.4,60,0,1021.4,0,1007.1,60,0,46.2,60,0
86282,2014-06-26 12:00:00,18140,60,0,0.0,0.0,0.0,60,0,0.0,0.0,0.0,60,0,0.0,0.0,0.0,60,0,0.0,0.0,337.4,60,0,342.9,323.3,0,0,0,28.1,60,0,10.2,60,0,10.4,10.1,7.4,60,0,7.6,7.1,3.9,60,0,4.6,3.0,64.6,60,0,69.0,60.0,28.1,60,0,39.0,18.0,239,0.0,1021.4,60,0,1021.4,0,1007.1,60,0,46.2,60,0
86282,2014-06-27 00:00:00,18150,60,0,0.0,0.0,0.0,60,0,0.0,0.0,0.0,60,0,0.0,0.0,0.0,60,0,0.0,0.0,337.4,60,0,342.9,323.3,0,0,0,28.1,60,0,10.2,60,0,10.4,10.1,7.4,60,0,7.6,7.1,3.9,60,0,4.6,3.0,64.6,60,0,69.0,60.0,28.1,60,0,39.0,18.0,239,0.0,1021.4,60,0,1021.4,0,1007.1,60,0,46.2,60,0
86282,2014-06-27 12:00:00,18160,60,0,0.0,0.0,0.0,60,0,0.0,0.0,0.0,60,0,0.0,0.0,0.0,60,0,0.0,0.0,337.4,60,0,342.9,323.3,0,0,0,28.1,60,0,10.2,60,0,10.4,10.1,7.4,60,0,7.6,7.1,3.9,60,0,4.6,3.0,64.6,60,0,69.0,60.0,28.1,60,0,39.0,18.0,239,0.0,1021.4,60,0,1021.4,0,1007.1,60,0,46.2,60,0
86282,2014-06-28 00:00:00,18170,60,0,0.0,0.0,0.0,60,0,0.0,0.0,0.0,60,0,0.0,0.0,0.0,60,0,0.0,0.0,337.4,60,0,342.9,323.3,0,0,0,28.1,60,0,10.2,60,0,10.4,10.1,7.4,60,0,7.6,7.1,3.9,60,0,4.6,3.0,64.6,60,0,69.0,60.0,28.1,60,0,39.0,18.0,239,0.0,1021.4,60,0,1021.4,0,1007.1,60,0,46.2,60,0
86282,2014-06-28 12:00:00,18180,60,0,0.0,0.0,0.0,60,0,0.0,0.0,0.0,60,0,0.0,0.0,0.0,60,0,0.0,0.0,337.4,60,0,342.9,323.3,0,0,0,28.1,60,0,10.2,60,0,10.4,10.1,7.4,60,0,7.6,7.1,3.9,60,0,4.6,3.0,64.6,60,0,69.0,60.0,28.1,60,0,39.0,18.0,239,0.0,1021.4,60,0,1021.4,0,1007.1,60,0,46.2,60,0
86282,2014-06-29 00:00:00,18190,60,0,0.0,0.0,0.0,60,0,0.0,0.0,0.0,60,0,0.0,0.0,0.0,60,0,0.0,0.0,337.4,60,0,342.9,323.3,0,0,0,28.1,60,0,10.2,60,0,10.4,10.1,7.4,60,0,7.6,7.1,3.9,60,0,4.6,3.0,64.6,60,0,69.0,60.0,28.1,60,0,39.0,18.0,239,0.0,1021.4,60,0,1021.4,0,1007.1,60,0,46.2,60,0
86282,2014-06-29 12:00:00,18200,60,0,0.0,0.0,0.0,60,0,0.0,0.0,0.0,60,0,0.0,0.0,0.0,60,0,0.0,0.0,337.4,60,0,342.9,323.3,0,0,0,28.1,60,0,10.2,60,0,10.4,10.1,7.4,60,0,7.6,7.1,3.9,60,0,4.6,3.0,64.6,60,0,69.0,60.0,28.1,60,0,39.0,18.0,239,0.0,1021.4,60,0,1021.4,0,1007.1,60,0,46.2,60,0
86282,2014-06-30 00:00:00,18210,60,0,0.0,0.0,0.0,60,0,0.0,0.0,0.0,60,0,0.0,0.0,0.0,60,0,0.0,0.0,337.4,60,0,342.9,323.3,0,0,0,28.1,60,0,10.2,60,0,10.4,10.1,7.4,60,0,7.6,7.1,3.9,60,0,4.6,3.0,64.6,60,0,69.0,60.0,28.1,60,0,39.0,18.0,239,0.0,1021.4,60,0,1021.4,0,1007.1,60,0,46.2,60,0
86282,2014-06-30 12:00:00,18220,60,0,0.0,0.0,0.0,60,0,0.0,0.0,0.0,60,0,0.0,0.0,0.0,60,0,0.0,0.0,337.4,60,0,342.9,323.3,0,0,0,28.1,60,0,10.2,60,0,10.4,10.1,7.4,60,0,7.6,7.1,3.9,60,0,4.6,3.0,64.6,60,0,69.0,60.0,28.1,60,0,39.0,18.0,239,0.0,1021.4,60,0,1021.4,0,1007.1,60,0,46.2,60,0
86282,2014-07-01 00:00:00,18230,60,0,0.0,0.0,0.0,60,0,0.0,0.0,0.0,60,0,0.0,0.0,0.0,60,0,0.0,0.0,337.4,60,0,342.9,323.3,0,0,0,28.1,60,0,10.2,60,0,10.4,10.1,7.4,60,0,7.6,7.1,3.9,60,0,4.6,3.0,64.6,60,0,69.0,60.0,28.1,60,0,39.0,18.0,239,0.0,1021.4,60,0,1021.4,0,1007.1,60,0,46.2,60,0
86282,2014-07-01 12:00:00,18240,60,0,0.0,0.0,0.0,60,0,0.0,0.0,0.0,60,0,0.0,0.0,0.0,60,0,0.0,0.0,337.4,60,0,342.9,323.3,0,0,0,28.1,60,0,10.2,60,0,10.4,10.1,7.4,60,0,7.6,7.1,3.9,60,0,4.6,3.0,64.6,60,0,69.0,60.0,28.1,60,0,39.0,18.0,239,0.0,1021.4,60,0,1021.4,0,1007.1,60,0,46.2,60,0
86282,2014-07-02 00:00:00,18250,60,0,0.0,0.0,0.0,60,0,0.0,0.0,0.0,60,0,0.0,0.0,0.0,60,0,0.0,0.0,337.4,60,0,342.9,323.3,0,0,0,28.1,60,0,10.2,60,0,10.4,10.1,7.4,60,0,7.6,7.1,3.9,60,0,4.6,3.0,64.6,60,0,69.0,60.0,28.1,60,0,39.0,18.0,239,0.0,1021.4,60,0,1021.4,0,1007.1,60,0,46.2,60,0
86282,2014-07-02 12:00:00,18260,60,0,0.0,0.0,0.0,60,0,0.0,0.0,0.0,60,0,0.0,0.0,0.0,60,0,0.0,0.0,337.4,60,0,342.9,323.3,0,0,0,28.1,60,0,10.2,60,0,10.4,10.1,7.4,60,0,7.6,7.1,3.9,60,0,4.6,3.0,64.6,60,0,69.0,60.0,28.1,60,0,39.0,18.0,239,0.0,1021.4,60,0,1021.4,0,1007.1,60,0,46.2,60,0
86282,2014-07-03 00:00:00,18270,60,0,0.0,0.0,0.0,60,0,0.0,0.0,0.0,60,0,0.0,0.0,0.0,60,0,0.0,0.0,337.4,60,0,342.9,323.3,0,0,0,28.1,60,0,10.2,60,0,10.4,10.1,7.4,60,0,7.6,7.1,3.9,60,0,4.6,3.0,64.6,60,0,69.0,60.0,28.1,60,0,39.0,18.0,239,0.0,1021.4,60,0,1021.4,0,1007.1,60,0,46.2,60,0
86282,2014-07-03 12:00:00,18280,60,0,0.0,0.0,0.0,60,0,0.0,0.0,0.0,60,0,0.0,0.0,0.0,60,0,0.0,0.0,337.4,60,0,342.9,323.3,0,0,0,28.1,60,0,10.2,60,0,10.4,10.1,7.4,60,0,7.6,7.1,3.9,60,0,4.6,3.0,64.6,60,0,69.0,60.0,28.1,60,0,39.0,18.0,239,0.0,1021.4,60,0,1021.4,0,1007.1,60,0,46.2,60,0
86282,2014-07-04 00:00:00,18290,60,0,0.0,0.0,0.0,60,0,0.0,0.0,0.0,60,0,0.0,0.0,0.0,60,0,0.0,0.0,337.4,60,0,342.9,323.3,0,0,0,28.1,60,0,10.2,60,0,10.4,10.1,7.4,60,0,7.6,7.1,3.9,60,0,4.6,3.0,64.6,60,0,69.0,60.0,28.1,60,0,39.0,18.0,239,0.0,1021.4,60,0,1021.4,0,1007.1,60,0,46.2,60,0
86282,2014-07-04 12:00:00,18300,60,0,0.0,0.0,0.0,60,0,0.0,0.0,0.0,60,0,0.0,0.0,0.0,60,0,0.0,0.0,337.4,60,0,342.9,323.3,0,0,0,28.1,60,0,10.2,60,0,10.4,10.1,7.4,60,0,7.6,7.1,3.9,60,0,4.6,3.0,64.6,60,0,69.0,60.0,28.1,60,0,39.0,18.0,239,0.0,1021.4,60,0,1021.4,0,1007.1,60,0,46.2,60,0
86282,2014-07-05 00:00:00,18310,60,0,0.0,0.0,0.0,60,0,0.0,0.0,0.0,60,0,0.0,0.0,0.0,60,0,0.0,0.0,337.4,60,0,342.9,323.3,0,0,0,28.1,60,0,10.2,60,0,10.4,10.1,7.4,60,0,7.6,7.1,3.9,60,0,4.6,3.0,64.6,60,0,69.0,60.0,28.1,60,0,39.0,18.0,239,0.0,1021.4,60,0,1021.4,0,1007.1,60,0,46.2,60,0
86282,2014-07-05 12:00:00,18320,60,0,0.0,0.0,0.0,60,0,0.0,0.0,0.0,60,0,0.0,0.0,0.0,60,0,0.0,0.0,337.4,60,0,342.9,323.3,0,0,0,28.1,60,0,10.2,60,0,10.4,10.1,7.4,60,0,7.6,7.1,3.9,60,0,4.6,3.0,64.6,60,0,69.0,60.0,28.1,60,0,39.0,18.0,239,0.0,1021.4,60,0,1021.4,0,1007.1,60,0,46.2,60,0
86282,2014-07-06 00:00:00,18330,60,0,0.0,0.0,0.0,60,0,0.0,0.0,0.0,60,0,0.0,0.0,0.0,60,0,0.0,0.0,337.4,60,0,342.9,323.3,0,0,0,28.1,60,0,10.2,60,0,10.4,10.1,7.4,60,0,7.6,7.1,3.9,60,0,4.6,3.0,64.6,60,0,69.0,60.0,28.1,60,0,39.0,18.0,239,0.0,1021.4,60,0,1021.4,0,1007.1,60,0,46.2,60,0
86282,2014-07-06 12:00:00,18340,60,0,0.0,0.0,0.0,60,0,0.0,0.0,0.0,60,0,0.0,0.0,0.0,60,0,0.0,0.0,337.4,60,0,342.9,323.3,0,0,0,28.1,60,0,10.2,60,0,10.4,10.1,7.4,60,0,7.6,7.1,3.9,60,0,4.6,3.0,64.6,60,0,69.0,60.0,28.1,60,0,39.0,18.0,239,0.0,1021.4,60,0,1021.4,0,1007.1,60,0,46.2,60,0
86282,2014-07-07 00:00:00,18350,60,0,0.0,0.0,0.0,60,0,0.0,0.0,0.0,60,0,0.0,0.0,0.0,60,0,0.0,0.0,337.4,60,0,342.9,323.3,0,0,0,28.1,60,0,10.2,60,0,10.4,10.1,7.4,60,0,7.6,7.1,3.9,60,0,4.6,3.0,64.6,60,0,69.0,60.0,28.1,60,0,39.0,18.0,239,0.0,1021.4,60,0,1021.4,0,1007.1,60,0,46.2,60,0
86282,2014-07-07 12:00:00,18360,60,0,0.0,0.0,0.0,60,0,0.0,0.0,0.0,60,0,0.0,0.0,0.0,60,0,0.0,0.0,337.4,60,0,342.9,323.3,0,0,0,28.1,60,0,10.2,60,0,10.4,10.1,7.4,60,0,7.6,7.1,3.9,60,0,4.6,3.0,64.6,60,0,69.0,60.0,28.1,60,0,39.0,18.0,239,0.0,1021.4,60,0,1021.4,0,1007.1,60,0,46.2,60,0
86282,2014-07-08 00:00:00,18370,60,0,0.0,0.0,0.0,60,0,0.0,0.0,0.0,60,0,0.0,0.0,0.0,60,0,0.0,0.0,337.4,60,0,342.9,323.3,0,0,0,28.1,60,0,10.2,60,0,10.4,10.1,7.4,60,0,7.6,7.1,3.9,60,0,4.6,3.0,64.6,60,0,69.0,60.0,28.1,60,0,39.0,18.0,239,0.0,1021.4,60,0,1021.4,0,1007.1,60,0,46.2,60,0
86282,2014-07-08 12:00:00,18380,60,0,0.0,0.0,0.0,60,0,0.0,0.0,0.0,60,0,0.0,0.0,0.0,60,0,0.0,0.0,337.4,60,0,342.9,323.3,0,0,0,28.1,60,0,10.2,60,0,10.4,10.1,7.4,60,0,7.6,7.1,3.9,60,0,4.6,3.0,64.6,60,0,69.0,60.0,28.1,60,0,39.0,18.0,239,0.0,1021.4,60,0,1021.4,0,1007.1,60,0,46.2,60,0
86282,2014-07-09 00:00:00,18390,60,0,0.0,0.0,0.0,60,0,0.0,0.0,0.0,60,0,0.0,0.0,0.0,60,0,0.0,0.0,337.4,60,0,342.9,323.3,0,0,0,28.1,60,0,10.2,60,0,10.4,10.1,7.4,60,0,7.6,7.1,3.9,60,0,4.6,3.0,64.6,60,0,69.0,60.0,28.1,60,0,39.0,18.0,239,0.0,1021.4,60,0,1021.4,0,1007.1,60,0,46.2,60,0
86282,2014-07-09 12:00:00,18400,60,0,0.0,0.0,0.0,60,0,0.0,0.0,0.0,60,0,0.0,0.0,0.0,60,0,0.0,0.0,337.4,60,0,342.9,323.3,0,0,0,28.1,60,0,10.2,60,0,10.4,10.1,7.4,60,0,7.6,7.1,3.9,60,0,4.6,3.0,64.6,60,0,69.0,60.0,28.1,60,0,39.0,18.0,239,0.0,1021.4,60,0,1021.4,0,1007.1,60,0,46.2,60,0
86282,2014-07-10 00:00:00,18410,60,0,0.0,0.0,0.0,60,0,0.0,0.0,0.0,60,0,0.0,0.0,0.0,60,0,0.0,0.0,337.4,60,0,342.9,323.3,0,0,0,28.1,60,0,10.2,60,0,10.4,10.1,7.4,60,0,7.6,7.1,3.9,60,0,4.6,3.0,64.6,60,0,69.0,60.0,28.1,60,0,39.0,18.0,239,0.0,1021.4,60,0,1021.4,0,1007.1,60,0,46.2,60,0
86282,2014-07-10 12:00:00,18420,60,0,0.0,0.0,0.0,60,0,0.0,0.0,0.0,60,0,0.0,0.0,0.0,60,0,0.0,0.0,337.4,60,0,342.9,323.3,0,0,0,28.1,60,0,10.2,60,0,10.4,10.1,7.4,60,0,7.6,7.1,3.9,60,0,4.6,3.0,64.6,60,0,69.0,60.0,28.1,60,0,39.0,18.0,239,0.0,1021.4,60,0,1021.4,0,1007.1,60,0,46.2,60,0
86282,2014-07-11 00:00:00,18430,60,0,0.0,0.0,0.0,60,0,0.0,0.0,0.0,60,0,0.0,0.0,0.0,60,0,0.0,0.0,337.4,60,0,342.9,323.3,0,0,0,28.1,60,0,10.2,60,0,10.4,10.1,7.4,60,0,7.6,7.1,3.9,60,0,4.6,3.0,64.6,60,0,69.0,60.0,28.1,60,0,39.0,18.0,239,0.0,1021.4,60,0,1021.4,0,1007.1,60,0,46.2,60,0
86282,2014-07-11 12:00:00,18440,60,0,0.0,0.0,0.0,60,0,0.0,0.0,0.0,60,0,0.0,0.0,0.0,60,0,0.0,0.0,337.4,60,0,342.9,323.3,0,0,0,28.1,60,0,10.2,60,0,10.4,10.1,7.4,60,0,7.6,7.1,3.9,60,0,4.6,3.0,64.6,60,0,69.0,60.0,28.1,60,0,39.0,18.0,239,0.0,1021.4,60,0,1021.4,0,1007.1,60,0,46.2,60,0
86282,2014-07-12 00:00:00,18450,60,0,0.0,0.0,0.0,60,0,0.0,0.0,0.0,60,0,0.0,0.0,0.0,60,0,0.0,0.0,337.4,60,0,342.9,323.3,0,0,0,28.1,60,0,10.2,60,0,10.4,10.1,7.4,60,0,7.6,7.1,3.9,60,0,4.6,3.0,64.6,60,0,69.0,60.0,28.1,60,0,39.0,18.0,239,0.0,1021.4,60,0,1021.4,0,1007.1,60,0,46.2,60,0
86282,2014-07-12 12:00:00,18460,60,0,0.0,0.0,0.0,60,0,0.0,0.0,0.0,60,0,0.0,0.0,0.0,60,0,0.0,0.0,337.4,60,0,342.9,323.3,0,0,0,28.1,60,0,10.2,60,0,10.4,10.1,7.4,60,0,7.6,7.1,3.9,60,0,4.6,3.0,64.6,60,0,69.0,60.0,28.1,60,0,39.0,18.0,239,0.0,1021.4,60,0,1021.4,0,1007.1,60,0,46.2,60,0
86282,2014-07-13 00:00:00,18470,60,0,0.0,0.0,0.0,60,0,0.0,0.0,0.0,60,0,0.0,0.0,0.0,60,0,0.0,0.0,337.4,60,0,342.9,323.3,0,0,0,28.1,60,0,10.2,60,0,10.4,10.1,7.4,60,0,7.6,7.1,3.9,60,0,4.6,3.0,64.6,60,0,69.0,60.0,28.1,60,0,39.0,18.0,239,0.0,1021.4,60,0,1021.4,0,1007.1,60,0,46.2,60,0
86282,2014-07-13 12:00:00,18480,60,0,0.0,0.0,0.0,60,0,0.0,0.0,0.0,60,0,0.0,0.0,0.0,60,0,0.0,0.0,337.4,60,0,342.9,323.3,0,0,0,28.1,60,0,10.2,60,0,10.4,10.1,7.4,60,0,7.6,7.1,3.9,60,0,4.6,3.0,64.6,60,0,69.0,60.0,28.1,60,0,39.0,18.0,239,0.0,1021.4,60,0,1021.4,0,1007.1,60,0,46.2,60,0
86282,2014-07-14 00:00:00,18490,60,0,0.0,0.0,0.0,60,0,0.0,0.0,0.0,60,0,0.0,0.0,0.0,60,0,0.0,0.0,337.4,60,0,342.9,323.3,0,0,0,28.1,60,0,10.2,60,0,10.4,10.1,7.4,60,0,7.6,7.1,3.9,60,0,4.6,3.0,64.6,60,0,69.0,60.0,28.1,60,0,39.0,18.0,239,0.0,1021.4,60,0,1021.4,0,1007.1,60,0,46.2,60,0
86282,2014-07-14 12:00:00,18500,60,0,0.0,0.0,0.0,60,0,0.0,0.0,0.0,60,0,0.0,0.0,0.0,60,0,0.0,0.0,337.4,60,0,342.9,323.3,0,0,0,28.1,60,0,10.2,60,0,10.4,10.1,7.4,60,0,7.6,7.1,3.9,60,0,4.6,3.0,64.6,60,0,69.0,60.0,28.1,60,0,39.0,18.0,239,0.0,1021.4,60,0,1021.4,0,1007.1,60,0,46.2,60,0
86282,2014-07-15 00:00:00,18510,60,0,0.0,0.0,0.0,60,0,0.0,0.0,0.0,60,0,0.0,0.0,0.0,60,0,0.0,0.0,337.4,60,0,342.9,323.3,0,0,0,28.1,60,0,10.2,60,0,10.4,10.1,7.4,60,0,7.6,7.1,3.9,60,0,4.6,3.0,64.6,60,0,69.0,60.0,28.1,60,0,39.0,18.0,239,0.0,1021.4,60,0,1021.4,0,1007.1,60,0,46.2,60,0
86282,2014-07-15 12:00:00,18520,60,0,0.0,0.0,0.0,60,0,0.0,0.0,0.0,60,0,0.0,0.0,0.0,60,0,0.0,0.0,337.4,60,0,342.9,323.3,0,0,0,28.1,60,0,10.2,60,0,10.4,10.1,7.4,60,0,7.6,7.1,3.9,60,0,4.6,3.0,64.6,60,0,69.0,60.0,28.1,60,0,39.0,18.0,239,0.0,1021.4,60,0,1021.4,0,1007.1,60,0,46.2,60,0
86282,2014-07-16 00:00:00,18530,60,0,0.0,0.0,0.0,60,0,0.0,0.0,0.0,60,0,0.0,0.0,0.0,60,0,0.0,0.0,337.4,60,0,342.9,323.3,0,0,0,28.1,60,0,10.2,60,0,10.4,10.1,7.4,60,0,7.6,7.1,3.9,60,0,4.6,3.0,64.6,60,0,69.0,60.0,28.1,60,0,39.0,18.0,239,0.0,1021.4,60,0,1021.4,0,1007.1,60,0,46.2,60,0
86282,2014-07-16 12:00:00,18540,60,0,0.0,0.0,0.0,60,0,0.0,0.0,0.0,60,0,0.0,0.0,0.0,60,0,0.0,0.0,337.4,60,0,342.9,323.3,0,0,0,28.1,60,0,10.2,60,0,10.4,10.1,7.4,60,0,7.6,7.1,3.9,60,0,4.6,3.0,64.6,60,0,69.0,60.0,28.1,60,0,39.0,18.0,239,0.0,1021.4,60,0,1021.4,0,1007.1,60,0,46.2,60,0
86282,2014-07-17 00:00:00,18550,60,0,0.0,0.0,0.0,60,0,0.0,0.0,0.0,60,0,0.0,0.0,0.0,60,0,0.0,0.0,337.4,60,0,342.9,323.3,0,0,0,28.1,60,0,10.2,60,0,10.4,10.1,7.4,60,0,7.6,7.1,3.9,60,0,4.6,3.0,64.6,60,0,69.0,60.0,28.1,60,0,39.0,18.0,239,0.0,1021.4,60,0,1021.4,0,1007.1,60,0,46.2,60,0
86282,2014-07-17 12:00:00,18560,60,0,0.0,0.0,0.0,60,0,0.0,0.0,0.0,60,0,0.0,0.0,0.0,60,0,0.0,0.0,337.4,60,0,342.9,323.3,0,0,0,28.1,60,0,10.2,60,0,10.4,10.1,7.4,60,0,7.6,7.1,3.9,60,0,4.6,3.0,64.6,60,0,69.0,60.0,28.1,60,0,39.0,18.0,239,0.0,1021.4,60,0,1021.4,0,1007.1,60,0,46.2,60,0
86282,2014-07-18 00:00:00,18570,60,0,0.0,0.0,0.0,60,0,0.0,0.0,0.0,60,0,0.0,0.0,0.0,60,0,0.0,0.0,337.4,60,0,342.9,323.3,0,0,0,28.1,60,0,10.2,60,0,10.4,10.1,7.4,60,0,7.6,7.1,3.9,60,0,4.6,3.0,64.6,60,0,69.0,60.0,28.1,60,0,39.0,18.0,239,0.0,1021.4,60,0,1021.4,0,1007.1,60,0,46.2,60,0
86282,2014-07-18 12:00:00,18580,60,0,0.0,0.0,0.0,60,0,0.0,0.0,0.0,60,0,0.0,0.0,0.0,60,0,0.0,0.0,337.4,60,0,342.9,323.3,0,0,0,28.1,60,0,10.2,60,0,10.4,10.1,7.4,60,0,7.6,7.1,3.9,60,0,4.6,3.0,64.6,60,0,69.0,60.0,28.1,60,0,39.0,18.0,239,0.0,1021.4,60,0,1021.4,0,1007.1,60,0,46.2,60,0
86282,2014-07-19 00:00:00,18590,60,0,0.0,0.0,0.0,60,0,0.0,0.0,0.0,60,0,0.0,0.0,0.0,60,0,0.0,0.0,337.4,60,0,342.9,323.3,0,0,0,28.1,60,0,10.2,60,0,10.4,10.1,7.4,60,0,7.6,7.1,3.9,60,0,4.6,3.0,64.6,60,0,69.0,60.0,28.1,60,0,39.0,18.0,239,0.0,1021.4,60,0,1021.4,0,1007.1,60,0,46.2,60,0
86282,2014-07-19 12:00:00,18600,60,0,0.0,0.0,0.0,60,0,0.0,0.0,0.0,60,0,0.0,0.0,0.0,60,0,0.0,0.0,337.4,60,0,342.9,323.3,0,0,0,28.1,60,0,10.2,60,0,10.4,10.1,7.4,60,0,7.6,7.1,3.9,60,0,4.6,3.0,64.6,60,0,69.0,60.0,28.1,60,0,39.0,18.0,239,0.0,1021.4,60,0,1021.4,0,1007.1,60,0,46.2,60,0
86282,2014-07-20 00:00:00,18610,60,0,0.0,0.0,0.0,60,0,0.0,0.0,0.0,60,0,0.0,0.0,0.0,60,0,0.0,0.0,337.4,60,0,342.9,323.3,0,0,0,28.1,60,0,10.2,60,0,10.4,10.1,7.4,60,0,7.6,7.1,3.9,60,0,4.6,3.0,64.6,60,0,69.0,60.0,28.1,60,0,39.0,18.0,239,0.0,1021.4,60,0,1021.4,0,1007.1,60,0,46.2,60,0
86282,2014-07-20 12:00:00,18620,60,0,0.0,0.0,0.0,60,0,0.0,0.0,0.0,60,0,0.0,0.0,0.0,60,0,0.0,0.0,337.4,60,0,342.9,323.3,0,0,0,28.1,60,0,10.2,60,0,10.4,10.1,7.4,60,0,7.6,7.1,3.9,60,0,4.6,3.0,64.6,60,0,69.0,60.0,28.1,60,0,39.0,18.0,239,0.0,1021.4,60,0,1021.4,0,1007.1,60,0,46.2,60,0
86282,2014-07-21 00:00:00,18630,60,0,0.0,0.0,0.0,60,0,0.0,0.0,0.0,60,0,0.0,0.0,0.0,60,0,0.0,0.0,337.4,60,0,342.9,323.3,0,0,0,28.1,60,0,10.2,60,0,10.4,10.1,7.4,60,0,7.6,7.1,3.9,60,0,4.6,3.0,64.6,60,0,69.0,60.0,28.1,60,0,39.0,18.0,239,0.0,1021.4,60,0,1021.4,0,1007.1,60,0,46.2,60,0
86282,2014-07-21 12:00:00,18640,60,0,0.0,0.0,0.0,60,0,0.0,0.0,0.0,60,0,0.0,0.0,0.0,60,0,0.0,0.0,337.4,60,0,342.9,323.3,0,0,0,28.1,60,0,10.2,60,0,10.4,10.1,7.4,60,0,7.6,7.1,3.9,60,0,4.6,3.0,64.6,60,0,69.0,60.0,28.1,60,0,39.0,18.0,239,0.0,1021.4,60,0,1021.4,0,1007.1,60,0,46.2,60,0
86282,2014-07-22 00:00:00,18650,60,0,0.0,0.0,0.0,60,0,0.0,0.0,0.0,60,0,0.0,0.0,0.0,60,0,0.0,0.0,337.4,60,0,342.9,323.3,0,0,0,28.1,60,0,10.2,60,0,10.4,10.1,7.4,60,0,7.6,7.1,3.9,60,0,4.6,3.0,64.6,60,0,69.0,60.0,28.1,60,0,39.0,18.0,239,0.0,1021.4,60,0,1021.4,0,1007.1,60,0,46.2,60,0
86282,2014-07-22 12:00:00,18660,60,0,0.0,0.0,0.0,60,0,0.0,0.0,0.0,60,0,0.0,0.0,0.0,60,0,0.0,0.0,337.4,60,0,342.9,323.3,0,0,0,28.1,60,0,10.2,60,0,10.4,10.1,7.4,60,0,7.6,7.1,3.9,60,0,4.6,3.0,64.6,60,0,69.0,60.0,28.1,60,0,39.0,18.0,239,0.0,1021.4,60,0,1021.4,0,1007.1,60,0,46.2,60,0
86282,2014-07-23 00:00:00,18670,60,0,0.0,0.0,0.0,60,0,0.0,0.0,0.0,60,0,0.0,0.0,0.0,60,0,0.0,0.0,337.4,60,0,342.9,323.3,0,0,0,28.1,60,0,10.2,60,0,10.4,10.1,7.4,60,0,7.6,7.1,3.9,60,0,4.6,3.0,64.6,60,0,69.0,60.0,28.1,60,0,39.0,18.0,239,0.0,1021.4,60,0,1021.4,0,1007.1,60,0,46.2,60,0
86282,2014-07-23 12:00:00,18680,60,0,0.0,0.0,0.0,60,0,0.0,0.0,0.0,60,0,0.0,0.0,0.0,60,0,0.0,0.0,337.4,60,0,342.9,323.3,0,0,0,28.1,60,0,10.2,60,0,10.4,10.1,7.4,60,0,7.6,7.1,3.9,60,0,4.6,3.0,64.6,60,0,69.0,60.0,28.1,60,0,39.0,18.0,239,0.0,1021.4,60,0,1021.4,0,1007.1,60,0,46.2,60,0
86282,2014-07-24 00:00:00,18690,60,0,0.0,0.0,0.0,60,0,0.0,0.0,0.0,60,0,0.0,0.0,0.0,60,0,0.0,0.0,337.4,60,0,342.9,323.3,0,0,0,28.1,60,0,10.2,60,0,10.4,10.1,7.4,60,0,7.6,7.1,3.9,60,0,4.6,3.0,64.6,60,0,69.0,60.0,28.1,60,0,39.0,18.0,239,0.0,1021.4,60,0,1021.4,0,1007.1,60,0,46.2,60,0
86282,2014-07-24 12:00:00,18700,60,0,0.0,0.0,0.0,60,0,0.0,0.0,0.0,60,0,0.0,0.0,0.0,60,0,0.0,0.0,337.4,60,0,342.9,323.3,0,0,0,28.1,60,0,10.2,60,0,10.4,10.1,7.4,60,0,7.6,7.1,3.9,60,0,4.6,3.0,64.6,60,0,69.0,60.0,28.1,60,0,39.0,18.0,239,0.0,1021.4,60,0,1021.4,0,1007.1,60,0,46.2,60,0
86282,2014-07-25 00:00:00,18710,60,0,0.0,0.0,0.0,60,0,0.0,0.0,0.0,60,0,0.0,0.0,0.0,60,0,0.0,0.0,337.4,60,0,342.9,323.3,0,0,0,28.1,60,0,10.2,60,0,10.4,10.1,7.4,60,0,7.6,7.1,3.9,60,0,4.6,3.0,64.6,60,0,69.0,60.0,28.1,60,0,39.0,18.0,239,0.0,1021.4,60,0,1021.4,0,1007.1,60,0,46.2,60,0
86282,2014-07-25 12:00:00,18720,60,0,0.0,0.0,0.0,60,0,0.0,0.0,0.0,60,0,0.0,0.0,0.0,60,0,0.0,0.0,337.4,60,0,342.9,323.3,0,0,0,28.1,60,0,10.2,60,0,10.4,10.1,7.4,60,0,7.6,7.1,3.9,60,0,4.6,3.0,64.6,60,0,69.0,60.0,28.1,60,0,39.0,18.0,239,0.0,1021.4,60,0,1021.4,0,1007.1,60,0,46.2,60,0
86282,2014-07-26 00:00:00,18730,60,0,0.0,0.0,0.0,60,0,0.0,0.0,0.0,60,0,0.0,0.0,0.0,60,0,0.0,0.0,337.4,60,0,342.9,323.3,0,0,0,28.1,60,0,10.2,60,0,10.4,10.1,7.4,60,0,7.6,7.1,3.9,60,0,4.6,3.0,64.6,60,0,69.0,60.0,28.1,60,0,39.0,18.0,239,0.0,1021.4,60,0,1021.4,0,1007.1,60,0,46.2,60,0
86282,2014-07-26 12:00:00,18740,60,0,0.0,0.0,0.0,60,0,0.0,0.0,0.0,60,0,0.0,0.0,0.0,60,0,0.0,0.0,337.4,60,0,342.9,323.3,0,0,0,28.1,60,0,10.2,60,0,10.4,10.1,7.4,60,0,7.6,7.1,3.9,60,0,4.6,3.0,64.6,60,0,69.0,60.0,28.1,60,0,39.0,18.0,239,0.0,1021.4,60,0,1021.4,0,1007.1,60,0,46.2,60,0
86282,2014-07-27 00:00:00,18750,60,0,0.0,0.0,0.0,60,0,0.0,0.0,0.0,60,0,0.0,0.0,0.0,60,0,0.0,0.0,337.4,60,0,342.9,323.3,0,0,0,28.1,60,0,10.2,60,0,10.4,10.1,7.4,60,0,7.6,7.1,3.9,60,0,4.6,3.0,64.6,60,0,69.0,60.0,28.1,60,0,39.0,18.0,239,0.0,1021.4,60,0,1021.4,0,1007.1,60,0,46.2,60,0
86282,2014-07-27 12:00:00,18760,60,0,0.0,0.0,0.0,60,0,0.0,0.0,0.0,60,0,0.0,0.0,0.0,60,0,0.0,0.0,337.4,60,0,342.9,323.3,0,0,0,28.1,60,0,10.2,60,0,10.4,10.1,7.4,60,0,7.6,7.1,3.9,60,0,4.6,3.0,64.6,60,0,69.0,60.0,28.1,60,0,39.0,18.0,239,0.0,1021.4,60,0,1021.4,0,1007.1,60,0,46.2,60,0
86282,2014-07-28 00:00:00,18770,60,0,0.0,0.0,0.0,60,0,0.0,0.0,0.0,60,0,0.0,0.0,0.0,60,0,0.0,0.0,337.4,60,0,342.9,323.3,0,0,0,28.1,60,0,10.2,60,0,10.4,10.1,7.4,60,0,7.6,7.1,3.9,60,0,4.6,3.0,64.6,60,0,69.0,60.0,28.1,60,0,39.0,18.0,239,0.0,1021.4,60,0,1021.4,0,1007.1,60,0,46.2,60,0
86282,2014-07-28 12:00:00,18780,60,0,0.0,0.0,0.0,60,0,0.0,0.0,0.0,60,0,0.0,0.0,0.0,60,0,0.0,0.0,337.4,60,0,342.9,323.3,0,0,0,28.1,60,0,10.2,60,0,10.4,10.1,7.4,60,0,7.6,7.1,3.9,60,0,4.6,3.0,64.6,60,0,69.0,60.0,28.1,60,0,39.0,18.0,239,0.0,1021.4,60,0,1021.4,0,1007.1,60,0,46.2,60,0
86282,2014-07-29 00:00:00,18790,60,0,0.0,0.0,0.0,60,0,0.0,0.0,0.0,60,0,0.0,0.0,0.0,60,0,0.0,0.0,337.4,60,0,342.9,323.3,0,0,0,28.1,60,0,10.2,60,0,10.4,10.1,7.4,60,0,7.6,7.1,3.9,60,0,4.6,3.0,64.6,60,0,69.0,60.0,28.1,60,0,39.0,18.0,239,0.0,1021.4,60,0,1021.4,0,1007.1,60,0,46.2,60,0
86282,2014-07-29 12:00:00,18800,60,0,0.0,0.0,0.0,60,0,0.0,0.0,0.0,60,0,0.0,0.0,0.0,60,0,0.0,0.0,337.4,60,0,342.9,323.3,0,0,0,28.1,60,0,10.2,60,0,10.4,10.1,7.4,60,0,7.6,7.1,3.9,60,0,4.6,3.0,64.6,60,0,69.0,60.0,28.1,60,0,39.0,18.0,239,0.0,1021.4,60,0,1021.4,0,1007.1,60,0,46.2,60,0
86282,2014-07-30 00:00:00,18810,60,0,0.0,0.0,0.0,60,0,0.0,0.0,0.0,60,0,0.0,0.0,0.0,60,0,0.0,0.0,337.4,60,0,342.9,323.3,0,0,0,28.1,60,0,10.2,60,0,10.4,10.1,7.4,60,0,7.6,7.1,3.9,60,0,4.6,3.0,64.6,60,0,69.0,60.0,28.1,60,0,39.0,18.0,239,0.0,1021.4,60,0,1021.4,0,1007.1,60,0,46.2,60,0
86282,2014-07-30 12:00:00,18820,60,0,0.0,0.0,0.0,60,0,0.0,0.0,0.0,60,0,0.0,0.0,0.0,60,0,0.0,0.0,337.4,60,0,342.9,323.3,0,0,0,28.1,60,0,10.2,60,0,10.4,10.1,7.4,60,0,7.6,7.1,3.9,60,0,4.6,3.0,64.6,60,0,69.0,60.0,28.1,60,0,39.0,18.0,239,0.0,1021.4,60,0,1021.4,0,1007.1,60,0,46.2,60,0
86282,2014-07-31 00:00:00,18830,60,0,0.0,0.0,0.0,60,0,0.0,0.0,0.0,60,0,0.0,0.0,0.0,60,0,0.0,0.0,337.4,60,0,342.9,323.3,0,0,0,28.1,60,0,10.2,60,0,10.4,10.1,7.4,60,0,7.6,7.1,3.9,60,0,4.6,3.0,64.6,60,0,69.0,60.0,28.1,60,0,39.0,18.0,239,0.0,1021.4,60,0,1021.4,0,1007.1,60,0,46.2,60,0
86282,2014-07-31 12:00:00,18840,60,0,0.0,0.0,0.0,60,0,0.0,0.0,0.0,60,0,0.0,0.0,0.0,60,0,0.0,0.0,337.4,60,0,342.9,323.3,0,0,0,28.1,60,0,10.2,60,0,10.4,10.1,7.4,60,0,7.6,7.1,3.9,60,0,4.6,3.0,64.6,60,0,69.0,60.0,28.1,60,0,39.0,18.0,239,0.0,1021.4,60,0,1021.4,0,1007.1,60,0,46.2,60,0
86282,2014-08-01 00:00:00,18850,60,0,0.0,0.0,0.0,60,0,0.0,0.0,0.0,60,0,0.0,0.0,0.0,60,0,0.0,0.0,337.4,60,0,342.9,323.3,0,0,0,28.1,60,0,10.2,60,0,10.4,10.1,7.4,60,0,7.6,7.1,3.9,60,0,4.6,3.0,64.6,60,0,69.0,60.0,28.1,60,0,39.0,18.0,239,0.0,1021.4,60,0,1021.4,0,1007.1,60,0,46.2,60,0
86282,2014-08-01 12:00:00,18860,60,0,0.0,0.0,0.0,60,0,0.0,0.0,0.0,60,0,0.0,0.0,0.0,60,0,0.0,0.0,337.4,60,0,342.9,323.3,0,0,0,28.1,60,0,10.2,60,0,10.4,10.1,7.4,60,0,7.6,7.1,3.9,60,0,4.6,3.0,64.6,60,0,69.0,60.0,28.1,60,0,39.0,18.0,239,0.0,1021.4,60,0,1021.4,0,1007.1,60,0,46.2,60,0
86282,2014-08-02 00:00:00,18870,60,0,0.0,0.0,0.0,60,0,0.0,0.0,0.0,60,0,0.0,0.0,0.0,60,0,0.0,0.0,337.4,60,0,342.9,323.3,0,0,0,28.1,60,0,10.2,60,0,10.4,10.1,7.4,60,0,7.6,7.1,3.9,60,0,4.6,3.0,64.6,60,0,69.0,60.0,28.1,60,0,39.0,18.0,239,0.0,1021.4,60,0,1021.4,0,1007.1,60,0,46.2,60,0
86282,2014-08-02 12:00:00,18880,60,0,0.0,0.0,0.0,60,0,0.0,0.0,0.0,60,0,0.0,0.0,0.0,60,0,0.0,0.0,337.4,60,0,342.9,323.3,0,0,0,28.1,60,0,10.2,60,0,10.4,10.1,7.4,60,0,7.6,7.1,3.9,60,0,4.6,3.0,64.6,60,0,69.0,60.0,28.1,60,0,39.0,18.0,239,0.0,1021.4,60,0,1021.4,0,1007.1,60,0,46.2,60,0
86282,2014-08-03 00:00:00,18890,60,0,0.0,0.0,0.0,60,0,0.0,0.0,0.0,60,0,0.0,0.0,0.0,60,0,0.0,0.0,337.4,60,0,342.9,323.3,0,0,0,28.1,60,0,10.2,60,0,10.4,10.1,7.4,60,0,7.6,7.1,3.9,60,0,4.6,3.0,64.6,60,0,69.0,60.0,28.1,60,0,39.0,18.0,239,0.0,1021.4,60,0,1021.4,0,1007.1,60,0,46.2,60,0
86282,2014-08-03 12:00:00,18900,60,0,0.0,0.0,0.0,60,0,0.0,0.0,0.0,60,0,0.0,0.0,0.0,60,0,0.0,0.0,337.4,60,0,342.9,323.3,0,0,0,28.1,60,0,10.2,60,0,10.4,10.1,7.4,60,0,7.6,7.1,3.9,60,0,4.6,3.0,64.6,60,0,69.0,60.0,28.1,60,0,39.0,18.0,239,0.0,1021.4,60,0,1021.4,0,1007.1,60,0,46.2,60,0
86282,2014-08-04 00:00:00,18910,60,0,0.0,0.0,0.0,60,0,0.0,0.0,0.0,60,0,0.0,0.0,0.0,60,0,0.0,0.0,337.4,60,0,342.9,323.3,0,0,0,28.1,60,0,10.2,60,0,10.4,10.1,7.4,60,0,7.6,7.1,3.9,60,0,4.6,3.0,64.6,60,0,69.0,60.0,28.1,60,0,39.0,18.0,239,0.0,1021.4,60,0,1021.4,0,1007.1,60,0,46.2,60,0
86282,2014-08-04 12:00:00,18920,60,0,0.0,0.0,0.0,60,0,0.0,0.0,0.0,60,0,0.0,0.0,0.0,60,0,0.0,0.0,337.4,60,0,342.9,323.3,0,0,0,28.1,60,0,10.2,60,0,10.4,10.1,7.4,60,0,7.6,7.1,3.9,60,0,4.6,3.0,64.6,60,0,69.0,60.0,28.1,60,0,39.0,18.0,239,0.0,1021.4,60,0,1021.4,0,1007.1,60,0,46.2,60,0
86282,2014-08-05 00:00:00,18930,60,0,0.0,0.0,0.0,60,0,0.0,0.0,0.0,60,0,0.0,0.0,0.0,60,0,0.0,0.0,337.4,60,0,342.9,323.3,0,0,0,28.1,60,0,10.2,60,0,10.4,10.1,7.4,60,0,7.6,7.1,3.9,60,0,4.6,3.0,64.6,60,0,69.0,60.0,28.1,60,0,39.0,18.0,239,0.0,1021.4,60,0,1021.4,0,1007.1,60,0,46.2,60,0
86282,2014-08-05 12:00:00,18940,60,0,0.0,0.0,0.0,60,0,0.0,0.0,0.0,60,0,0.0,0.0,0.0,60,0,0.0,0.0,337.4,60,0,342.9,323.3,0,0,0,28.1,60,0,10.2,60,0,10.4,10.1,7.4,60,0,7.6,7.1,3.9,60,0,4.6,3.0,64.6,60,0,69.0,60.0,28.1,60,0,39.0,18.0,239,0.0,1021.4,60,0,1021.4,0,1007.1,60,0,46.2,60,0
86282,2014-08-06 00:00:00,18950,60,0,0.0,0.0,0.0,60,0,0.0,0.0,0.0,60,0,0.0,0.0,0.0,60,0,0.0,0.0,337.4,60,0,342.9,323.3,0,0,0,28.1,60,0,10.2,60,0,10.4,10.1,7.4,60,0,7.6,7.1,3.9,60,0,4.6,3.0,64.6,60,0,69.0,60.0,28.1,60,0,39.0,18.0,239,0.0,1021.4,60,0,1021.4,0,1007.1,60,0,46.2,60,0
86282,2014-08-06 12:00:00,18960,60,0,0.0,0.0,0.0,60,0,0.0,0.0,0.0,60,0,0.0,0.0,0.0,60,0,0.0,0.0,337.4,60,0,342.9,323.3,0,0,0,28.1,60,0,10.2,60,0,10.4,10.1,7.4,60,0,7.6,7.1,3.9,60,0,4.6,3.0,64.6,60,0,69.0,60.0,28.1,60,0,39.0,18.0,239,0.0,1021.4,60,0,1021.4,0,1007.1,60,0,46.2,60,0
86282,2014-08-07 00:00:00,18970,60,0,0.0,0.0,0.0,60,0,0.0,0.0,0.0,60,0,0.0,0.0,0.0,60,0,0.0,0.0,337.4,60,0,342.9,323.3,0,0,0,28.1,60,0,10.2,60,0,10.4,10.1,7.4,60,0,7.6,7.1,3.9,60,0,4.6,3.0,64.6,60,0,69.0,60.0,28.1,60,0,39.0,18.0,239,0.0,1021.4,60,0,1021.4,0,1007.1,60,0,46.2,60,0
86282,2014-08-07 12:00:00,18980,60,0,0.0,0.0,0.0,60,0,0.0,0.0,0.0,60,0,0.0,0.0,0.0,60,0,0.0,0.0,337.4,60,0,342.9,323.3,0,0,0,28.1,60,0,10.2,60,0,10.4,10.1,7.4,60,0,7.6,7.1,3.9,60,0,4.6,3.0,64.6,60,0,69.0,60.0,28.1,60,0,39.0,18.0,239,0.0,1021.4,60,0,1021.4,0,1007.1,60,0,46.2,60,0
86282,2014-08-08 00:00:00,18990,60,0,0.0,0.0,0.0,60,0,0.0,0.0,0.0,60,0,0.0,0.0,0.0,60,0,0.0,0.0,337.4,60,0,342.9,323.3,0,0,0,28.1,60,0,10.2,60,0,10.4,10.1,7.4,60,0,7.6,7.1,3.9,60,0,4.6,3.0,64.6,60,0,69.0,60.0,28.1,60,0,39.0,18.0,239,0.0,1021.4,60,0,1021.4,0,1007.1,60,0,46.2,60,0
86282,2014-08-08 12:00:00,19000,60,0,0.0,0.0,0.0,60,0,0.0,0.0,0.0,60,0,0.0,0.0,0.0,60,0,0.0,0.0,337.4,60,0,342.9,323.3,0,0,0,28.1,60,0,10.2,60,0,10.4,10.1,7.4,60,0,7.6,7.1,3.9,60,0,4.6,3.0,64.6,60,0,69.0,60.0,28.1,60,0,39.0,18.0,239,0.0,1021.4,60,0,1021.4,0,1007.1,60,0,46.2,60,0
86282,2014-08-09 00:00:00,19010,60,0,0.0,0.0,0.0,60,0,0.0,0.0,0.0,60,0,0.0,0.0,0.0,60,0,0.0,0.0,337.4,60,0,342.9,323.3,0,0,0,28.1,60,0,10.2,60,0,10.4,10.1,7.4,60,0,7.6,7.1,3.9,60,0,4.6,3.0,64.6,60,0,69.0,60.0,28.1,60,0,39.0,18.0,239,0.0,1021.4,60,0,1021.4,0,1007.1,60,0,46.2,60,0
86282,2014-08-09 12:00:00,19020,60,0,0.0,0.0,0.0,60,0,0.0,0.0,0.0,60,0,0.0,0.0,0.0,60,0,0.0,0.0,337.4,60,0,342.9,323.3,0,0,0,28.1,60,0,10.2,60,0,10.4,10.1,7.4,60,0,7.6,7.1,3.9,60,0,4.6,3.0,64.6,60,0,69.0,60.0,28.1,60,0,39.0,18.0,239,0.0,1021.4,60,0,1021.4,0,1007.1,60,0,46.2,60,0
86282,2014-08-10 00:00:00,19030,60,0,0.0,0.0,0.0,60,0,0.0,0.0,0.0,60,0,0.0,0.0,0.0,60,0,0.0,0.0,337.4,60,0,342.9,323.3,0,0,0,28.1,60,0,10.2,60,0,10.4,10.1,7.4,60,0,7.6,7.1,3.9,60,0,4.6,3.0,64.6,60,0,69.0,60.0,28.1,60,0,39.0,18.0,239,0.0,1021.4,60,0,1021.4,0,1007.1,60,0,46.2,60,0
86282,2014-08-10 12:00:00,19040,60,0,0.0,0.0,0.0,60,0,0.0,0.0,0.0,60,0,0.0,0.0,0.0,60,0,0.0,0.0,337.4,60,0,342.9,323.3,0,0,0,28.1,60,0,10.2,60,0,10.4,10.1,7.4,60,0,7.6,7.1,3.9,60,0,4.6,3.0,64.6,60,0,69.0,60.0,28.1,60,0,39.0,18.0,239,0.0,1021.4,60,0,1021.4,0,1007.1,60,0,46.2,60,0
86282,2014-08-11 00:00:00,19050,60,0,0.0,0.0,0.0,60,0,0.0,0.0,0.0,60,0,0.0,0.0,0.0,60,0,0.0,0.0,337.4,60,0,342.9,323.3,0,0,0,28.1,60,0,10.2,60,0,10.4,10.1,7.4,60,0,7.6,7.1,3.9,60,0,4.6,3.0,64.6,60,0,69.0,60.0,28.1,60,0,39.0,18.0,239,0.0,1021.4,60,0,1021.4,0,1007.1,60,0,46.2,60,0
86282,2014-08-11 12:00:00,19060,60,0,0.0,0.0,0.0,60,0,0.0,0.0,0.0,60,0,0.0,0.0,0.0,60,0,0.0,0.0,337.4,60,0,342.9,323.3,0,0,0,28.1,60,0,10.2,60,0,10.4,10.1,7.4,60,0,7.6,7.1,3.9,60,0,4.6,3.0,64.6,60,0,69.0,60.0,28.1,60,0,39.0,18.0,239,0.0,1021.4,60,0,1021.4,0,1007.1,60,0,46.2,60,0
86282,2014-08-12 00:00:00,19070,60,0,0.0,0.0,0.0,60,0,0.0,0.0,0.0,60,0,0.0,0.0,0.0,60,0,0.0,0.0,337.4,60,0,342.9,323.3,0,0,0,28.1,60,0,10.2,60,0,10.4,10.1,7.4,60,0,7.6,7.1,3.9,60,0,4.6,3.0,64.6,60,0,69.0,60.0,28.1,60,0,39.0,18.0,239,0.0,1021.4,60,0,1021.4,0,1007.1,60,0,46.2,60,0
86282,2014-08-12 12:00:00,19080,60,0,0.0,0.0,0.0,60,0,0.0,0.0,0.0,60,0,0.0,0.0,0.0,60,0,0.0,0.0,337.4,60,0,342.9,323.3,0,0,0,28.1,60,0,10.2,60,0,10.4,10.1,7.4,60,0,7.6,7.1,3.9,60,0,4.6,3.0,64.6,60,0,69.0,60.0,28.1,60,0,39.0,18.0,239,0.0,1021.4,60,0,1021.4,0,1007.1,60,0,46.2,60,0
86282,2014-08-13 00:00:00,19090,60,0,0.0,0.0,0.0,60,0,0.0,0.0,0.0,60,0,0.0,0.0,0.0,60,0,0.0,0.0,337.4,60,0,342.9,323.3,0,0,0,28.1,60,0,10.2,60,0,10.4,10.1,7.4,60,0,7.6,7.1,3.9,60,0,4.6,3.0,64.6,60,0,69.0,60.0,28.1,60,0,39.0,18.0,239,0.0,1021.4,60,0,1021.4,0,1007.1,60,0,46.2,60,0
86282,2014-08-13 12:00:00,19100,60,0,0.0,0.0,0.0,60,0,0.0,0.0,0.0,60,0,0.0,0.0,0.0,60,0,0.0,0.0,337.4,60,0,342.9,323.3,0,0,0,28.1,60,0,10.2,60,0,10.4,10.1,7.4,60,0,7.6,7.1,3.9,60,0,4.6,3.0,64.6,60,0,69.0,60.0,28.1,60,0,39.0,18.0,239,0.0,1021.4,60,0,1021.4,0,1007.1,60,0,46.2,60,0
86282,2014-08-14 00:00:00,19110,60,0,0.0,0.0,0.0,60,0,0.0,0.0,0.0,60,0,0.0,0.0,0.0,60,0,0.0,0.0,337.4,60,0,342.9,323.3,0,0,0,28.1,60,0,10.2,60,0,10.4,10.1,7.4,60,0,7.6,7.1,3.9,60,0,4.6,3.0,64.6,60,0,69.0,60.0,28.1,60,0,39.0,18.0,239,0.0,1021.4,60,0,1021.4,0,1007.1,60,0,46.2,60,0
86282,2014-08-14 12:00:00,19120,60,0,0.0,0.0,0.0,60,0,0.0,0.0,0.0,60,0,0.0,0.0,0.0,60,0,0.0,0.0,337.4,60,0,342.9,323.3,0,0,0,28.1,60,0,10.2,60,0,10.4,10.1,7.4,60,0,7.6,7.1,3.9,60,0,4.6,3.0,64.6,60,0,69.0,60.0,28.1,60,0,39.0,18.0,239,0.0,1021.4,60,0,1021.4,0,1007.1,60,0,46.2,60,0
86282,2014-08-15 00:00:00,19130,60,0,0.0,0.0,0.0,60,0,0.0,0.0,0.0,60,0,0.0,0.0,0.0,60,0,0.0,0.0,337.4,60,0,342.9,323.3,0,0,0,28.1,60,0,10.2,60,0,10.4,10.1,7.4,60,0,7.6,7.1,3.9,60,0,4.6,3.0,64.6,60,0,69.0,60.0,28.1,60,0,39.0,18.0,239,0.0,1021.4,60,0,1021.4,0,1007.1,60,0,46.2,60,0
86282,2014-08-15 12:00:00,19140,60,0,0.0,0.0,0.0,60,0,0.0,0.0,0.0,60,0,0.0,0.0,0.0,60,0,0.0,0.0,337.4,60,0,342.9,323.3,0,0,0,28.1,60,0,10.2,60,0,10.4,10.1,7.4,60,0,7.6,7.1,3.9,60,0,4.6,3.0,64.6,60,0,69.0,60.0,28.1,60,0,39.0,18.0,239,0.0,1021.4,60,0,1021.4,0,1007.1,60,0,46.2,60,0
86282,2014-08-16 00:00:00,19150,60,0,0.0,0.0,0.0,60,0,0.0,0.0,0.0,60,0,0.0,0.0,0.0,60,0,0.0,0.0,337.4,60,0,342.9,323.3,0,0,0,28.1,60,0,10.2,60,0,10.4,10.1,7.4,60,0,7.6,7.1,3.9,60,0,4.6,3.0,64.6,60,0,69.0,60.0,28.1,60,0,39.0,18.0,239,0.0,1021.4,60,0,1021.4,0,1007.1,60,0,46.2,60,0
86282,2014-08-16 12:00:00,19160,60,0,0.0,0.0,0.0,60,0,0.0,0.0,0.0,60,0,0.0,0.0,0.0,60,0,0.0,0.0,337.4,60,0,342.9,323.3,0,0,0,28.1,60,0,10.2,60,0,10.4,10.1,7.4,60,0,7.6,7.1,3.9,60,0,4.6,3.0,64.6,60,0,69.0,60.0,28.1,60,0,39.0,18.0,239,0.0,1021.4,60,0,1021.4,0,1007.1,60,0,46.2,60,0
86282,2014-08-17 00:00:00,19170,60,0,0.0,0.0,0.0,60,0,0.0,0.0,0.0,60,0,0.0,0.0,0.0,60,0,0.0,0.0,337.4,60,0,342.9,323.3,0,0,0,28.1,60,0,10.2,60,0,10.4,10.1,7.4,60,0,7.6,7.1,3.9,60,0,4.6,3.0,64.6,60,0,69.0,60.0,28.1,60,0,39.0,18.0,239,0.0,1021.4,60,0,1021.4,0,1007.1,60,0,46.2,60,0
86282,2014-08-17 12:00:00,19180,60,0,0.0,0.0,0.0,60,0,0.0,0.0,0.0,60,0,0.0,0.0,0.0,60,0,0.0,0.0,337.4,60,0,342.9,323.3,0,0,0,28.1,60,0,10.2,60,0,10.4,10.1,7.4,60,0,7.6,7.1,3.9,60,0,4.6,3.0,64.6,60,0,69.0,60.0,28.1,60,0,39.0,18.0,239,0.0,1021.4,60,0,1021.4,0,1007.1,60,0,46.2,60,0
86282,2014-08-18 00:00:00,19190,60,0,0.0,0.0,0.0,60,0,0.0,0.0,0.0,60,0,0.0,0.0,0.0,60,0,0.0,0.0,337.4,60,0,342.9,323.3,0,0,0,28.1,60,0,10.2,60,0,10.4,10.1,7.4,60,0,7.6,7.1,3.9,60,0,4.6,3.0,64.6,60,0,69.0,60.0,28.1,60,0,39.0,18.0,239,0.0,1021.4,60,0,1021.4,0,1007.1,60,0,46.2,60,0
86282,2014-08-18 12:00:00,19200,60,0,0.0,0.0,0.0,60,0,0.0,0.0,0.0,60,0,0.0,0.0,0.0,60,0,0.0,0.0,337.4,60,0,342.9,323.3,0,0,0,28.1,60,0,10.2,60,0,10.4,10.1,7.4,60,0,7.6,7.1,3.9,60,0,4.6,3.0,64.6,60,0,69.0,60.0,28.1,60,0,39.0,18.0,239,0.0,1021.4,60,0,1021.4,0,1007.1,60,0,46.2,60,0
86282,2014-08-19 00:00:00,19210,60,0,0.0,0.0,0.0,60,0,0.0,0.0,0.0,60,0,0.0,0.0,0.0,60,0,0.0,0.0,337.4,60,0,342.9,323.3,0,0,0,28.1,60,0,10.2,60,0,10.4,10.1,7.4,60,0,7.6,7.1,3.9,60,0,4.6,3.0,64.6,60,0,69.0,60.0,28.1,60,0,39.0,18.0,239,0.0,1021.4,60,0,1021.4,0,1007.1,60,0,46.2,60,0
86282,2014-08-19 12:00:00,19220,60,0,0.0,0.0,0.0,60,0,0.0,0.0,0.0,60,0,0.0,0.0,0.0,60,0,0.0,0.0,337.4,60,0,342.9,323.3,0,0,0,28.1,60,0,10.2,60,0,10.4,10.1,7.4,60,0,7.6,7.1,3.9,60,0,4.6,3.0,64.6,60,0,69.0,60.0,28.1,60,0,39.0,18.0,239,0.0,1021.4,60,0,1021.4,0,1007.1,60,0,46.2,60,0
86282,2014-08-20 00:00:00,19230,60,0,0.0,0.0,0.0,60,0,0.0,0.0,0.0,60,0,0.0,0.0,0.0,60,0,0.0,0.0,337.4,60,0,342.9,323.3,0,0,0,28.1,60,0,10.2,60,0,10.4,10.1,7.4,60,0,7.6,7.1,3.9,60,0,4.6,3.0,64.6,60,0,69.0,60.0,28.1,60,0,39.0,18.0,239,0.0,1021.4,60,0,1021.4,0,1007.1,60,0,46.2,60,0
86282,2014-08-20 12:00:00,19240,60,0,0.0,0.0,0.0,60,0,0.0,0.0,0.0,60,0,0.0,0.0,0.0,60,0,0.0,0.0,337.4,60,0,342.9,323.3,0,0,0,28.1,60,0,10.2,60,0,10.4,10.1,7.4,60,0,7.6,7.1,3.9,60,0,4.6,3.0,64.6,60,0,69.0,60.0,28.1,60,0,39.0,18.0,239,0.0,1021.4,60,0,1021.4,0,1007.1,60,0,46.2,60,0
86282,2014-08-21 00:00:00,19250,60,0,0.0,0.0,0.0,60,0,0.0,0.0,0.0,60,0,0.0,0.0,0.0,60,0,0.0,0.0,337.4,60,0,342.9,323.3,0,0,0,28.1,60,0,10.2,60,0,10.4,10.1,7.4,60,0,7.6,7.1,3.9,60,0,4.6,3.0,64.6,60,0,69.0,60.0,28.1,60,0,39.0,18.0,239,0.0,1021.4,60,0,1021.4,0,1007.1,60,0,46.2,60,0
86282,2014-08-21 12:00:00,19260,60,0,0.0,0.0,0.0,60,0,0.0,0.0,0.0,60,0,0.0,0.0,0.0,60,0,0.0,0.0,337.4,60,0,342.9,323.3,0,0,0,28.1,60,0,10.2,60,0,10.4,10.1,7.4,60,0,7.6,7.1,3.9,60,0,4.6,3.0,64.6,60,0,69.0,60.0,28.1,60,0,39.0,18.0,239,0.0,1021.4,60,0,1021.4,0,1007.1,60,0,46.2,60,0
86282,2014-08-22 00:00:00,19270,60,0,0.0,0.0,0.0,60,0,0.0,0.0,0.0,60,0,0.0,0.0,0.0,60,0,0.0,0.0,337.4,60,0,342.9,323.3,0,0,0,28.1,60,0,10.2,60,0,10.4,10.1,7.4,60,0,7.6,7.1,3.9,60,0,4.6,3.0,64.6,60,0,69.0,60.0,28.1,60,0,39.0,18.0,239,0.0,1021.4,60,0,1021.4,0,1007.1,60,0,46.2,60,0
86282,2014-08-22 12:00:00,19280,60,0,0.0,0.0,0.0,60,0,0.0,0.0,0.0,60,0,0.0,0.0,0.0,60,0,0.0,0.0,337.4,60,0,342.9,323.3,0,0,0,28.1,60,0,10.2,60,0,10.4,10.1,7.4,60,0,7.6,7.1,3.9,60,0,4.6,3.0,64.6,60,0,69.0,60.0,28.1,60,0,39.0,18.0,239,0.0,1021.4,60,0,1021.4,0,1007.1,60,0,46.2,60,0
86282,2014-08-23 00:00:00,19290,60,0,0.0,0.0,0.0,60,0,0.0,0.0,0.0,60,0,0.0,0.0,0.0,60,0,0.0,0.0,337.4,60,0,342.9,323.3,0,0,0,28.1,60,0,10.2,60,0,10.4,10.1,7.4,60,0,7.6,7.1,3.9,60,0,4.6,3.0,64.6,60,0,69.0,60.0,28.1,60,0,39.0,18.0,239,0.0,1021.4,60,0,1021.4,0,1007.1,60,0,46.2,60,0
86282,2014-08-23 12:00:00,19300,60,0,0.0,0.0,0.0,60,0,0.0,0.0,0.0,60,0,0.0,0.0,0.0,60,0,0.0,0.0,337.4,60,0,342.9,323.3,0,0,0,28.1,60,0,10.2,60,0,10.4,10.1,7.4,60,0,7.6,7.1,3.9,60,0,4.6,3.0,64.6,60,0,69.0,60.0,28.1,60,0,39.0,18.0,239,0.0,1021.4,60,0,1021.4,0,1007.1,60,0,46.2,60,0
86282,2014-08-24 00:00:00,19310,60,0,0.0,0.0,0.0,60,0,0.0,0.0,0.0,60,0,0.0,0.0,0.0,60,0,0.0,0.0,337.4,60,0,342.9,323.3,0,0,0,28.1,60,0,10.2,60,0,10.4,10.1,7.4,60,0,7.6,7.1,3.9,60,0,4.6,3.0,64.6,60,0,69.0,60.0,28.1,60,0,39.0,18.0,239,0.0,1021.4,60,0,1021.4,0,1007.1,60,0,46.2,60,0
86282,2014-08-24 12:00:00,19320,60,0,0.0,0.0,0.0,60,0,0.0,0.0,0.0,60,0,0.0,0.0,0.0,60,0,0.0,0.0,337.4,60,0,342.9,323.3,0,0,0,28.1,60,0,10.2,60,0,10.4,10.1,7.4,60,0,7.6,7.1,3.9,60,0,4.6,3.0,64.6,60,0,69.0,60.0,28.1,60,0,39.0,18.0,239,0.0,1021.4,60,0,1021.4,0,1007.1,60,0,46.2,60,0
86282,2014-08-25 00:00:00,19330,60,0,0.0,0.0,0.0,60,0,0.0,0.0,0.0,60,0,0.0,0.0,0.0,60,0,0.0,0.0,337.4,60,0,342.9,323.3,0,0,0,28.1,60,0,10.2,60,0,10.4,10.1,7.4,60,0,7.6,7.1,3.9,60,0,4.6,3.0,64.6,60,0,69.0,60.0,28.1,60,0,39.0,18.0,239,0.0,1021.4,60,0,1021.4,0,1007.1,60,0,46.2,60,0
86282,2014-08-25 12:00:00,19340,60,0,0.0,0.0,0.0,60,0,0.0,0.0,0.0,60,0,0.0,0.0,0.0,60,0,0.0,0.0,337.4,60,0,342.9,323.3,0,0,0,28.1,60,0,10.2,60,0,10.4,10.1,7.4,60,0,7.6,7.1,3.9,60,0,4.6,3.0,64.6,60,0,69.0,60.0,28.1,60,0,39.0,18.0,239,0.0,1021.4,60,0,1021.4,0,1007.1,60,0,46.2,60,0
86282,2014-08-26 00:00:00,19350,60,0,0.0,0.0,0.0,60,0,0.0,0.0,0.0,60,0,0.0,0.0,0.0,60,0,0.0,0.0,337.4,60,0,342.9,323.3,0,0,0,28.1,60,0,10.2,60,0,10.4,10.1,7.4,60,0,7.6,7.1,3.9,60,0,4.6,3.0,64.6,60,0,69.0,60.0,28.1,60,0,39.0,18.0,239,0.0,1021.4,60,0,1021.4,0,1007.1,60,0,46.2,60,0
86282,2014-08-26 12:00:00,19360,60,0,0.0,0.0,0.0,60,0,0.0,0.0,0.0,60,0,0.0,0.0,0.0,60,0,0.0,0.0,337.4,60,0,342.9,323.3,0,0,0,28.1,60,0,10.2,60,0,10.4,10.1,7.4,60,0,7.6,7.1,3.9,60,0,4.6,3.0,64.6,60,0,69.0,60.0,28.1,60,0,39.0,18.0,239,0.0,1021.4,60,0,1021.4,0,1007.1,60,0,46.2,60,0
86282,2014-08-27 00:00:00,19370,60,0,0.0,0.0,0.0,60,0,0.0,0.0,0.0,60,0,0.0,0.0,0.0,60,0,0.0,0.0,337.4,60,0,342.9,323.3,0,0,0,28.1,60,0,10.2,60,0,10.4,10.1,7.4,60,0,7.6,7.1,3.9,60,0,4.6,3.0,64.6,60,0,69.0,60.0,28.1,60,0,39.0,18.0,239,0.0,1021.4,60,0,1021.4,0,1007.1,60,0,46.2,60,0
86282,2014-08-27 12:00:00,19380,60,0,0.0,0.0,0.0,60,0,0.0,0.0,0.0,60,0,0.0,0.0,0.0,60,0,0.0,0.0,337.4,60,0,342.9,323.3,0,0,0,28.1,60,0,10.2,60,0,10.4,10.1,7.4,60,0,7.6,7.1,3.9,60,0,4.6,3.0,64.6,60,0,69.0,60.0,28.1,60,0,39.0,18.0,239,0.0,1021.4,60,0,1021.4,0,1007.1,60,0,46.2,60,0
86282,2014-08-28 00:00:00,19390,60,0,0.0,0.0,0.0,60,0,0.0,0.0,0.0,60,0,0.0,0.0,0.0,60,0,0.0,0.0,337.4,60,0,342.9,323.3,0,0,0,28.1,60,0,10.2,60,0,10.4,10.1,7.4,60,0,7.6,7.1,3.9,60,0,4.6,3.0,64.6,60,0,69.0,60.0,28.1,60,0,39.0,18.0,239,0.0,1021.4,60,0,1021.4,0,1007.1,60,0,46.2,60,0
86282,2014-08-28 12:00:00,19400,60,0,0.0,0.0,0.0,60,0,0.0,0.0,0.0,60,0,0.0,0.0,0.0,60,0,0.0,0.0,337.4,60,0,342.9,323.3,0,0,0,28.1,60,0,10.2,60,0,10.4,10.1,7.4,60,0,7.6,7.1,3.9,60,0,4.6,3.0,64.6,60,0,69.0,60.0,28.1,60,0,39.0,18.0,239,0.0,1021.4,60,0,1021.4,0,1007.1,60,0,46.2,60,0
86282,2014-08-29 00:00:00,19410,60,0,0.0,0.0,0.0,60,0,0.0,0.0,0.0,60,0,0.0,0.0,0.0,60,0,0.0,0.0,337.4,60,0,342.9,323.3,0,0,0,28.1,60,0,10.2,60,0,10.4,10.1,7.4,60,0,7.6,7.1,3.9,60,0,4.6,3.0,64.6,60,0,69.0,60.0,28.1,60,0,39.0,18.0,239,0.0,1021.4,60,0,1021.4,0,1007.1,60,0,46.2,60,0
86282,2014-08-29 12:00:00,19420,60,0,0.0,0.0,0.0,60,0,0.0,0.0,0.0,60,0,0.0,0.0,0.0,60,0,0.0,0.0,337.4,60,0,342.9,323.3,0,0,0,28.1,60,0,10.2,60,0,10.4,10.1,7.4,60,0,7.6,7.1,3.9,60,0,4.6,3.0,64.6,60,0,69.0,60.0,28.1,60,0,39.0,18.0,239,0.0,1021.4,60,0,1021.4,0,1007.1,60,0,46.2,60,0
86282,2014-08-30 00:00:00,19430,60,0,0.0,0.0,0.0,60,0,0.0,0.0,0.0,60,0,0.0,0.0,0.0,60,0,0.0,0.0,337.4,60,0,342.9,323.3,0,0,0,28.1,60,0,10.2,60,0,10.4,10.1,7.4,60,0,7.6,7.1,3.9,60,0,4.6,3.0,64.6,60,0,69.0,60.0,28.1,60,0,39.0,18.0,239,0.0,1021.4,60,0,1021.4,0,1007.1,60,0,46.2,60,0
86282,2014-08-30 12:00:00,19440,60,0,0.0,0.0,0.0,60,0,0.0,0.0,0.0,60,0,0.0,0.0,0.0,60,0,0.0,0.0,337.4,60,0,342.9,323.3,0,0,0,28.1,60,0,10.2,60,0,10.4,10.1,7.4,60,0,7.6,7.1,3.9,60,0,4.6,3.0,64.6,60,0,69.0,60.0,28.1,60,0,39.0,18.0,239,0.0,1021.4,60,0,1021.4,0,1007.1,60,0,46.2,60,0
86282,2014-08-31 00:00:00,19450,60,0,0.0,0.0,0.0,60,0,0.0,0.0,0.0,60,0,0.0,0.0,0.0,60,0,0.0,0.0,337.4,60,0,342.9,323.3,0,0,0,28.1,60,0,10.2,60,0,10.4,10.1,7.4,60,0,7.6,7.1,3.9,60,0,4.6,3.0,64.6,60,0,69.0,60.0,28.1,60,0,39.0,18.0,239,0.0,1021.4,60,0,1021.4,0,1007.1,60,0,46.2,60,0
86282,2014-08-31 12:00:00,19460,60,0,0.0,0.0,0.0,60,0,0.0,0.0,0.0,60,0,0.0,0.0,0.0,60,0,0.0,0.0,337.4,60,0,342.9,323.3,0,0,0,28.1,60,0,10.2,60,0,10.4,10.1,7.4,60,0,7.6,7.1,3.9,60,0,4.6,3.0,64.6,60,0,69.0,60.0,28.1,60,0,39.0,18.0,239,0.0,1021.4,60,0,1021.4,0,1007.1,60,0,46.2,60,0
86282,2014-09-01 00:00:00,19470,60,0,0.0,0.0,0.0,60,0,0.0,0.0,0.0,60,0,0.0,0.0,0.0,60,0,0.0,0.0,337.4,60,0,342.9,323.3,0,0,0,28.1,60,0,10.2,60,0,10.4,10.1,7.4,60,0,7.6,7.1,3.9,60,0,4.6,3.0,64.6,60,0,69.0,60.0,28.1,60,0,39.0,18.0,239,0.0,1021.4,60,0,1021.4,0,1007.1,60,0,46.2,60,0
86282,2014-09-01 12:00:00,19480,60,0,0.0,0.0,0.0,60,0,0.0,0.0,0.0,60,0,0.0,0.0,0.0,60,0,0.0,0.0,337.4,60,0,342.9,323.3,0,0,0,28.1,60,0,10.2,60,0,10.4,10.1,7.4,60,0,7.6,7.1,3.9,60,0,4.6,3.0,64.6,60,0,69.0,60.0,28.1,60,0,39.0,18.0,239,0.0,1021.4,60,0,1021.4,0,1007.1,60,0,46.2,60,0
86282,2014-09-02 00:00:00,19490,60,0,0.0,0.0,0.0,60,0,0.0,0.0,0.0,60,0,0.0,0.0,0.0,60,0,0.0,0.0,337.4,60,0,342.9,323.3,0,0,0,28.1,60,0,10.2,60,0,10.4,10.1,7.4,60,0,7.6,7.1,3.9,60,0,4.6,3.0,64.6,60,0,69.0,60.0,28.1,60,0,39.0,18.0,239,0.0,1021.4,60,0,1021.4,0,1007.1,60,0,46.2,60,0
86282,2014-09-02 12:00:00,19500,60,0,0.0,0.0,0.0,60,0,0.0,0.0,0.0,60,0,0.0,0.0,0.0,60,0,0.0,0.0,337.4,60,0,342.9,323.3,0,0,0,28.1,60,0,10.2,60,0,10.4,10.1,7.4,60,0,7.6,7.1,3.9,60,0,4.6,3.0,64.6,60,0,69.0,60.0,28.1,60,0,39.0,18.0,239,0.0,1021.4,60,0,1021.4,0,1007.1,60,0,46.2,60,0
86282,2014-09-03 00:00:00,19510,60,0,0.0,0.0,0.0,60,0,0.0,0.0,0.0,60,0,0.0,0.0,0.0,60,0,0.0,0.0,337.4,60,0,342.9,323.3,0,0,0,28.1,60,0,10.2,60,0,10.4,10.1,7.4,60,0,7.6,7.1,3.9,60,0,4.6,3.0,64.6,60,0,69.0,60.0,28.1,60,0,39.0,18.0,239,0.0,1021.4,60,0,1021.4,0,1007.1,60,0,46.2,60,0
86282,2014-09-03 12:00:00,19520,60,0,0.0,0.0,0.0,60,0,0.0,0.0,0.0,60,0,0.0,0.0,0.0,60,0,0.0,0.0,337.4,60,0,342.9,323.3,0,0,0,28.1,60,0,10.2,60,0,10.4,10.1,7.4,60,0,7.6,7.1,3.9,60,0,4.6,3.0,64.6,60,0,69.0,60.0,28.1,60,0,39.0,18.0,239,0.0,1021.4,60,0,1021.4,0,1007.1,60,0,46.2,60,0
86282,2014-09-04 00:00:00,19530,60,0,0.0,0.0,0.0,60,0,0.0,0.0,0.0,60,0,0.0,0.0,0.0,60,0,0.0,0.0,337.4,60,0,342.9,323.3,0,0,0,28.1,60,0,10.2,60,0,10.4,10.1,7.4,60,0,7.6,7.1,3.9,60,0,4.6,3.0,64.6,60,0,69.0,60.0,28.1,60,0,39.0,18.0,239,0.0,1021.4,60,0,1021.4,0,1007.1,60,0,46.2,60,0
86282,2014-09-04 12:00:00,19540,60,0,0.0,0.0,0.0,60,0,0.0,0.0,0.0,60,0,0.0,0.0,0.0,60,0,0.0,0.0,337.4,60,0,342.9,323.3,0,0,0,28.1,60,0,10.2,60,0,10.4,10.1,7.4,60,0,7.6,7.1,3.9,60,0,4.6,3.0,64.6,60,0,69.0,60.0,28.1,60,0,39.0,18.0,239,0.0,1021.4,60,0,1021.4,0,1007.1,60,0,46.2,60,0
86282,2014-09-05 00:00:00,19550,60,0,0.0,0.0,0.0,60,0,0.0,0.0,0.0,60,0,0.0,0.0,0.0,60,0,0.0,0.0,337.4,60,0,342.9,323.3,0,0,0,28.1,60,0,10.2,60,0,10.4,10.1,7.4,60,0,7.6,7.1,3.9,60,0,4.6,3.0,64.6,60,0,69.0,60.0,28.1,60,0,39.0,18.0,239,0.0,1021.4,60,0,1021.4,0,1007.1,60,0,46.2,60,0
86282,2014-09-05 12:00:00,19560,60,0,0.0,0.0,0.0,60,0,0.0,0.0,0.0,60,0,0.0,0.0,0.0,60,0,0.0,0.0,337.4,60,0,342.9,323.3,0,0,0,28.1,60,0,10.2,60,0,10.4,10.1,7.4,60,0,7.6,7.1,3.9,60,0,4.6,3.0,64.6,60,0,69.0,60.0,28.1,60,0,39.0,18.0,239,0.0,1021.4,60,0,1021.4,0,1007.1,60,0,46.2,60,0
86282,2014-09-06 00:00:00,19570,60,0,0.0,0.0,0.0,60,0,0.0,0.0,0.0,60,0,0.0,0.0,0.0,60,0,0.0,0.0,337.4,60,0,342.9,323.3,0,0,0,28.1,60,0,10.2,60,0,10.4,10.1,7.4,60,0,7.6,7.1,3.9,60,0,4.6,3.0,64.6,60,0,69.0,60.0,28.1,60,0,39.0,18.0,239,0.0,1021.4,60,0,1021.4,0,1007.1,60,0,46.2,60,0
86282,2014-09-06 12:00:00,19580,60,0,0.0,0.0,0.0,60,0,0.0,0.0,0.0,60,0,0.0,0.0,0.0,60,0,0.0,0.0,337.4,60,0,342.9,323.3,0,0,0,28.1,60,0,10.2,60,0,10.4,10.1,7.4,60,0,7.6,7.1,3.9,60,0,4.6,3.0,64.6,60,0,69.0,60.0,28.1,60,0,39.0,18.0,239,0.0,1021.4,60,0,1021.4,0,1007.1,60,0,46.2,60,0
86282,2014-09-07 00:00:00,19590,60,0,0.0,0.0,0.0,60,0,0.0,0.0,0.0,60,0,0.0,0.0,0.0,60,0,0.0,0.0,337.4,60,0,342.9,323.3,0,0,0,28.1,60,0,10.2,60,0,10.4,10.1,7.4,60,0,7.6,7.1,3.9,60,0,4.6,3.0,64.6,60,0,69.0,60.0,28.1,60,0,39.0,18.0,239,0.0,1021.4,60,0,1021.4,0,1007.1,60,0,46.2,60,0
86282,2014-09-07 12:00:00,19600,60,0,0.0,0.0,0.0,60,0,0.0,0.0,0.0,60,0,0.0,0.0,0.0,60,0,0.0,0.0,337.4,60,0,342.9,323.3,0,0,0,28.1,60,0,10.2,60,0,10.4,10.1,7.4,60,0,7.6,7.1,3.9,60,0,4.6,3.0,64.6,60,0,69.0,60.0,28.1,60,0,39.0,18.0,239,0.0,1021.4,60,0,1021.4,0,1007.1,60,0,46.2,60,0
86282,2014-09-08 00:00:00,19610,60,0,0.0,0.0,0.0,60,0,0.0,0.0,0.0,60,0,0.0,0.0,0.0,60,0,0.0,0.0,337.4,60,0,342.9,323.3,0,0,0,28.1,60,0,10.2,60,0,10.4,10.1,7.4,60,0,7.6,7.1,3.9,60,0,4.6,3.0,64.6,60,0,69.0,60.0,28.1,60,0,39.0,18.0,239,0.0,1021.4,60,0,1021.4,0,1007.1,60,0,46.2,60,0
86282,2014-09-08 12:00:00,19620,60,0,0.0,0.0,0.0,60,0,0.0,0.0,0.0,60,0,0.0,0.0,0.0,60,0,0.0,0.0,337.4,60,0,342.9,323.3,0,0,0,28.1,60,0,10.2,60,0,10.4,10.1,7.4,60,0,7.6,7.1,3.9,60,0,4.6,3.0,64.6,60,0,69.0,60.0,28.1,60,0,39.0,18.0,239,0.0,1021.4,60,0,1021.4,0,1007.1,60,0,46.2,60,0
86282,2014-09-09 00:00:00,19630,60,0,0.0,0.0,0.0,60,0,0.0,0.0,0.0,60,0,0.0,0.0,0.0,60,0,0.0,0.0,337.4,60,0,342.9,323.3,0,0,0,28.1,60,0,10.2,60,0,10.4,10.1,7.4,60,0,7.6,7.1,3.9,60,0,4.6,3.0,64.6,60,0,69.0,60.0,28.1,60,0,39.0,18.0,239,0.0,1021.4,60,0,1021.4,0,1007.1,60,0,46.2,60,0
86282,2014-09-09 12:00:00,19640,60,0,0.0,0.0,0.0,60,0,0.0,0.0,0.0,60,0,0.0,0.0,0.0,60,0,0.0,0.0,337.4,60,0,342.9,323.3,0,0,0,28.1,60,0,10.2,60,0,10.4,10.1,7.4,60,0,7.6,7.1,3.9,60,0,4.6,3.0,64.6,60,0,69.0,60.0,28.1,60,0,39.0,18.0,239,0.0,1021.4,60,0,1021.4,0,1007.1,60,0,46.2,60,0
86282,2014-09-10 00:00:00,19650,60,0,0.0,0.0,0.0,60,0,0.0,0.0,0.0,60,0,0.0,0.0,0.0,60,0,0.0,0.0,337.4,60,0,342.9,323.3,0,0,0,28.1,60,0,10.2,60,0,10.4,10.1,7.4,60,0,7.6,7.1,3.9,60,0,4.6,3.0,64.6,60,0,69.0,60.0,28.1,60,0,39.0,18.0,239,0.0,1021.4,60,0,1021.4,0,1007.1,60,0,46.2,60,0
86282,2014-09-10 12:00:00,19660,60,0,0.0,0.0,0.0,60,0,0.0,0.0,0.0,60,0,0.0,0.0,0.0,60,0,0.0,0.0,337.4,60,0,342.9,323.3,0,0,0,28.1,60,0,10.2,60,0,10.4,10.1,7.4,60,0,7.6,7.1,3.9,60,0,4.6,3.0,64.6,60,0,69.0,60.0,28.1,60,0,39.0,18.0,239,0.0,1021.4,60,0,1021.4,0,1007.1,60,0,46.2,60,0
86282,2014-09-11 00:00:00,19670,60,0,0.0,0.0,0.0,60,0,0.0,0.0,0.0,60,0,0.0,0.0,0.0,60,0,0.0,0.0,337.4,60,0,342.9,323.3,0,0,0,28.1,60,0,10.2,60,0,10.4,10.1,7.4,60,0,7.6,7.1,3.9,60,0,4.6,3.0,64.6,60,0,69.0,60.0,28.1,60,0,39.0,18.0,239,0.0,1021.4,60,0,1021.4,0,1007.1,60,0,46.2,60,0
86282,2014-09-11 12:00:00,19680,60,0,0.0,0.0,0.0,60,0,0.0,0.0,0.0,60,0,0.0,0.0,0.0,60,0,0.0,0.0,337.4,60,0,342.9,323.3,0,0,0,28.1,60,0,10.2,60,0,10.4,10.1,7.4,60,0,7.6,7.1,3.9,60,0,4.6,3.0,64.6,60,0,69.0,60.0,28.1,60,0,39.0,18.0,239,0.0,1021.4,60,0,1021.4,0,1007.1,60,0,46.2,60,0
86282,2014-09-12 00:00:00,19690,60,0,0.0,0.0,0.0,60,0,0.0,0.0,0.0,60,0,0.0,0.0,0.0,60,0,0.0,0.0,337.4,60,0,342.9,323.3,0,0,0,28.1,60,0,10.2,60,0,10.4,10.1,7.4,60,0,7.6,7.1,3.9,60,0,4.6,3.0,64.6,60,0,69.0,60.0,28.1,60,0,39.0,18.0,239,0.0,1021.4,60,0,1021.4,0,1007.1,60,0,46.2,60,0
86282,2014-09-12 12:00:00,19700,60,0,0.0,0.0,0.0,60,0,0.0,0.0,0.0,60,0,0.0,0.0,0.0,60,0,0.0,0.0,337.4,60,0,342.9,323.3,0,0,0,28.1,60,0,10.2,60,0,10.4,10.1,7.4,60,0,7.6,7.1,3.9,60,0,4.6,3.0,64.6,60,0,69.0,60.0,28.1,60,0,39.0,18.0,239,0.0,1021.4,60,0,1021.4,0,1007.1,60,0,46.2,60,0
86282,2014-09-13 00:00:00,19710,60,0,0.0,0.0,0.0,60,0,0.0,0.0,0.0,60,0,0.0,0.0,0.0,60,0,0.0,0.0,337.4,60,0,342.9,323.3,0,0,0,28.1,60,0,10.2,60,0,10.4,10.1,7.4,60,0,7.6,7.1,3.9,60,0,4.6,3.0,64.6,60,0,69.0,60.0,28.1,60,0,39.0,18.0,239,0.0,1021.4,60,0,1021.4,0,1007.1,60,0,46.2,60,0
86282,2014-09-13 12:00:00,19720,60,0,0.0,0.0,0.0,60,0,0.0,0.0,0.0,60,0,0.0,0.0,0.0,60,0,0.0,0.0,337.4,60,0,342.9,323.3,0,0,0,28.1,60,0,10.2,60,0,10.4,10.1,7.4,60,0,7.6,7.1,3.9,60,0,4.6,3.0,64.6,60,0,69.0,60.0,28.1,60,0,39.0,18.0,239,0.0,1021.4,60,0,1021.4,0,1007.1,60,0,46.2,60,0
86282,2014-09-14 00:00:00,19730,60,0,0.0,0.0,0.0,60,0,0.0,0.0,0.0,60,0,0.0,0.0,0.0,60,0,0.0,0.0,337.4,60,0,342.9,323.3,0,0,0,28.1,60,0,10.2,60,0,10.4,10.1,7.4,60,0,7.6,7.1,3.9,60,0,4.6,3.0,64.6,60,0,69.0,60.0,28.1,60,0,39.0,18.0,239,0.0,1021.4,60,0,1021.4,0,1007.1,60,0,46.2,60,0
86282,2014-09-14 12:00:00,19740,60,0,0.0,0.0,0.0,60,0,0.0,0.0,0.0,60,0,0.0,0.0,0.0,60,0,0.0,0.0,337.4,60,0,342.9,323.3,0,0,0,28.1,60,0,10.2,60,0,10.4,10.1,7.4,60,0,7.6,7.1,3.9,60,0,4.6,3.0,64.6,60,0,69.0,60.0,28.1,60,0,39.0,18.0,239,0.0,1021.4,60,0,1021.4,0,1007.1,60,0,46.2,60,0
86282,2014-09-15 00:00:00,19750,60,0,0.0,0.0,0.0,60,0,0.0,0.0,0.0,60,0,0.0,0.0,0.0,60,0,0.0,0.0,337.4,60,0,342.9,323.3,0,0,0,28.1,60,0,10.2,60,0,10.4,10.1,7.4,60,0,7.6,7.1,3.9,60,0,4.6,3.0,64.6,60,0,69.0,60.0,28.1,60,0,39.0,18.0,239,0.0,1021.4,60,0,1021.4,0,1007.1,60,0,46.2,60,0
86282,2014-09-15 12:00:00,19760,60,0,0.0,0.0,0.0,60,0,0.0,0.0,0.0,60,0,0.0,0.0,0.0,60,0,0.0,0.0,337.4,60,0,342.9,323.3,0,0,0,28.1,60,0,10.2,60,0,10.4,10.1,7.4,60,0,7.6,7.1,3.9,60,0,4.6,3.0,64.6,60,0,69.0,60.0,28.1,60,0,39.0,18.0,239,0.0,1021.4,60,0,1021.4,0,1007.1,60,0,46.2,60,0
86282,2014-09-16 00:00:00,19770,60,0,0.0,0.0,0.0,60,0,0.0,0.0,0.0,60,0,0.0,0.0,0.0,60,0,0.0,0.0,337.4,60,0,342.9,323.3,0,0,0,28.1,60,0,10.2,60,0,10.4,10.1,7.4,60,0,7.6,7.1,3.9,60,0,4.6,3.0,64.6,60,0,69.0,60.0,28.1,60,0,39.0,18.0,239,0.0,1021.4,60,0,1021.4,0,1007.1,60,0,46.2,60,0
86282,2014-09-16 12:00:00,19780,60,0,0.0,0.0,0.0,60,0,0.0,0.0,0.0,60,0,0.0,0.0,0.0,60,0,0.0,0.0,337.4,60,0,342.9,323.3,0,0,0,28.1,60,0,10.2,60,0,10.4,10.1,7.4,60,0,7.6,7.1,3.9,60,0,4.6,3.0,64.6,60,0,69.0,60.0,28.1,60,0,39.0,18.0,239,0.0,1021.4,60,0,1021.4,0,1007.1,60,0,46.2,60,0
86282,2014-09-17 00:00:00,19790,60,0,0.0,0.0,0.0,60,0,0.0,0.0,0.0,60,0,0.0,0.0,0.0,60,0,0.0,0.0,337.4,60,0,342.9,323.3,0,0,0,28.1,60,0,10.2,60,0,10.4,10.1,7.4,60,0,7.6,7.1,3.9,60,0,4.6,3.0,64.6,60,0,69.0,60.0,28.1,60,0,39.0,18.0,239,0.0,1021.4,60,0,1021.4,0,1007.1,60,0,46.2,60,0
86282,2014-09-17 12:00:00,19800,60,0,0.0,0.0,0.0,60,0,0.0,0.0,0.0,60,0,0.0,0.0,0.0,60,0,0.0,0.0,337.4,60,0,342.9,323.3,0,0,0,28.1,60,0,10.2,60,0,10.4,10.1,7.4,60,0,7.6,7.1,3.9,60,0,4.6,3.0,64.6,60,0,69.0,60.0,28.1,60,0,39.0,18.0,239,0.0,1021.4,60,0,1021.4,0,1007.1,60,0,46.2,60,0
86282,2014-09-18 00:00:00,19810,60,0,0.0,0.0,0.0,60,0,0.0,0.0,0.0,60,0,0.0,0.0,0.0,60,0,0.0,0.0,337.4,60,0,342.9,323.3,0,0,0,28.1,60,0,10.2,60,0,10.4,10.1,7.4,60,0,7.6,7.1,3.9,60,0,4.6,3.0,64.6,60,0,69.0,60.0,28.1,60,0,39.0,18.0,239,0.0,1021.4,60,0,1021.4,0,1007.1,60,0,46.2,60,0
86282,2014-09-18 12:00:00,19820,60,0,0.0,0.0,0.0,60,0,0.0,0.0,0.0,60,0,0.0,0.0,0.0,60,0,0.0,0.0,337.4,60,0,342.9,323.3,0,0,0,28.1,60,0,10.2,60,0,10.4,10.1,7.4,60,0,7.6,7.1,3.9,60,0,4.6,3.0,64.6,60,0,69.0,60.0,28.1,60,0,39.0,18.0,239,0.0,1021.4,60,0,1021.4,0,1007.1,60,0,46.2,60,0
86282,2014-09-19 00:00:00,19830,60,0,0.0,0.0,0.0,60,0,0.0,0.0,0.0,60,0,0.0,0.0,0.0,60,0,0.0,0.0,337.4,60,0,342.9,323.3,0,0,0,28.1,60,0,10.2,60,0,10.4,10.1,7.4,60,0,7.6,7.1,3.9,60,0,4.6,3.0,64.6,60,0,69.0,60.0,28.1,60,0,39.0,18.0,239,0.0,1021.4,60,0,1021.4,0,1007.1,60,0,46.2,60,0
86282,2014-09-19 12:00:00,19840,60,0,0.0,0.0,0.0,60,0,0.0,0.0,0.0,60,0,0.0,0.0,0.0,60,0,0.0,0.0,337.4,60,0,342.9,323.3,0,0,0,28.1,60,0,10.2,60,0,10.4,10.1,7.4,60,0,7.6,7.1,3.9,60,0,4.6,3.0,64.6,60,0,69.0,60.0,28.1,60,0,39.0,18.0,239,0.0,1021.4,60,0,1021.4,0,1007.1,60,0,46.2,60,0
86282,2014-09-20 00:00:00,19850,60,0,0.0,0.0,0.0,60,0,0.0,0.0,0.0,60,0,0.0,0.0,0.0,60,0,0.0,0.0,337.4,60,0,342.9,323.3,0,0,0,28.1,60,0,10.2,60,0,10.4,10.1,7.4,60,0,7.6,7.1,3.9,60,0,4.6,3.0,64.6,60,0,69.0,60.0,28.1,60,0,39.0,18.0,239,0.0,1021.4,60,0,1021.4,0,1007.1,60,0,46.2,60,0
86282,2014-09-20 12:00:00,19860,60,0,0.0,0.0,0.0,60,0,0.0,0.0,0.0,60,0,0.0,0.0,0.0,60,0,0.0,0.0,337.4,60,0,342.9,323.3,0,0,0,28.1,60,0,10.2,60,0,10.4,10.1,7.4,60,0,7.6,7.1,3.9,60,0,4.6,3.0,64.6,60,0,69.0,60.0,28.1,60,0,39.0,18.0,239,0.0,1021.4,60,0,1021.4,0,1007.1,60,0,46.2,60,0
86282,2014-09-21 00:00:00,19870,60,0,0.0,0.0,0.0,60,0,0.0,0.0,0.0,60,0,0.0,0.0,0.0,60,0,0.0,0.0,337.4,60,0,342.9,323.3,0,0,0,28.1,60,0,10.2,60,0,10.4,10.1,7.4,60,0,7.6,7.1,3.9,60,0,4.6,3.0,64.6,60,0,69.0,60.0,28.1,60,0,39.0,18.0,239,0.0,1021.4,60,0,1021.4,0,1007.1,60,0,46.2,60,0
86282,2014-09-21 12:00:00,19880,60,0,0.0,0.0,0.0,60,0,0.0,0.0,0.0,60,0,0.0,0.0,0.0,60,0,0.0,0.0,337.4,60,0,342.9,323.3,0,0,0,28.1,60,0,10.2,60,0,10.4,10.1,7.4,60,0,7.6,7.1,3.9,60,0,4.6,3.0,64.6,60,0,69.0,60.0,28.1,60,0,39.0,18.0,239,0.0,1021.4,60,0,1021.4,0,1007.1,60,0,46.2,60,0
86282,2014-09-22 00:00:00,19890,60,0,0.0,0.0,0.0,60,0,0.0,0.0,0.0,60,0,0.0,0.0,0.0,60,0,0.0,0.0,337.4,60,0,342.9,323.3,0,0,0,28.1,60,0,10.2,60,0,10.4,10.1,7.4,60,0,7.6,7.1,3.9,60,0,4.6,3.0,64.6,60,0,69.0,60.0,28.1,60,0,39.0,18.0,239,0.0,1021.4,60,0,1021.4,0,1007.1,60,0,46.2,60,0
86282,2014-09-22 12:00:00,19900,60,0,0.0,0.0,0.0,60,0,0.0,0.0,0.0,60,0,0.0,0.0,0.0,60,0,0.0,0.0,337.4,60,0,342.9,323.3,0,0,0,28.1,60,0,10.2,60,0,10.4,10.1,7.4,60,0,7.6,7.1,3.9,60,0,4.6,3.0,64.6,60,0,69.0,60.0,28.1,60,0,39.0,18.0,239,0.0,1021.4,60,0,1021.4,0,1007.1,60,0,46.2,60,0
86282,2014-09-23 00:00:00,19910,60,0,0.0,0.0,0.0,60,0,0.0,0.0,0.0,60,0,0.0,0.0,0.0,60,0,0.0,0.0,337.4,60,0,342.9,323.3,0,0,0,28.1,60,0,10.2,60,0,10.4,10.1,7.4,60,0,7.6,7.1,3.9,60,0,4.6,3.0,64.6,60,0,69.0,60.0,28.1,60,0,39.0,18.0,239,0.0,1021.4,60,0,1021.4,0,1007.1,60,0,46.2,60,0
86282,2014-09-23 12:00:00,19920,60,0,0.0,0.0,0.0,60,0,0.0,0.0,0.0,60,0,0.0,0.0,0.0,60,0,0.0,0.0,337.4,60,0,342.9,323.3,0,0,0,28.1,60,0,10.2,60,0,10.4,10.1,7.4,60,0,7.6,7.1,3.9,60,0,4.6,3.0,64.6,60,0,69.0,60.0,28.1,60,0,39.0,18.0,239,0.0,1021.4,60,0,1021.4,0,1007.1,60,0,46.2,60,0
86282,2014-09-24 00:00:00,19930,60,0,0.0,0.0,0.0,60,0,0.0,0.0,0.0,60,0,0.0,0.0,0.0,60,0,0.0,0.0,337.4,60,0,342.9,323.3,0,0,0,28.1,60,0,10.2,60,0,10.4,10.1,7.4,60,0,7.6,7.1,3.9,60,0,4.6,3.0,64.6,60,0,69.0,60.0,28.1,60,0,39.0,18.0,239,0.0,1021.4,60,0,1021.4,0,1007.1,60,0,46.2,60,0
86282,2014-09-24 12:00:00,19940,60,0,0.0,0.0,0.0,60,0,0.0,0.0,0.0,60,0,0.0,0.0,0.0,60,0,0.0,0.0,337.4,60,0,342.9,323.3,0,0,0,28.1,60,0,10.2,60,0,10.4,10.1,7.4,60,0,7.6,7.1,3.9,60,0,4.6,3.0,64.6,60,0,69.0,60.0,28.1,60,0,39.0,18.0,239,0.0,1021.4,60,0,1021.4,0,1007.1,60,0,46.2,60,0
86282,2014-09-25 00:00:00,19950,60,0,0.0,0.0,0.0,60,0,0.0,0.0,0.0,60,0,0.0,0.0,0.0,60,0,0.0,0.0,337.4,60,0,342.9,323.3,0,0,0,28.1,60,0,10.2,60,0,10.4,10.1,7.4,60,0,7.6,7.1,3.9,60,0,4.6,3.0,64.6,60,0,69.0,60.0,28.1,60,0,39.0,18.0,239,0.0,1021.4,60,0,1021.4,0,1007.1,60,0,46.2,60,0
86282,2014-09-25 12:00:00,19960,60,0,0.0,0.0,0.0,60,0,0.0,0.0,0.0,60,0,0.0,0.0,0.0,60,0,0.0,0.0,337.4,60,0,342.9,323.3,0,0,0,28.1,60,0,10.2,60,0,10.4,10.1,7.4,60,0,7.6,7.1,3.9,60,0,4.6,3.0,64.6,60,0,69.0,60.0,28.1,60,0,39.0,18.0,239,0.0,1021.4,60,0,1021.4,0,1007.1,60,0,46.2,60,0
86282,2014-09-26 00:00:00,19970,60,0,0.0,0.0,0.0,60,0,0.0,0.0,0.0,60,0,0.0,0.0,0.0,60,0,0.0,0.0,337.4,60,0,342.9,323.3,0,0,0,28.1,60,0,10.2,60,0,10.4,10.1,7.4,60,0,7.6,7.1,3.9,60,0,4.6,3.0,64.6,60,0,69.0,60.0,28.1,60,0,39.0,18.0,239,0.0,1021.4,60,0,1021.4,0,1007.1,60,0,46.2,60,0
86282,2014-09-26 12:00:00,19980,60,0,0.0,0.0,0.0,60,0,0.0,0.0,0.0,60,0,0.0,0.0,0.0,60,0,0.0,0.0,337.4,60,0,342.9,323.3,0,0,0,28.1,60,0,10.2,60,0,10.4,10.1,7.4,60,0,7.6,7.1,3.9,60,0,4.6,3.0,64.6,60,0,69.0,60.0,28.1,60,0,39.0,18.0,239,0.0,1021.4,60,0,1021.4,0,1007.1,60,0,46.2,60,0
86282,2014-09-27 00:00:00,19990,60,0,0.0,0.0,0.0,60,0,0.0,0.0,0.0,60,0,0.0,0.0,0.0,60,0,0.0,0.0,337.4,60,0,342.9,323.3,0,0,0,28.1,60,0,10.2,60,0,10.4,10.1,7.4,60,0,7.6,7.1,3.9,60,0,4.6,3.0,64.6,60,0,69.0,60.0,28.1,60,0,39.0,18.0,239,0.0,1021.4,60,0,1021.4,0,1007.1,60,0,46.2,60,0
